{"93946782":{"location":[49.0027867,21.2158085],"ts":"2024-03-17T13:38:29Z","tz":1,"tags":{"addr:city":"Prešov","addr:conscriptionnumber":"6161","addr:country":"SK","addr:housenumber":"6161/120","addr:postcode":"08001","addr:street":"Levočská","addr:streetnumber":"120","addr:suburb":"Prešov","building":"yes","building:levels":"1","club":"sport","name":"Horolezecký klub C.A.P. Prešov","ref:minvskaddress":"25583283","source":"kapor2","source:addr":"minvskaddress 2024-02","sport":"climbing","website":"http://www.cappo.sk/"}},"1042604226":{"location":[49.0171898,21.2306545],"ts":"2024-03-09T21:10:07Z","tz":1,"tags":{"addr:city":"Prešov","addr:conscriptionnumber":"14576","addr:country":"SK","addr:housenumber":"14576/62","addr:postcode":"08001","addr:street":"Tomášikova","addr:streetnumber":"62","addr:suburb":"Prešov","building":"sports_centre","fee":"yes","leisure":"sports_centre","name":"Indoorová lezecká stena Bouldrovka","opening_hours":"Mo-Su 09:00-22:00","operator":"Outdoor Park","ref:minvskaddress":"10601437","source:addr":"minvskaddress 2024-02","sport":"climbing"}},"1086395164":{"location":[48.9935007,21.2714],"ts":"2024-03-16T11:50:06Z","tz":1,"tags":{"building":"yes","leisure":"sports_centre","name":"Lezecká stena My wall","opening_hours":"Mo-Fr 17:00-21:00","phone":"+421 949 637 302","sport":"climbing","website":"https://mywall.sk/"}},"1088616386":{"location":[49.0170223,21.2307962],"ts":"2024-03-09T21:10:07Z","tz":1,"tags":{"building":"yes","leisure":"sports_centre","name":"Boulderingová veža","operator":"Outdoor Park","sport":"climbing"}},"1154591469":{"location":[49.0169247,21.2298593],"ts":"2023-07-30T20:51:27Z","tz":1,"tags":{"building":"yes","leisure":"sports_centre","name":"Ministienka","sport":"climbing"}},"1163670991":{"location":[48.9367274,21.4009678],"ts":"2011-02-20T16:43:44Z","tz":1,"tags":{"sport":"climbing"}},"1193418346":{"location":[49.0171993,21.230808],"ts":"2023-07-30T20:51:27Z","tz":1,"tags":{"building":"yes","leisure":"sports_centre","name":"Vonkajší lezecký profil","operator":"Outdoor Park","sport":"climbing"}},"1193418350":{"location":[49.0169208,21.2305481],"ts":"2023-07-30T20:51:27Z","tz":1,"tags":{"building":"yes","leisure":"sports_centre","name":"Big Swing","sport":"climbing"}},"1193418353":{"location":[49.0168362,21.2295601],"ts":"2023-07-30T20:51:27Z","tz":1,"tags":{"building":"yes","leisure":"sports_centre","name":"Lanovka","sport":"climbing"}},"1328317635":{"location":[49.017061,21.229995],"ts":"2024-10-26T07:44:01Z","tz":1,"tags":{"building":"yes","leisure":"sports_centre","sport":"climbing"}},"10903359967":{"location":[49.0172513,21.2305548],"ts":"2024-03-09T21:10:06Z","tz":1,"tags":{"name":"Lezecký obchod Outdoor Park","shop":"sports","sport":"climbing","website":"https://www.outdoorpark.sk/clanok/lezecky-obchod"}},"11140808404":{"location":[48.9961082,21.2231251],"ts":"2023-08-24T10:40:56Z","tz":1,"tags":{"leisure":"sports_centre","name":"Vonkajšia lezecká stena ZŠ","operator":"Základná škola Československej armády","sport":"climbing"}}}