{"209091076":{"lat":52.0396434,"lon":8.5659543,"ts":"2020-02-05T13:41:22Z","tz":1,"tags":{"addr:city":"Bielefeld","addr:country":"DE","addr:housenumber":"265a","addr:postcode":"33609","addr:street":"Herforder Stra√üe","building":"yes","leisure":"sports_centre","name":"Bloc Buster","opening_hours":"Mo 14:00-22:00; Tu 10:00-22:00; We 14:00-22:00; Th 10:00-22:00; Fr 14:00-22:00; Sa-Su 10:00-22:00; PH 10:00-22:00","phone":"+49 521 30449108","sport":"climbing","website":"https://bielefeld.blocbuster.net/"}},"247906914":{"lat":51.9925982,"lon":8.538105,"ts":"2020-03-10T12:36:18Z","tz":1,"tags":{"height":"3.5","natural":"rock","sport":"climbing"}},"455932835":{"lat":51.9911704,"lon":8.5421667,"ts":"2022-02-06T20:37:05Z","tz":1,"tags":{"natural":"tree","sport":"climbing"}},"480665085":{"lat":51.9925795,"lon":8.5384114,"ts":"2021-09-29T20:03:39Z","tz":1,"tags":{"alt_name":"Halleluja-Steinbruch","barrier":"fence","climbing:bolted":"yes","climbing:grade:saxon:max":"IX","climbing:grade:saxon:mean":"VII","climbing:grade:saxon:min":"III","climbing:orientation":"SW","climbing:quality":"solid","climbing:rock":"sandstone","disused":"landuse=quarry","fee":"no","height":"15","name":"Hallelujasteinbruch","natural":"cliff","opening_hours":"Aug-Jan","sport":"climbing","website":"http://felsinfo.alpenverein.de/index.php?mapId=82&option=com_content&view=article&id=840&fels=4583#scale=9244648&centerX=NaN&centerY=NaN&layers=1465218397,152917,0"}},"1656021147":{"lat":52.0412693,"lon":8.5162403,"ts":"2012-03-02T14:46:43Z","tz":1,"tags":{"addr:city":"Bielefeld","addr:country":"DE","addr:housenumber":"36","addr:postcode":"33613","addr:street":"Am Brodhagen","note":"Kletterwand am Kirchturm","sport":"climbing"}},"6463037813":{"lat":51.8911359,"lon":8.4633413,"ts":"2019-05-09T21:11:45Z","tz":1,"tags":{"fitness_station":"yes","leisure":"sports_centre","name":"Kletterwand","sport":"climbing"}},"8889667898":{"lat":52.0296269,"lon":8.5895355,"ts":"2021-07-06T13:32:13Z","tz":1,"tags":{"climbing:boulder":"yes","leisure":"sports_centre","name":"Boulderhalle Bootshaus","sport":"climbing","website":"https://www.boulderhallebootshaus.de/"}},"10012945366":{"lat":51.88946,"lon":8.5005468,"ts":"2022-09-10T09:55:30Z","tz":1,"tags":{"leisure":"pitch","sport":"climbing"}},"11298828455":{"lat":51.9068419,"lon":8.7253841,"ts":"2023-10-29T22:26:37Z","tz":1,"tags":{"leisure":"sport","sport":"climbing"}},"12172354998":{"lat":51.935358,"lon":8.5604102,"ts":"2024-09-12T13:20:50Z","tz":1,"tags":{"climbing:boulder":"yes","fee":"yes","indoor":"yes","leisure":"sports_centre","name":"Center of Gravity Boulderhalle","outdoor":"no","sport":"climbing","website":"https://center-of-gravity-boulderhalle.de/"}}}