{"12435074":{"location":[50.1896294,8.4895227],"ts":"2022-12-30T14:54:54Z","tz":1,"tags":{"climbing":"area","name":"Herr Zhu","type":"site"}},"24787880":{"location":[50.2273094,8.5340629],"ts":"2022-03-07T21:46:30Z","tz":1,"tags":{"climbing:bolted":"yes","climbing:rock":"slate","climbing:sport":"yes","name":"Goldgrubenfelsen","natural":"cliff","sport":"climbing"}},"28299711":{"location":[50.1641452,8.6847962],"ts":"2025-02-12T09:07:43Z","tz":1,"tags":{"addr:city":"Frankfurt am Main","addr:country":"DE","addr:housenumber":"50","addr:postcode":"60433","addr:street":"August-Schanz-Straße","building":"yes","climbing:boulder":"yes","climbing:sport":"no","climbing:toprope":"no","contact:email":"kontakt@boulderwelt-frankfurt.de","contact:phone":"+49 69 95416560","contact:website":"https://boulderwelt-frankfurt.de","leisure":"sports_centre","name":"Boulderwelt Frankfurt","note":"little café inside, Boulderwelt shop always open when hall is open","opening_hours":"Mo-Fr 07:00-23:00; Sa-Su 08:00-23:00","opening_hours:url":"https://boulderwelt-frankfurt.de/kontakt/","sport":"climbing"}},"111092591":{"location":[50.0836564,8.6698562],"ts":"2023-12-13T06:57:21Z","tz":1,"tags":{"building":"yes","leisure":"sports_centre","name":"Kletterturm","opening_hours":"Tu-Th 11:00-19:00","sport":"climbing","wheelchair":"no"}},"114980175":{"location":[50.1367878,8.7327149],"ts":"2025-03-20T07:30:30Z","tz":1,"tags":{"addr:city":"Frankfurt am Main","addr:housenumber":"45","addr:postcode":"60388","addr:street":"Flinschstraße","building":"yes","climbing":"boulder","climbing:boulder":"yes","climbing:sport":"no","climbing:toprope":"no","description":"Boulderhalle","leisure":"sports_centre","name":"Dynochrom","opening_hours":"Mo 15:00-23:30; Tu-Sa 09:00-23:30; Su 09:00-21:30","phone":"+49 69 40802770","sport":"climbing","website":"https://www.dynochrom.de"}},"150200710":{"location":[50.2304023,8.6118617],"ts":"2023-06-27T18:07:45Z","tz":1,"tags":{"addr:city":"Bad Homburg v. d. Höhe","addr:housenumber":"24","addr:postcode":"61348","addr:street":"Wallstraße","building":"public","climbing:sport":"yes","email":"info@e-werk-hgde","name":"Jugendkulturtreff E-Werk","opening_hours":"Mo 17:00-20:00, We 20:00-23:00","phone":"+49 (0)6172 25342-0","sport":"climbing","website":"https://www.bad-homburg.de/microsite/e-werk/index.php"}},"203468116":{"location":[50.1599005,8.6861819],"ts":"2022-04-14T16:10:39Z","tz":1,"tags":{"addr:city":"Frankfurt am Main","addr:country":"DE","addr:housename":"DAV Kletterhalle","addr:housenumber":"283","addr:postcode":"60433","addr:street":"Homburger Landstraße","building":"yes","climbing:boulder":"yes","climbing:length":"15","climbing:sport":"170","contact:webcam":"https://www.kletterzentrum-frankfurtmain.de/start/webcam/","contact:website":"https://www.kletterzentrum-frankfurtmain.de/start/","fee":"yes","int_name":"DAV climbing centre Frankfurt am Main","leisure":"sports_centre","name":"DAV Kletterzentrum Frankfurt Main","opening_hours":"Mo-Su 09:30-22:30","sport":"climbing"}},"314746634":{"location":[50.1334385,8.7659255],"ts":"2020-09-15T14:12:41Z","tz":1,"tags":{"building":"yes","climbing:sport":"yes","contact:webcam":"http://www.t-hall.de/ffm/galerie/cam/THallFfm_cam.jpg","indoor":"yes","leisure":"sports_centre","name":"T-Hall","opening_hours":"Mo-Fr 10:00-23:00; Oct-May: Sa-Su 10:00-23:00; Jun-Sep: Sa-Su 10:00-21:00","sport":"climbing"}},"542712025":{"location":[50.0851256,8.7436706],"ts":"2023-08-30T16:49:19Z","tz":1,"tags":{"addr:city":"Offenbach am Main","addr:housenumber":"177b","addr:postcode":"63069","addr:street":"Sprendlinger Landstraße","building":"yes","charge":"16€ Tageskarte Erwachsene","fee":"yes","leisure":"sports_centre","name":"KletterBar","opening_hours":"Mo-Fr 10:00-23:00, Sa-So 09:00-22:00","payment:cards":"yes","sport":"climbing","website":"http://www.kletter-bar.de/"}},"810715708":{"location":[50.1942569,8.503538],"ts":"2020-11-18T11:46:07Z","tz":1,"tags":{"climbing:boulder":"yes","name":"Bürgelplatte","natural":"rock","sport":"climbing"}},"827706249":{"location":[50.1894801,8.4889937],"ts":"2021-03-12T12:57:31Z","tz":1,"tags":{"height":"6","natural":"cliff","sport":"climbing"}},"916260382":{"location":[50.1896292,8.489464],"ts":"2021-03-12T12:57:31Z","tz":1,"tags":{"natural":"cliff","sport":"climbing"}},"916260383":{"location":[50.1897695,8.4902171],"ts":"2021-03-12T12:57:31Z","tz":1,"tags":{"natural":"cliff","sport":"climbing"}},"1245900748":{"location":[50.191889,8.4879916],"ts":"2024-02-03T19:06:13Z","tz":1,"tags":{"natural":"cliff","sport":"climbing"}},"1245900749":{"location":[50.1919965,8.4877808],"ts":"2024-02-03T19:06:13Z","tz":1,"tags":{"natural":"cliff","sport":"climbing"}},"6747078667":{"location":[50.2423584,8.7489435],"ts":"2023-11-30T12:09:21Z","tz":1,"tags":{"addr:city":"Karben","addr:housenumber":"2","addr:postcode":"61184","addr:street":"Am Häuserbach","leisure":"sports_centre","name":"Hapik","old_name":"Clip'n Climb","sport":"climbing","website":"https://www.clipnclimb-frankfurt.de/"}},"8240644529":{"location":[50.1336754,8.7006064],"ts":"2021-06-09T17:16:04Z","tz":1,"tags":{"building":"detached","leisure":"sports_centre","name":"Outdoor-Kletterturm","sport":"climbing","wheelchair":"no"}},"9017237225":{"location":[50.1348542,8.6703379],"ts":"2021-08-18T13:04:52Z","tz":1,"tags":{"sport":"climbing"}},"9246095115":{"location":[50.1276097,8.6898369],"ts":"2024-11-15T00:16:15Z","tz":1,"tags":{"panoramax":"719c005f-9a5d-41bd-b404-ab42869e5c30","sport":"climbing"}},"9717186228":{"location":[50.1290207,8.4472175],"ts":"2022-05-05T05:53:17Z","tz":1,"tags":{"leisure":"sports_centre","sport":"climbing"}},"11145705507":{"location":[50.1318531,8.7170119],"ts":"2023-09-17T09:32:58Z","tz":1,"tags":{"access":"private","building":"no","leisure":"sports_centre","name":"Turngemeinde Bornheim 1860 e.V. Fitnessstudio","operator":"Turngemeinde Bornheim 1860 e.V","outdoor":"yes","sport":"climbing"}}}