{"30650807":{"location":[49.8799969,8.6364151],"ts":"2025-01-20T13:56:34Z","tz":1,"tags":{"addr:city":"Darmstadt","addr:housenumber":"75","addr:postcode":"64293","addr:street":"Landwehrstraße","building":"sports_hall","building:levels":"2","climbing:boulder":"yes","leisure":"sports_centre","name":"Boulderhaus Darmstadt","opening_hours":"Mo-Su 09:00-23:00","sport":"climbing","website":"https://www.boulderhaus.net/","wheelchair":"yes"}},"264526562":{"location":[49.8610274,8.6742758],"ts":"2024-04-28T20:30:33Z","tz":1,"tags":{"addr:city":"Darmstadt","addr:country":"DE","addr:housenumber":"15","addr:postcode":"64287","addr:street":"Lichtwiesenweg","addr:suburb":"Darmstadt-Ost","building":"yes","climbing:sport":"yes","fee":"yes","leisure":"sports_centre","name":"DAV Kletterzentrum Darmstadt","note":"\"Der Sportbetrieb endet jeweils 30 min. vor Schließung der Halle. Für Gruppen öffnen wir nach Absprache auch außerhalb dieser Zeiten.\"","opening_hours":"Mo 14:00-23:00; Tu-Fr 10:00-23:00; Sa 09:00-21:00; Su 09:00-21:00; PH 09:00-21:00","ref":"H1|07","sport":"climbing","website":"https://www.kletterzentrum-darmstadt.de/"}},"265194310":{"location":[49.8607745,8.6736077],"ts":"2010-08-16T23:25:35Z","tz":1,"tags":{"name":"Kletterturm Hochschulsport","sport":"climbing"}},"4447338830":{"location":[49.9965683,8.7587151],"ts":"2016-10-14T21:25:22Z","tz":1,"tags":{"name":"Kletterwand","playground":"climbingwall","sport":"climbing"}},"5638248404":{"location":[49.9926817,8.4398483],"ts":"2020-09-16T22:59:34Z","tz":1,"tags":{"climbing:boulder":"yes","climbing:length:max":"3","description":"Kleine Boulderwand","outdoor":"yes","sport":"climbing"}},"7342893186":{"location":[49.8466029,8.6404726],"ts":"2020-05-03T13:44:29Z","tz":1,"tags":{"natural":"stone","outdoor":"yes","sport":"climbing"}}}