{"32907096":{"location":[49.7101525,8.7099868],"ts":"2024-12-26T17:59:45Z","tz":1,"tags":{"climbing":"crag","climbing:length":"12","climbing:quality":"solid","climbing:sport":"yes","climbing:trad":"yes","is_in":"Reichenbach","material":"stone","name":"Hohenstein","natural":"rock","sport":"climbing","tourism":"attraction"}},"33231984":{"location":[49.6703955,8.5856357],"ts":"2025-03-07T17:49:49Z","tz":1,"tags":{"addr:city":"Bensheim","addr:country":"DE","addr:housenumber":"8","addr:postcode":"64625","addr:street":"Albert-Einstein-Allee","building":"yes","climbing:sport":"yes","leisure":"sports_centre","name":"Kletterhalle Bensheim","opening_hours":"Mo-Fr 09:00-23:00; Sa, Su 09:00-21:00","operator":"HIGH-MOVES GmbH","operator:type":"private","phone":"+4962519894363","sport":"climbing","website":"https://www.kletterhalle-bensheim.de/"}},"195025093":{"location":[49.8155724,8.6108752],"ts":"2023-05-31T16:37:59Z","tz":1,"tags":{"addr:city":"Pfungstadt","addr:country":"DE","addr:housenumber":"6","addr:postcode":"64319","addr:street":"Gottlieb-Daimler-Straße","building":"sports_hall","climbing:boulder":"yes","leisure":"sports_centre","name":"Studio Bloc Boulderhalle","opening_hours":"10:00-23:00","phone":"+49 6157 3091588","sport":"climbing","website":"https://www.studiobloc.de/"}},"416869218":{"location":[49.708427,8.7281557],"ts":"2023-04-23T14:14:46Z","tz":1,"tags":{"climbing:grade:uiaa:max":"7+","climbing:grade:uiaa:min":"2","climbing:length:max":"15","climbing:orientation":"NE;SW","climbing:sport":"yes","climbing:trad":"yes","name":"Katzenstein","natural":"cliff","sport":"climbing"}},"680864769":{"location":[49.714302,8.6778776],"ts":"2020-06-08T22:08:53Z","tz":1,"tags":{"leisure":"sport","name":"Borstein","natural":"rock","sport":"climbing"}},"1356999607":{"location":[49.619102,8.7652139],"ts":"2012-04-24T10:22:36Z","tz":1,"tags":{"leisure":"pitch","sport":"climbing"}},"1678976829":{"location":[49.7824677,8.6693287],"ts":"2023-10-04T17:42:52Z","tz":1,"tags":{"climbing:boulder":"yes","climbing:quality":"solid","name":"Dreierstein","natural":"rock","note":"Dies ist nicht der Brohmfels","sport":"climbing"}},"1678976830":{"location":[49.7849925,8.6690737],"ts":"2024-12-26T17:52:44Z","tz":1,"tags":{"climbing":"boulder","climbing:boulder":"yes","climbing:orientation":"O","climbing:quality":"solid","climbing:rock":"granite","climbing:sport":"yes","name":"Brohmfels","natural":"rock","sport":"climbing"}},"1678976831":{"location":[49.7866,8.66849],"ts":"2023-10-04T17:44:49Z","tz":1,"tags":{"climbing:boulder":"yes","climbing:quality":"solid","name":"Schildfels + Wegkante","natural":"rock","note":"Dies ist nicht der Brohmfels","sport":"climbing"}},"1678976832":{"location":[49.7936427,8.668593],"ts":"2018-11-20T21:35:39Z","tz":1,"tags":{"climbing:boulder":"yes","climbing:orientation":"O","climbing:quality":"solid","natural":"rock","sport":"climbing"}},"1734260410":{"location":[49.6445858,8.7100902],"ts":"2021-05-30T14:43:27Z","tz":1,"tags":{"climbing:grade:uiaa:max":"6-","climbing:grade:uiaa:min":"4","climbing:length":"25","climbing:orientation":"E","climbing:sport":"yes","ele":"340","name":"Steigkopf","natural":"peak","source":"Digital Maps, Harold B. Lee Library, Brigham Young University","sport":"climbing"}},"2927418746":{"location":[49.724525,8.690171],"ts":"2020-05-07T10:31:54Z","tz":1,"tags":{"climbing:boulder":"yes","climbing:length":"3 m","name":"Baukasten","name:en":"Construction Kit","natural":"stone","opening_hours":"24/7","sport":"climbing","tourism":"attraction"}},"2927418747":{"location":[49.724647,8.690146],"ts":"2014-06-22T12:24:22Z","tz":1,"tags":{"climbing:boulder":"yes","climbing:length":"3 m","natural":"stone","opening_hours":"24/7","sport":"climbing"}},"2927418748":{"location":[49.724219,8.692336],"ts":"2022-01-06T13:17:23Z","tz":1,"tags":{"climbing:boulder":"yes","climbing:length":"3 m","name":"Stele","name:en":"Stele","natural":"stone","opening_hours":"24/7","sport":"climbing","tourism":"attraction","wheelchair":"no"}},"3825166729":{"location":[49.7377169,8.5953344],"ts":"2022-07-10T20:11:54Z","tz":1,"tags":{"climbing:boulder":"yes","man_made":"tower","playground":"climbingwall","sport":"climbing","tower:type":"climbing"}},"4176075258":{"location":[49.7957487,8.7004616],"ts":"2016-05-10T10:57:12Z","tz":1,"tags":{"climbing:length:max":"8","climbing:orientation":"NE","name":"Billerstein","natural":"rock","sport":"climbing"}},"5940465299":{"location":[49.7417055,8.78529],"ts":"2025-01-06T21:14:09Z","tz":1,"tags":{"climbing":"crag","climbing:rock":"granite","height":"5","leisure":"sport","name":"Zindenauer Schloesschen","natural":"rock","sport":"climbing","tourism":"attraction"}},"11817139344":{"location":[49.7142471,8.6779587],"ts":"2024-12-26T17:56:19Z","tz":1,"tags":{"climbing":"crag","climbing:length":"6","climbing:quality":"solid","climbing:sport":"yes","climbing:trad":"yes","name":"Borstein","natural":"rock","sport":"climbing"}},"12806765604":{"location":[49.7233079,8.6898662],"ts":"2025-05-03T20:40:32Z","tz":1,"tags":{"climbing":"boulder","climbing:boulder":"yes","climbing:length":"2 m","name":"Außenseiter","natural":"stone","opening_hours":"24/7","sport":"climbing","tourism":"attraction"}},"12806765605":{"location":[49.7234128,8.6904444],"ts":"2025-05-03T20:40:32Z","tz":1,"tags":{"climbing":"boulder","climbing:boulder":"yes","climbing:length":"3 m","name":"Spaltblock","natural":"stone","opening_hours":"24/7","sport":"climbing","tourism":"attraction"}},"12806765606":{"location":[49.7230557,8.6906551],"ts":"2025-05-03T20:40:32Z","tz":1,"tags":{"climbing":"boulder","climbing:boulder":"yes","climbing:length":"3 m","name":"Zollstation","natural":"stone","opening_hours":"24/7","sport":"climbing","tourism":"attraction"}},"12806765607":{"location":[49.7220067,8.6900326],"ts":"2025-05-03T20:40:32Z","tz":1,"tags":{"climbing":"boulder","climbing:boulder":"yes","climbing:length":"2.5 m","name":"Kiesel","natural":"stone","opening_hours":"24/7","sport":"climbing","tourism":"attraction"}},"12806765608":{"location":[49.7219224,8.6900484],"ts":"2025-05-03T20:40:32Z","tz":1,"tags":{"climbing":"boulder","climbing:boulder":"yes","climbing:length":"4 m","name":"Spannweite","natural":"stone","opening_hours":"24/7","sport":"climbing","tourism":"attraction"}}}