{"18467145":{"location":[49.4690934,8.679127],"ts":"2024-12-26T18:14:15Z","tz":1,"tags":{"climbing":"crag","climbing:rock":"porphyr","name":"Steinbruch Schriesheim","sport":"climbing","type":"site","wikimedia_commons":"File:Steinbruch_Schriesheim_Felswände.JPG","wikimedia_commons:2":"File:Steinbruch_Schriesheim_11.JPG"}},"18514058":{"location":[49.4092314,8.7810184],"ts":"2025-01-06T21:11:01Z","tz":1,"tags":{"climbing":"crag","name":"Ziegelhausen III","sport":"climbing","type":"site"}},"28171971":{"location":[49.4686689,8.678555],"ts":"2022-06-03T07:54:41Z","tz":1,"tags":{"disused":"yes","landuse":"quarry","name":"Steinbruch Schriesheim","sport":"climbing","wikipedia":"de:Steinbruch Schriesheim"}},"75462749":{"location":[49.4052713,8.7185373],"ts":"2010-08-31T19:23:05Z","tz":1,"tags":{"natural":"cliff","sport":"climbing"}},"99912505":{"location":[49.3862336,8.6791814],"ts":"2024-07-31T13:27:33Z","tz":1,"tags":{"access":"customers","addr:city":"Heidelberg","addr:country":"DE","addr:housenumber":"25/1","addr:postcode":"69126","addr:street":"Im Bosseldorn","amenities":"cafe","building":"industrial","building:levels":"1","climbing:boulder":"yes","fee":"yes","leisure":"pitch","name":"Boulderhaus","opening_hours":"09:00-23:00","roof:levels":"0","roof:shape":"gabled","sport":"climbing","website":"https://www.boulderhaus.net/"}},"150636850":{"location":[49.3894429,8.6658909],"ts":"2025-05-29T16:28:05Z","tz":1,"tags":{"addr:city":"Heidelberg","addr:country":"DE","addr:housenumber":"20","addr:postcode":"69124","addr:street":"Harbigweg","building":"yes","building:material":"plaster","check_date:opening_hours":"2021-11-18","climbing:boulder":"yes","climbing:sport":"yes","fee":"yes","leisure":"sports_centre","name":"DAV Kletter- und Boulderzentrum","opening_hours":"Mo-Fr 15:00-23:00; Sa,Su 10:00-22:00","operator":"DAV","sport":"climbing","website":"https://www.kletterzentrum-heidelberg.de/","wheelchair":"limited"}},"154982889":{"location":[49.4963858,8.503239],"ts":"2023-01-09T21:45:52Z","tz":1,"tags":{"addr:city":"Mannheim","addr:country":"DE","addr:housenumber":"14","addr:postcode":"68167","addr:street":"Christian-Friedrich-Schwan-Straße","brand":"A.W.Niemeyer","building":"industrial","climbing:boulder":"yes","climbing:toprope":"no","contact:email":"mannheim@studiobloc.de","contact:phone":"+49 621 78993755","contact:website":"https://mannheim.studiobloc.de/","fee":"yes","leisure":"sports_centre","name":"Studio Bloc GmbH Mannheim","opening_hours":"Mo-Su 10:00-23:00","operator":"Kai Pohatschka","sport":"climbing","wheelchair":"limited"}},"161826962":{"location":[49.4690381,8.679118],"ts":"2022-08-15T16:06:07Z","tz":1,"tags":{"area":"no","climbing:quality":"fragile","climbing:sport":"yes","man_made":"embankment","name":"3. Wandstufe","sport":"climbing","url":"http://27crags.com/crags/schriesheim"}},"161826963":{"location":[49.4692804,8.6795696],"ts":"2022-08-18T20:34:55Z","tz":1,"tags":{"area":"no","climbing:quality":"fragile","climbing:sport":"yes","man_made":"embankment","name":"4. Wandstufe","sport":"climbing","url":"http://27crags.com/crags/schriesheim"}},"162359068":{"location":[49.5135724,8.4693874],"ts":"2022-01-16T20:44:43Z","tz":1,"tags":{"building":"yes","climbing:boulder":"yes","climbing:sport":"yes","email":"climbing@boulder-island.de","fee":"yes","leisure":"sports_centre","name":"Boulder Island","opening_hours":"Mo-Fr 10:00-23:00; Sa,Su,PH 09:00-23:00","operator":"Boulder Island GmbH & Co. KG","phone":"+49 621 39187898","sport":"climbing","website":"https://boulder-island.de"}},"171574582":{"location":[49.4066292,8.7043476],"ts":"2025-05-19T08:49:33Z","tz":1,"tags":{"climbing":"crag","climbing:boulder":"yes","climbing:quality":"solid","climbing:rock":"sandstone","climbing:sport":"yes","man_made":"embankment","name":"Riesenstein - Kakerlakenhockerwand","sport":"climbing"}},"171574589":{"location":[49.4073286,8.704085],"ts":"2025-05-19T08:49:33Z","tz":1,"tags":{"climbing":"boulder","climbing:boulder":"yes","climbing:quality":"solid","climbing:rock":"sandstone","climbing:sport":"yes","man_made":"embankment","name":"Riesenstein - Massivwand","source:geometry":"HiRes aerial imagery","sport":"climbing"}},"198517906":{"location":[49.4168858,8.7699244],"ts":"2025-01-06T21:11:01Z","tz":1,"tags":{"climbing":"crag","climbing:sport":"yes","man_made":"embankment","name":"Ziegelhausen I","source":"HiRes aerial imagery","sport":"climbing"}},"198517909":{"location":[49.4162525,8.7711256],"ts":"2025-01-06T21:11:01Z","tz":1,"tags":{"climbing":"crag","climbing:bolted":"yes","climbing:orientation":"s","climbing:rock":"sandstone","climbing:sport":"yes","man_made":"embankment","name":"Ziegelhausen II","source:geometry":"HiRes aerial imagery","sport":"climbing"}},"239074520":{"location":[49.4085992,8.7816352],"ts":"2022-05-25T10:29:32Z","tz":1,"tags":{"alt_name":"Ziegelhausen III Sektor Supercrack","area":"no","climbing:rock":"sandstone","man_made":"embankment","name":"Steinbruch Neckarhalde","source:geometry":"HiRes aerial imagery","sport":"climbing"}},"239077164":{"location":[49.4116596,8.7793796],"ts":"2022-05-25T10:29:32Z","tz":1,"tags":{"alt_name":"Ziegelhausen III Sektor Batman","area":"no","climbing:rock":"sandstone","man_made":"embankment","name":"Buntsandsteinbruch Neckarhalde","sport":"climbing"}},"416865235":{"location":[49.5560828,8.6829065],"ts":"2025-01-06T20:47:57Z","tz":1,"tags":{"climbing":"crag","climbing:grade:uiaa:max":"8","climbing:grade:uiaa:min":"3+","climbing:length:max":"60","climbing:length:min":"25","climbing:multipitch":"yes","climbing:orientation":"E;S","climbing:sport":"yes","name":"Jakobswand","natural":"cliff","operator":"Deutscher Alpenverein, Sektion Weinheim","sport":"climbing"}},"928812318":{"location":[49.4690042,8.6782785],"ts":"2022-08-15T16:06:07Z","tz":1,"tags":{"climbing:rock":"porphyry","man_made":"embankment","name":"1. Wandstufe","sport":"climbing"}},"928812321":{"location":[49.4688619,8.6788663],"ts":"2022-08-15T16:06:07Z","tz":1,"tags":{"area":"no","climbing:bolted":"2 m","climbing:orientation":"W","climbing:quality":"fragile","climbing:sport":"yes","man_made":"embankment","name":"2. Wandstufe","sport":"climbing","url":"http://27crags.com/crags/schriesheim"}},"958920119":{"location":[49.5190275,8.5349191],"ts":"2023-09-29T20:47:34Z","tz":1,"tags":{"building":"yes","description":"Kletterturm","height":"18","leisure":"pitch","roof:colour":"#909090","roof:shape":"flat","sport":"climbing","start_date":"2021"}},"959685097":{"location":[49.5189618,8.534994],"ts":"2021-06-30T09:31:34Z","tz":1,"tags":{"leisure":"sports_centre","name":"DAV-Kletteranlage und -Vereinsheim","note":"Umriss geschätzt; Details zum Bau der Anlage: https://www.dav-mannheim.de/gross-projekt-nummer-1-vereinsheim/","operator":"Deutscher Alpenverein (DAV)","sport":"climbing","start_date":"2021"}},"1288305860":{"location":[49.5394399,8.6463703],"ts":"2024-05-31T09:24:05Z","tz":1,"tags":{"building":"yes","sport":"climbing"}},"1670523634":{"location":[49.4688788,8.6780216],"ts":"2022-06-06T19:55:22Z","tz":1,"tags":{"board_type":"notice","information":"board","name":"Kletterregelung","sport":"climbing"}},"2545377528":{"location":[49.5055595,8.5246901],"ts":"2016-11-30T16:29:35Z","tz":1,"tags":{"climbing:boulder":"yes","climbing:sport":"yes","fax":"+49 621 1281693","fee":"yes","leisure":"sports_centre","name":"EXTREM Kletterhalle Mannheim","opening_hours":"Mo-Fr 10:00-23:00; Sa-Su 10:00-21:00; PH 10:00-21:00","phone":"+49 621 1281692","sport":"climbing","website":"http://kletterzentrum.de/"}},"3840540533":{"location":[49.596441,8.474606],"ts":"2017-07-06T08:59:04Z","tz":1,"tags":{"leisure":"fitness_station","name":"Kletterfelsen","sport":"climbing"}},"5693836615":{"location":[49.5182161,8.5350574],"ts":"2023-05-04T17:12:50Z","tz":1,"tags":{"leisure":"sports_centre","name":"Boulderhaus","phone":"+49 621 72480706","sport":"climbing","start_date":"2018-04","website":"http://boulderhaus.de/"}},"10435617366":{"location":[49.497036,8.5027716],"ts":"2023-01-09T21:45:52Z","tz":1,"tags":{"contact:website":"https://smartclimb.de/","leisure":"sports_centre","name":"Smart Climb","opening_hours":"Th,Fr 14:00-20:00; Sa,Su 10:00-18:00","sport":"climbing"}},"11078501623":{"location":[49.5558258,8.6829222],"ts":"2023-07-31T10:44:15Z","tz":1,"tags":{"leisure":"sports_centre","name":"Boulderhalle","sport":"climbing"}},"12218731692":{"location":[49.5556464,8.6831686],"ts":"2024-10-03T13:45:44Z","tz":1,"tags":{"climbing:multipitch":"yes","climbing:sport":"yes","fee":"yes","leisure":"sports_centre","sport":"climbing","website":"https://dav-weinheim.de/kletterzentrum/"}}}