{"52194924":{"location":[47.3816369,8.4953202],"ts":"2022-11-07T06:31:13Z","tz":1,"tags":{"addr:housenumber":"31","addr:street":"Flüelastrasse","building":"yes","climbing:boulder":"yes","fee":"yes","leisure":"sports_centre","name":"Minimum Boulder Flüela","old_name":"Halle 7","opening_hours":"Mo-Fr 09:00-23:00; Sa 12:00-20:00; Su 10:00-20:00","phone":"+41 43 321 86 92","sport":"climbing","website":"https://minimum.ch/"}},"263478531":{"location":[47.4073704,8.5106154],"ts":"2019-03-09T20:15:50Z","tz":1,"tags":{"climbing:boulder":"yes","fee":"no","leisure":"sports_centre","name":"ASVZ Boulderanlage","sport":"climbing"}},"737178094":{"location":[47.4072801,8.510583],"ts":"2019-12-20T06:28:02Z","tz":1,"tags":{"area":"yes","climbing:boulder":"yes","height":"3.75","sport":"climbing"}},"737178095":{"location":[47.4074533,8.5107211],"ts":"2019-12-20T06:28:02Z","tz":1,"tags":{"area":"yes","climbing:boulder":"yes","height":"3.75","sport":"climbing"}},"842058513":{"location":[47.4019265,8.4613413],"ts":"2022-08-22T10:32:27Z","tz":1,"tags":{"addr:city":"Schlieren","addr:housenumber":"12","addr:postcode":"8952","addr:street":"Kohlestrasse","leisure":"sports_centre","name":"Kletterzentrum Gaswerk AG","opening_hours":"Mo,We-Fr 11:00-23:00; Tu 07:30-23:00; Sa-Su 09:00-20:00","sport":"climbing","website":"https://www.kletterzentrum.com/standorte/schlieren/","wikidata":"Q111261593"}},"897548687":{"location":[47.3985029,8.5458047],"ts":"2022-02-16T11:28:25Z","tz":1,"tags":{"access":"yes","climbing:boulder":"yes","climbing:quality":"solid","fee":"no","leisure":"sports_centre","opening_hours":"24/7","outdoor":"yes","sport":"climbing"}},"912077397":{"location":[47.3525912,8.4928559],"ts":"2025-04-22T21:09:05Z","tz":1,"tags":{"bicycle":"no","climbing":"route","foot":"yes","horse":"no","incline":"500%","lit":"no","motor_vehicle":"no","sac_scale":"demanding_alpine_hiking","safety_rope":"yes","smoothness":"impassable","surface":"rock","trail_visibility":"good","width":"0.5"}},"1069011204":{"location":[47.398933,8.5456633],"ts":"2023-08-31T11:18:52Z","tz":1,"tags":{"climbing:boulder":"yes","fitness_station":"yes","leisure":"pitch","sport":"climbing"}},"3073323853":{"location":[47.4460131,8.6092783],"ts":"2023-07-05T06:46:42Z","tz":1,"tags":{"climbing:boulder":"yes","fee":"yes","leisure":"sports_centre","name":"Grindelboulder","sport":"climbing","website":"https://grindelboulder.ch/"}},"3173390400":{"location":[47.4889201,8.704661],"ts":"2021-11-05T08:52:41Z","tz":1,"tags":{"addr:city":"Winterthur","addr:housenumber":"17","addr:postcode":"8406","addr:street":"Klosterstrasse","email":"info@sechsaplus.ch","internet_access":"wlan","leisure":"sports_centre","name":"Kletterhalle 6a Plus","opening_hours":"Mo-Fr 09:00-22:30; Sa-Su 09:00-19:00","phone":"+41 52 544 45 68","sport":"climbing","website":"http://www.sechsaplus.ch/"}},"3578497593":{"location":[47.392312,8.5061454],"ts":"2019-08-07T08:53:15Z","tz":1,"tags":{"climbing:boulder":"yes","description":"Artificial boulder for climbing","leisure":"pitch","sport":"climbing"}},"4515627333":{"location":[47.3833512,8.5740259],"ts":"2016-11-22T16:43:57Z","tz":1,"tags":{"name":"Boulderwand Fluntern","sport":"climbing"}},"4829501996":{"location":[47.3766435,8.6723991],"ts":"2025-01-27T08:55:19Z","tz":1,"tags":{"email":"info@kletterzentrum.com","leisure":"sports_centre","name":"Kletterzentrum Gaswerk Greifensee","opening_hours":"Mo-Fr 10:00-22:00; Th 07:30-22:00; Sa,Su 09:00-20:00","phone":"+41 44 755 44 32","sport":"climbing","website":"https://www.kletterzentrum.com/standorte/greifensee/"}},"5255402250":{"location":[47.3483206,8.4902859],"ts":"2019-07-27T14:22:59Z","tz":1,"tags":{"natural":"rock","sport":"climbing"}},"6653071640":{"location":[47.348256,8.4908432],"ts":"2019-07-27T14:22:59Z","tz":1,"tags":{"natural":"rock","sport":"climbing"}},"6653071641":{"location":[47.348519,8.4911597],"ts":"2019-07-27T14:22:59Z","tz":1,"tags":{"natural":"rock","sport":"climbing"}},"6905481335":{"location":[47.3555545,8.5517414],"ts":"2022-01-02T22:53:52Z","tz":1,"tags":{"climbing":"boulder","fee":"no","outdoor":"yes","playground":"climbing"}},"8946926717":{"location":[47.3048044,8.5249698],"ts":"2021-07-24T17:29:57Z","tz":1,"tags":{"fee":"yes","leisure":"sports_centre","level":"-2","name":"Boulderhalle Adliswil","payment:cash":"yes","payment:debit_cards":"yes","payment:postfinance_card":"yes","payment:twint":"yes","sport":"climbing","survey:date":"2021-07-24","website":"https://www.climbing.ch"}},"9240750955":{"location":[47.3989924,8.4529016],"ts":"2024-05-05T14:44:55Z","tz":1,"tags":{"addr:city":"Schlieren","addr:housenumber":"39","addr:postcode":"8952","addr:street":"Zürcherstrasse","climbing:boulder":"yes","fee":"yes","leisure":"sports_centre","name":"Boulderlounge","sport":"climbing","website":"https://www.boulderlounge.ch/schlieren/"}},"10022308912":{"location":[47.3525815,8.4928463],"ts":"2022-09-13T19:08:02Z","tz":1,"tags":{"climbing":"boulder","climbing:rock":"yes","sport":"climbing"}},"11810041628":{"location":[47.4159444,8.5546917],"ts":"2024-04-11T17:15:31Z","tz":1,"tags":{"addr:city":"Zürich","addr:housenumber":"44","addr:postcode":"8050","addr:street":"Leutschenbachstrasse","climbing:boulder":"yes","email":"mail@minimum.ch","fee":"yes","leisure":"sports_centre","name":"MINIMUM Boulder Leutsch","opening_hours":"Mo-Fr 08:00-23:00; Sa-Su 10:00-18:00","phone":"+41 44 330 33 60","sport":"climbing","website":"https://minimum.ch/"}},"12134528759":{"location":[47.3812229,8.4748146],"ts":"2024-09-18T16:40:08Z","tz":1,"tags":{"access":"yes","covered":"yes","fee":"no","leisure":"sports_centre","name":"Boulder Buchlern","opening_hours":"24/7","operator":"Stadt Zürich","operator:type":"government","sport":"climbing","website":"https://www.stadt-zuerich.ch/boulder"}}}