{"377701770":{"location":[47.0653684,8.5101748],"ts":"2021-01-30T11:57:24Z","tz":1,"tags":{"addr:city":"Arth","addr:housenumber":"91","addr:postcode":"6415","addr:street":"Luzernerstrasse","building":"yes","building:levels":"2","leisure":"sports_centre","name":"Boulder Gade","opening_hours":"06:00 - 22:00","smoking":"outside","sport":"climbing"}},"539811269":{"location":[47.221983,8.4693888],"ts":"2024-10-02T15:34:00Z","tz":1,"tags":{"climbing":"boulder","ele":"456","geological":"glacial_erratic","name":"Knonauer Stei","natural":"stone","sport":"climbing"}},"8680759281":{"location":[47.2369248,8.6352876],"ts":"2022-08-22T10:28:27Z","tz":1,"tags":{"addr:city":"Wädenswil","addr:housenumber":"2","addr:postcode":"8820","addr:street":"Rütihof","leisure":"sports_centre","name":"Kletterzentrum Gaswerk Wädenswil","opening_hours":"Mo-Tu 11:00-23:00; We 7:30-23:00; Th-Fr 11:00-23:00; Sa-Su 09:00-20:00","phone":"+41 44 755 44 30","sport":"climbing","website":"https://www.kletterzentrum.com/standorte/waedenswil/","wikidata":"Q111253764"}}}