{"41684943":{"location":[46.4983864,8.7587244],"ts":"2009-09-28T20:25:06Z","tz":1,"tags":{"bicycle":"no","foot":"no","highway":"path","horse":"no","name":"Via Veterana","ski":"no","snowmobile":"no","sport":"climbing"}},"399049276":{"location":[46.5075263,8.7088603],"ts":"2025-05-16T06:16:52Z","tz":1,"tags":{"addr:city":"Ambrì","addr:country":"CH","addr:housenumber":"4","addr:postcode":"6775","addr:street":"Via Audan","building":"yes","name":"Palestra di arrampicata Audan","sport":"climbing"}},"481549332":{"location":[46.3574688,8.6264593],"ts":"2020-11-06T06:37:19Z","tz":1,"tags":{"name":"Brontallo Crag","natural":"cliff","sport":"climbing"}},"494280596":{"location":[46.4957384,8.4559254],"ts":"2023-04-19T20:17:35Z","tz":1,"tags":{"leisure":"pitch","lit":"no","name":"Piansecco - Dr grüen Nils","sport":"climbing"}},"863189469":{"location":[46.5236126,8.627946],"ts":"2024-09-15T15:47:59Z","tz":1,"tags":{"access":"yes","climbing:grade:french:max":"5c","climbing:grade:french:mean":"4b","climbing:grade:french:min":"3b","climbing:length":"25","climbing:multipitch":"yes","climbing:orientation":"S;SE;E","climbing:quality":"solid","climbing:routes":"15","climbing:sport":"yes","ele":"1090","fee":"no","name":"Stalvedro","natural":"cliff","opening_hours":"24/7","outdoor":"yes","sport":"climbing","url":"https://www.thecrag.com/climbing/switzerland/stalvedro"}},"944012927":{"location":[46.3313156,8.598804],"ts":"2021-05-17T19:35:41Z","tz":1,"tags":{"climbing":"crag","climbing:multipitch":"yes","climbing:sport":"yes","name":"Barakas","natural":"cliff","sport":"climbing"}},"957147125":{"location":[46.5543007,8.5766098],"ts":"2021-06-22T13:22:14Z","tz":1,"tags":{"climbing":"yes","name":"Sasso della Pigna","natural":"cliff","sport":"climbing"}},"8087067549":{"location":[46.3573399,8.6264072],"ts":"2022-12-24T15:04:20Z","tz":1,"tags":{"climbing":"crag","name":"Brontallo","sport":"climbing"}},"8724236068":{"location":[46.4983741,8.7607264],"ts":"2021-05-12T15:55:07Z","tz":1,"tags":{"leisure":"pitch","name":"Via del Veterano","sport":"climbing"}},"8724236069":{"location":[46.4983158,8.7606538],"ts":"2021-05-12T15:55:07Z","tz":1,"tags":{"leisure":"pitch","name":"Via del Pivello","sport":"climbing"}},"9269565071":{"location":[46.3931141,8.66624],"ts":"2021-11-20T11:19:37Z","tz":1,"tags":{"name":"Prato","sport":"climbing"}},"9827997018":{"location":[46.5506717,8.576564],"ts":"2022-06-18T10:33:38Z","tz":1,"tags":{"sport":"climbing"}},"9923800967":{"location":[46.549928,8.5737976],"ts":"2022-08-15T20:22:01Z","tz":1,"tags":{"fee":"no","sport":"climbing"}},"12151212467":{"location":[46.4341619,8.6876526],"ts":"2024-09-02T08:34:28Z","tz":1,"tags":{"sport":"climbing"}}}