{"493259082":{"lat":48.2043233,"lon":12.4145755,"ts":"2024-02-14T09:55:26Z","tz":1,"tags":{"addr:city":"Waldkraiburg","addr:country":"DE","addr:housenumber":"32","addr:postcode":"84478","addr:street":"Franz-Liszt-Straße","building":"yes","contact:phone":"+49 8638 9818630","contact:website":"http://kletterzentrum-waldkraiburg.de/","leisure":"sports_centre","name":"Raiffeisen Vertikal","opening_hours":"Mo 10:00-22:00, Tu 14:00-23:00, We 10:00-23:00, Th 14:00-23:00, Fr 12:00-22:00, Sa 10:00-21:00, Su 10:00-21:00","sport":"climbing"}},"834669574":{"lat":47.9984732,"lon":12.6461211,"ts":"2020-08-06T12:50:45Z","tz":1,"tags":{"leisure":"sports_centre","sport":"climbing"}},"1317530110":{"lat":48.0242889,"lon":12.5481424,"ts":"2025-01-05T12:18:08Z","tz":1,"tags":{"addr:city":"Trostberg","addr:country":"DE","addr:housenumber":"5","addr:postcode":"83308","addr:street":"Jahnstraße","charge":"7 EUR","contact:facebook":"https://www.facebook.com/alpenvereintrostberg/","description":"16 Meter hoch, knapp 600 Quadratmeter Kletterfläche","email":"info@alpenverein-trostberg.de","fee":"yes","height":"16","image":"https://image.jimcdn.com/app/cms/image/transf/dimension=2048x2048:format=jpg/path/s63a56f1c701fb06d/image/iadfb09af590115fb/version/1721237117/image.jpg","leisure":"sports_centre","man_made":"tower","name":"DAV Kletterturm Trostberg","opening_hours":"Mo-Su 07:00-22:00","operator":"DAV Sektion Trostberg e.V.","operator:type":"public","payment:american_express":"yes","payment:app":"yes","payment:apple_pay":"yes","payment:cards":"yes","payment:contactless":"yes","payment:credit_cards":"yes","payment:debit_cards":"yes","payment:girocard":"yes","payment:maestro":"yes","payment:mastercard":"yes","payment:paypal":"yes","payment:visa":"yes","phone":"+49 8261 649404","sport":"climbing","tower:type":"climbing","website":"https://www.dav-sektion-trostberg.com/klettern/kletterturm","wheelchair":"yes"}}}