{"307303747":{"location":[46.6679716,12.3176],"ts":"2025-01-03T18:32:12Z","tz":1,"tags":{"climbing":"route_top","ele":"3152","loc_name":"Schuster","man_made":"cross","name":"Dreischusterspitze - Punta dei Tre Scarperi","name:de":"Dreischusterspitze","name:it":"Punta dei Tre Scarperi","natural":"peak","prominence":"1393","summit:cross":"yes","summit:register":"yes","wikidata":"Q380419","wikipedia":"de:Dreischusterspitze"}},"983212731":{"location":[46.6105761,12.4786442],"ts":"2021-09-14T12:51:37Z","tz":1,"tags":{"climbing:sport":"yes","climbing:toprope":"yes","fee":"no","leisure":"pitch","man_made":"tower","outdoor":"yes","source":"survey 09.2021","sport":"climbing","tower:type":"climbing"}},"1302108334":{"location":[46.6677497,12.3200322],"ts":"2025-01-02T21:19:32Z","tz":1,"tags":{"climbing":"route"}},"2962324041":{"location":[46.66859,12.4000052],"ts":"2023-09-07T13:15:50Z","tz":1,"tags":{"leisure":"sports_centre","name":"Kletterhalle","sport":"climbing","wheelchair":"no"}},"11046561473":{"location":[46.6826794,12.5319064],"ts":"2023-07-14T13:01:19Z","tz":1,"tags":{"climbing":"route_bottom","climbing:grade:uiaa":"4+","climbing:length":"195","climbing:pitches":"6","climbing:rock":"limestone","leisure":"sports_centre","name":"Er und Sie Weg (Lik√∂felwand)","sport":"climbing"}},"11519014866":{"location":[46.7479327,12.4251667],"ts":"2024-01-15T13:31:53Z","tz":1,"tags":{"addr:city":"Sillian","addr:housenumber":"185d","addr:postcode":"9920","addr:street":"Sillian","leisure":"sports_centre","name":"Boulderraum Alpenverein Sillian","opening_hours":"Mo-Su 08:00-22:00","sport":"climbing","website":"https://www.alpenverein.at/sillian"}},"12059936844":{"location":[46.6675555,12.3224644],"ts":"2024-07-17T19:49:36Z","tz":1,"tags":{"climbing":"route_bottom"}},"12467238543":{"location":[46.6923228,12.3575206],"ts":"2025-01-01T18:08:30Z","tz":1,"tags":{"access":"customers","building":"yes","climbing:boulder":"yes","climbing:sport":"yes","climbing:toprope":"yes","fee":"yes","indoor":"yes","name":"Kletterhalle Sexten","sport":"climbing","website":"https://www.sexten.eu/de/Kletterhalle_Sexten"}}}