{"18459692":{"lat":22.3384849,"lon":114.2214599,"ts":"2024-12-24T12:40:01Z","tz":8,"tags":{"climbing":"area","name":"Kowloon Peak","sport":"climbing","type":"site"}},"523119123":{"lat":22.2826605,"lon":114.1973729,"ts":"2020-05-06T21:07:08Z","tz":8,"tags":{"climbing:bolted":"yes","name":"Monkey Buttress","name:en":"Monkey Buttress","natural":"cliff","sport":"climbing"}},"553657245":{"lat":22.3379565,"lon":114.220646,"ts":"2024-12-24T12:34:59Z","tz":8,"tags":{"climbing":"crag","climbing:trad":"yes","name":"Driblet Outcrop","natural":"cliff","sport":"climbing"}},"553657246":{"lat":22.3371569,"lon":114.2213317,"ts":"2024-12-24T12:34:59Z","tz":8,"tags":{"climbing":"crag","name":"Majestic Slabs","natural":"cliff","sport":"climbing"}},"802195873":{"lat":22.2921198,"lon":113.9475437,"ts":"2020-05-16T03:06:52Z","tz":8,"tags":{"building":"service","building:levels":"1","roof:shape":"flat","sport":"climbing"}},"826288227":{"lat":22.2790463,"lon":114.2066265,"ts":"2020-07-14T20:52:42Z","tz":8,"tags":{"climbing:bolted":"yes","climbing:sport":"yes","name":"Garden Buttress","name:en":"Garden Buttress","natural":"cliff","sport":"climbing"}},"1013296165":{"lat":22.3463307,"lon":114.1690676,"ts":"2024-10-12T10:31:49Z","tz":8,"tags":{"cliff":"separate","climbing:bolted":"yes","landform":"bare_rock","name":"Beacon Hill Crag","name:en":"Beacon Hill Crag","name:zh-Hant":"煙墩山石崖","natural":"bare_rock","sport":"climbing"}},"1013296166":{"lat":22.3462816,"lon":114.1690537,"ts":"2024-10-12T10:31:49Z","tz":8,"tags":{"climbing:bolted":"yes","landform":"cliff","name":"Beacon Hill Crag","name:en":"Beacon Hill Crag","name:zh-Hant":"煙墩山石崖","natural":"cliff","sport":"climbing"}},"1104891091":{"lat":22.2735163,"lon":114.2000522,"ts":"2022-10-18T08:17:17Z","tz":8,"tags":{"climbing:bolted":"yes","climbing:sport":"yes","informal":"yes","landform":"cliff","name":"Sunset Wall","name:en":"Sunset Wall","natural":"cliff","sport":"climbing"}},"3478596798":{"lat":22.2789134,"lon":114.1478322,"ts":"2020-01-08T09:50:39Z","tz":8,"tags":{"climbing:bolted":"yes","name":"Central Crag - Soho","sport":"climbing"}},"4537843192":{"lat":22.3383424,"lon":114.2230743,"ts":"2024-12-24T12:34:59Z","tz":8,"tags":{"alt_name":"騎樓石","alt_name2":"主壁 Main Crag","climbing":"crag","name":"自殺崖 Suicide Wall","name:en":"Suicide Wall","name:zh":"自殺崖","natural":"cliff","sport":"climbing","tourism":"attraction"}},"4583629247":{"lat":22.3089564,"lon":114.2246935,"ts":"2017-05-26T09:00:56Z","tz":8,"tags":{"fee":"yes","indoor":"yes","name":"GoNature Climbing Gym","sport":"climbing"}},"4878216357":{"lat":22.3074307,"lon":114.1751956,"ts":"2025-01-29T11:27:40Z","tz":8,"tags":{"ele":"18","leisure":"sports_centre","noname":"yes","outdoor":"yes","sport":"climbing"}},"5023761143":{"lat":22.2925318,"lon":114.2071098,"ts":"2024-12-25T07:23:21Z","tz":8,"tags":{"fee":"yes","indoor":"yes","leisure":"sports_centre","name":"Verm City Climbing Club","name:en":"Verm City Climbing Club","sport":"climbing"}},"5093473557":{"lat":22.2743784,"lon":114.2137456,"ts":"2019-09-11T22:38:34Z","tz":8,"tags":{"climbing:boulder":"yes","name":"Tai Koo Boulders","sport":"climbing"}},"5104347068":{"lat":22.2830908,"lon":114.1969243,"ts":"2020-02-20T10:51:15Z","tz":8,"tags":{"climbing:bolted":"yes","name":"The School Yard","sport":"climbing"}},"5104363287":{"lat":22.2788402,"lon":114.1469437,"ts":"2020-01-08T09:51:01Z","tz":8,"tags":{"climbing:bolted":"yes","name":"Central Crag - Bird Nest","sport":"climbing"}},"5104363288":{"lat":22.2791852,"lon":114.1473287,"ts":"2020-01-08T09:50:39Z","tz":8,"tags":{"climbing:bolted":"yes","name":"Central Crag - Cave","sport":"climbing"}},"5104363289":{"lat":22.2791026,"lon":114.1476224,"ts":"2020-01-08T09:50:39Z","tz":8,"tags":{"climbing:bolted":"yes","name":"Central Crag - Austin Powers","sport":"climbing"}},"5104363290":{"lat":22.278788,"lon":114.1475111,"ts":"2020-01-08T09:48:17Z","tz":8,"tags":{"climbing:bolted":"yes","name":"Central Crag - Mid Levels","sport":"climbing"}},"5104368776":{"lat":22.3521075,"lon":114.1846309,"ts":"2018-10-14T14:26:57Z","tz":8,"tags":{"climbing:bolted":"yes","name":"Lion Rock - West Face","sport":"climbing"}},"5104403876":{"lat":22.5717642,"lon":114.1751735,"ts":"2017-09-14T02:07:03Z","tz":8,"tags":{"fee":"yes","leisure":"sports_centre","man_made":"tower","name":"仙桐体育公园攀岩区","name:en":"Xiantong Climbing Club","outdoor":"yes","sport":"climbing","tower:type":"climbing"}},"5104552398":{"lat":22.5039846,"lon":113.9183709,"ts":"2025-03-03T04:58:22Z","tz":8,"tags":{"fee":"yes","indoor":"yes","leisure":"sports_centre","name":"博昇攀岩馆","name:en":"Bosheng Climbing Club","name:zh":"博昇攀岩馆","sport":"climbing"}},"5123190833":{"lat":22.2907166,"lon":114.0203186,"ts":"2017-09-23T00:06:10Z","tz":8,"tags":{"name":"Black Kite Crag","sport":"climbing"}},"5123196271":{"lat":22.3844723,"lon":114.0860701,"ts":"2021-02-15T03:42:28Z","tz":8,"tags":{"climbing:boulder":"yes","informal":"yes","landform":"rock","name":"Colin's Boulders","natural":"rock","sport":"climbing"}},"5123196273":{"lat":22.3825814,"lon":114.0893917,"ts":"2021-02-15T03:42:28Z","tz":8,"tags":{"climbing:boulder":"yes","informal":"yes","landform":"rock","name":"Radar Rocks","natural":"rock","sport":"climbing"}},"5123196274":{"lat":22.3786777,"lon":114.0833675,"ts":"2017-09-23T00:17:01Z","tz":8,"tags":{"climbing:boulder":"yes","name":"Shek Lung Kung","sport":"climbing"}},"5123196275":{"lat":22.3795804,"lon":114.0986445,"ts":"2020-12-28T09:51:55Z","tz":8,"tags":{"climbing:boulder":"yes","informal":"yes","landform":"rock","name":"下花山 Ha Fa Shan","name:en":"Ha Fa Shan","name:zh":"下花山","natural":"rock","sport":"climbing"}},"5127418140":{"lat":22.3521162,"lon":114.1848737,"ts":"2018-10-14T14:26:57Z","tz":8,"tags":{"climbing:bolted":"yes","name":"Lion Rock - East Face","sport":"climbing"}},"5127419421":{"lat":22.3517288,"lon":114.1855422,"ts":"2017-09-25T00:41:02Z","tz":8,"tags":{"climbing:bolted":"yes","name":"Lion Rock - Hind Paw Buttress","sport":"climbing"}},"5132063921":{"lat":22.2950149,"lon":114.1711676,"ts":"2017-09-27T01:49:55Z","tz":8,"tags":{"fee":"yes","indoor":"yes","name":"YMCA Climbing Wall","sport":"climbing"}},"5162207543":{"lat":22.3342376,"lon":114.199088,"ts":"2017-10-12T03:11:15Z","tz":8,"tags":{"climbing:boulder":"yes","fee":"yes","indoor":"yes","leisure":"sports_centre","name":"Just Climb","sport":"climbing"}},"5197339679":{"lat":22.3808157,"lon":114.0055369,"ts":"2017-10-29T04:01:19Z","tz":8,"tags":{"name":"Salong Crag","sport":"climbing"}},"5279495888":{"lat":22.2788352,"lon":114.1476653,"ts":"2020-01-08T09:50:39Z","tz":8,"tags":{"climbing:bolted":"yes","name":"Central Crag - Forgotten Buttress","sport":"climbing"}},"5340478824":{"lat":22.3350142,"lon":114.2225545,"ts":"2024-12-24T12:40:01Z","tz":8,"tags":{"climbing":"crag","climbing:trad":"yes","description":"Two climbing routes:\n1. Laceration (S) - large crack in front \n2. Beginners Luck (H Diff) - crack on the right side","name":"Split Boulder","natural":"rock","sport":"climbing"}},"5341835822":{"lat":22.3359394,"lon":114.2226887,"ts":"2024-12-24T12:34:59Z","tz":8,"tags":{"climbing":"crag","climbing:trad":"yes","description":"攀岩牆 Climbing wall","name":"九月壁","name:en":"September Crag","name:yue":"九月壁","name:zh":"九月壁","natural":"rock","sport":"climbing"}},"5344042221":{"lat":22.3419555,"lon":114.2206533,"ts":"2024-12-24T12:34:59Z","tz":8,"tags":{"climbing":"crag","climbing:trad":"yes","name":"倚天壁 Carroll Crag","name:en":"Carroll Crag","name:zh":"倚天壁","sport":"climbing"}},"5344042835":{"lat":22.3408617,"lon":114.2198454,"ts":"2024-12-24T12:34:59Z","tz":8,"tags":{"climbing":"crag","climbing:trad":"yes","name":"大石鼓 Magog","name:en":"Magog","name:yue":"大石鼓","name:zh":"大石鼓","natural":"rock"}},"5344049701":{"lat":22.3369147,"lon":114.221698,"ts":"2024-12-24T12:34:59Z","tz":8,"tags":{"climbing":"crag","name":"Halfway Crag","natural":"rock","sport":"climbing"}},"5345948852":{"lat":22.337502,"lon":114.2245568,"ts":"2024-12-24T12:23:18Z","tz":8,"tags":{"climbing":"crag","climbing:trad":"yes","description":"Traditional rock climbing spot","name":"Skyline Crag   (A 字崖)","natural":"rock","sport":"climbing"}},"7141908638":{"lat":22.2728647,"lon":114.2219914,"ts":"2020-08-24T19:31:47Z","tz":8,"tags":{"name":"General Friction Slab","natural":"stone","sport":"climbing"}},"7141908639":{"lat":22.2730408,"lon":114.2220263,"ts":"2020-08-24T19:31:47Z","tz":8,"tags":{"name":"The North Flakes","natural":"rock","sport":"climbing"}},"8173511764":{"lat":22.2947255,"lon":114.2435016,"ts":"2020-11-28T12:30:30Z","tz":8,"tags":{"name":"Lingnan Slabs","sport":"climbing"}},"9883215571":{"lat":22.3278238,"lon":114.1626214,"ts":"2022-07-12T13:10:13Z","tz":8,"tags":{"addr:housenumber":"234","addr:street":"大南街 Tai Nan Street","contact:facebook":"https://www.facebook.com/SheungShan/","contact:instagram":"https://www.instagram.com/sheungshan/","leisure":"sports_centre","name":"尚山岩舘","sport":"climbing","website":"https://www.sheungshan.com/"}},"11121831487":{"lat":22.4510362,"lon":114.0292992,"ts":"2023-09-11T10:11:04Z","tz":8,"tags":{"addr:door":"G14-15","addr:housename":"朗壹廣場 One North","addr:housename:en":"One North","addr:housename:zh":"朗壹廣場","addr:street":"康業街 Hong Yip Street","addr:street:en":"Hong Yip Street","addr:street:zh":"康業街","branch":"元朗 Yuen Long","branch:en":"Yuen Long","branch:zh":"元朗","brand":"香港攀爬樂園 Hong Kong Climbing Park","brand:en":"Hong Kong Climbing Park","brand:zh":"香港攀爬樂園","charge:url":"https://www.hkclimbingpark.com/prices/#YL","contact:url":"https://www.hkclimbingpark.com/contact-us/","contact:website":"https://www.hkclimbingpark.com/contact-us/","email":"yl@hkclimbingpark.com","indoor":"yes","leisure":"sports_centre","level":"0","level:ref":"G","name":"香港攀爬樂園 Hong Kong Climbing Park","name:en":"Hong Kong Climbing Park","name:zh":"香港攀爬樂園","nohousenumber":"separate","opening_hours":"12:00-22:00; Sa,Su,PH 10:00-20:00","operation":"private","operator":"香港攀爬樂園有限公司 Hong Kong Climbing Park Limited","operator:en":"Hong Kong Climbing Park Limited","operator:zh":"香港攀爬樂園有限公司","ownership":"private","phone":"+852 2866 2322","reservation":"yes","reservation:url":"https://www.hkclimbingpark.com/booking/","sport":"climbing","website":"https://www.hkclimbingpark.com/prices/#YL"}},"11908866985":{"lat":22.337231,"lon":114.2214048,"ts":"2024-12-22T14:16:59Z","tz":8,"tags":{"climbing":"crag","name":"High Man","sports":"climbing"}}}