{"58499306":{"location":[41.7276768,44.8172716],"ts":"2025-05-28T07:36:38Z","tz":4,"tags":{"alt_name:en":"Lotkin Monument","building":"climbing_wall","climbing":"artificial","description":"ხელოვნურ კედელზე ცოცვა\n\nThis monument was adapted for climbing in 2017 by support of  United Federation of  Georgian mountaineers","man_made":"tower","name":"შოთა რუსთაველის მემორიალი","name:en":"Shota Rustaveli Memorial","name:ka":"შოთა რუსთაველის მემორიალი","name:ru":"Мемориал Шота Руставели","shape":"circular","sport":"climbing","surface":"concrete","tower:construction":"concrete","tower:type":"climbing"}},"1163665404":{"location":[41.7417682,44.7412257],"ts":"2024-06-09T20:24:10Z","tz":4,"tags":{"building":"tower","charge":"10 GEL","check_date":"2024-06-09","fee":"yes","leisure":"sports_centre","man_made":"tower","opening_hours":"Mo-Fr 15:00-21:00; Sa-Su 12:00-21:00","sport":"climbing","tower:construction":"freestanding","tower:type":"climbing"}},"1208314279":{"location":[41.6844309,44.7964648],"ts":"2024-04-01T00:46:54Z","tz":4,"tags":{"leisure":"sports_centre","name":"Climbing area Botanical Garden, Tbilisi","sport":"climbing","website":"https://www.thecrag.com/en/climbing/georgia/tbilisi"}},"6290971749":{"location":[41.711728,44.7443194],"ts":"2024-05-21T19:40:11Z","tz":4,"tags":{"leisure":"sports_centre","name":"ვაკის საცოცი დარბაზი","name:en":"Vake Climbing Gym","sport":"climbing"}},"10678770029":{"location":[41.6845383,44.7964788],"ts":"2023-09-16T15:33:25Z","tz":4,"tags":{"fee":"no","leisure":"sports_centre","name":"Climbing area Botanical Garden, Tbilisi","sport":"climbing","website":"https://www.thecrag.com/en/climbing/georgia/tbilisi"}},"12377284094":{"location":[41.7304367,44.7394517],"ts":"2024-11-26T22:00:23Z","tz":4,"tags":{"leisure":"sports_centre","sport":"climbing"}}}