{"4813587":{"lat":50.9252355,"lon":14.424483,"ts":"2020-12-08T18:20:01Z","tz":1,"tags":{"climbing":"crag","name":"Kyjovské údolí","name:de":"Khaatal","ref":"17","source":"db-sandsteinklettern.gipfelbuch.de","type":"site"}},"12389863":{"lat":50.8429842,"lon":14.7469942,"ts":"2023-02-14T18:43:34Z","tz":1,"tags":{"climbing":"crag","name":"Oybin","type":"site"}},"12390090":{"lat":50.8454555,"lon":14.6932511,"ts":"2021-03-02T23:22:55Z","tz":1,"tags":{"climbing":"crag","name":"Jonsdorf","type":"site"}},"17802261":{"lat":50.7742466,"lon":14.5448271,"ts":"2024-07-04T06:16:52Z","tz":1,"tags":{"climbing":"crag","name":"Borská skalka","site":"climbing","sport":"climbing","type":"site","website":"https://www.horosvaz.cz/skaly-skala-15848/"}},"33729935":{"lat":50.8496601,"lon":14.6831266,"ts":"2024-07-08T13:58:38Z","tz":1,"tags":{"access":"yes","access:conditional":"no @ (Nov-Feb)","climbing":"route","highway":"via_ferrata","name":"Nonnensteig","oneway":"yes","via_ferrata_scale":"3"}},"301914328":{"lat":50.929027,"lon":14.451611,"ts":"2021-05-28T22:01:42Z","tz":1,"tags":{"climbing:grade:saxon:min":"II","name":"Malý Plačtivý kámen","name:de":"Kleiner Weinstein","natural":"peak","ref":"87","sport":"climbing","website":"http://db-sandsteinklettern.gipfelbuch.de/weg.php?gipfelid=1100"}},"308215554":{"lat":50.8445611,"lon":14.6757698,"ts":"2024-08-01T19:25:50Z","tz":1,"tags":{"climbing:grade:saxon:min":"II","climbing:rock":"sandstone","climbing:trad":"yes","name":"Falkenstein","name:cs":"Sokolík","name:en":"Hawk Stone","natural":"peak","sport":"climbing","website":"http://db-sandsteinklettern.gipfelbuch.de/weg.php?gipfelid=2382","wikimedia_commons":"File:Falkenstein jonsdorf.jpg"}},"537159124":{"lat":50.845695,"lon":14.6863604,"ts":"2021-03-02T23:22:55Z","tz":1,"tags":{"climbing:grade:saxon:min":"I","climbing:rock":"sandstone","climbing:trad":"yes","name":"Fensterturm","name:en":"Window Tower","natural":"peak","sport":"climbing"}},"537159125":{"lat":50.8416187,"lon":14.686048,"ts":"2021-11-11T13:30:07Z","tz":1,"tags":{"climbing:grade:saxon:min":"III","climbing:rock":"sandstone","climbing:trad":"yes","name":"Grenztalwächter","name:en":"Border Valley Guard","natural":"peak","sport":"climbing"}},"537159126":{"lat":50.8457052,"lon":14.7005841,"ts":"2021-10-27T22:29:40Z","tz":1,"tags":{"climbing:grade:saxon:min":"III","climbing:rock":"sandstone","climbing:trad":"yes","name":"Drei Brüder","name:en":"The Three Brothers","natural":"peak","sport":"climbing"}},"537159127":{"lat":50.8457962,"lon":14.7107323,"ts":"2021-03-02T22:36:59Z","tz":1,"tags":{"climbing:grade:saxon:min":"III","climbing:rock":"sandstone","climbing:trad":"yes","name":"Spitzstein","natural":"peak","sport":"climbing"}},"537159128":{"lat":50.8407534,"lon":14.7335024,"ts":"2024-03-05T18:55:02Z","tz":1,"tags":{"climbing:grade:saxon:min":"II","climbing:rock":"sandstone","climbing:trad":"yes","name":"Thomasfelsen","name:de":"Thomasfelsen","name:en":"Tom's Rock","natural":"peak","sport":"climbing"}},"537159129":{"lat":50.8446703,"lon":14.7401294,"ts":"2021-03-02T21:14:34Z","tz":1,"tags":{"climbing:grade:saxon:min":"III","climbing:rock":"sandstone","climbing:trad":"yes","name":"Totenturm","name:en":"Dead Tower","natural":"peak","sport":"climbing"}},"537159130":{"lat":50.8450768,"lon":14.7436496,"ts":"2021-03-02T21:14:34Z","tz":1,"tags":{"climbing:grade:saxon:min":"V","climbing:rock":"sandstone","climbing:trad":"yes","name":"Glocke","name:en":"The Bell","natural":"peak","sport":"climbing"}},"537159131":{"lat":50.8449062,"lon":14.7442376,"ts":"2021-03-02T21:14:34Z","tz":1,"tags":{"climbing:grade:saxon:min":"III","climbing:rock":"sandstone","climbing:trad":"yes","name":"Südöstlicher Zwilling","name:en":"South-eastern Twin","natural":"peak","sport":"climbing"}},"537159132":{"lat":50.8438893,"lon":14.7438466,"ts":"2023-09-18T07:39:00Z","tz":1,"tags":{"climbing:grade:saxon:min":"VI","climbing:rock":"sandstone","climbing:trad":"yes","name":"Zuckerhut","name:en":"Sugarloaf","natural":"cliff","sport":"climbing"}},"537159133":{"lat":50.8504727,"lon":14.7463871,"ts":"2021-03-02T21:14:34Z","tz":1,"tags":{"climbing:grade:saxon:min":"III","climbing:rock":"sandstone","climbing:trad":"yes","name":"Oybintalwächter","natural":"peak","sport":"climbing"}},"537159134":{"lat":50.8545646,"lon":14.7425403,"ts":"2021-03-02T21:14:34Z","tz":1,"tags":{"climbing:grade:saxon:min":"I","climbing:rock":"sandstone","climbing:trad":"yes","name":"Wilder Turm","name:en":"Wild Tower","natural":"peak","sport":"climbing"}},"537159135":{"lat":50.8516521,"lon":14.7553485,"ts":"2021-03-02T21:14:34Z","tz":1,"tags":{"climbing:abseiling":"yes","climbing:grade:saxon:min":"II","climbing:rock":"sandstone","climbing:summit_log":"yes","climbing:trad":"yes","name":"Gratzer Höhle","natural":"peak","sport":"climbing","summit:register":"yes"}},"537159136":{"lat":50.8510309,"lon":14.7550955,"ts":"2021-03-02T21:14:34Z","tz":1,"tags":{"climbing:abseiling":"yes","climbing:grade:saxon:min":"II","climbing:rock":"sandstone","climbing:summit_log":"yes","climbing:trad":"yes","name":"Gratzer Steine","natural":"cliff","sport":"climbing","summit:register":"yes"}},"537159137":{"lat":50.8484097,"lon":14.7626678,"ts":"2021-03-02T21:14:34Z","tz":1,"tags":{"climbing:grade:saxon:min":"II","climbing:rock":"sandstone","climbing:trad":"yes","name":"Brütende Henne","name:en":"Broody Hen","natural":"peak","sport":"climbing","tourism":"attraction"}},"537159139":{"lat":50.8355271,"lon":14.7419299,"ts":"2021-03-02T21:14:34Z","tz":1,"tags":{"climbing:grade:saxon:min":"V","climbing:rock":"sandstone","climbing:trad":"yes","name":"Waldtorwächter","name:en":"Wood Gate Keeper","natural":"peak","sport":"climbing"}},"537159141":{"lat":50.8486831,"lon":14.6819606,"ts":"2022-06-17T07:39:58Z","tz":1,"tags":{"climbing:grade:saxon:min":"IV","climbing:rock":"sandstone","climbing:trad":"yes","name":"Jonsdorfer Mönch","name:cs":"Mnich","natural":"peak","sport":"climbing"}},"540061932":{"lat":50.8490214,"lon":14.6985981,"ts":"2021-10-29T23:36:18Z","tz":1,"tags":{"climbing:grade:saxon:min":"I","climbing:rock":"sandstone","climbing:trad":"yes","name":"Drei Tische","name:en":"The Three Tables","natural":"peak","sport":"climbing","wheelchair":"no"}},"548675153":{"lat":50.8474552,"lon":14.6846264,"ts":"2024-06-28T18:12:52Z","tz":1,"tags":{"climbing:grade:saxon:min":"II","name":"Schalkstein","name:en":"Chalk Stone","natural":"peak","sport":"climbing","wikidata":"Q98608801","wikipedia":"de:Schalkstein"}},"548675160":{"lat":50.8510337,"lon":14.6815541,"ts":"2021-03-02T23:22:55Z","tz":1,"tags":{"climbing:grade:saxon:min":"V","climbing:rock":"sandstone","climbing:trad":"yes","name":"Mönchslochwächter","name:en":"Monk's Pocket Guard","natural":"peak","sport":"climbing"}},"548779177":{"lat":50.8446718,"lon":14.6839111,"ts":"2021-03-02T23:22:55Z","tz":1,"tags":{"climbing:grade:saxon:min":"II","climbing:rock":"sandstone","climbing:trad":"yes","name":"Dachssteine","name:en":"Badger Stone","natural":"peak","sport":"climbing"}},"548779326":{"lat":50.8450764,"lon":14.6881528,"ts":"2021-03-02T23:22:55Z","tz":1,"tags":{"climbing:grade:saxon:min":"II","climbing:rock":"sandstone","climbing:trad":"yes","name":"Drillinge","name:en":"The Triplets","natural":"peak","sport":"climbing"}},"548779331":{"lat":50.8510111,"lon":14.6817798,"ts":"2021-03-02T22:36:59Z","tz":1,"tags":{"climbing:grade:saxon:min":"IV","climbing:rock":"sandstone","climbing:trad":"yes","name":"Waltersdorfer Turm","natural":"peak","sport":"climbing"}},"677127088":{"lat":50.849744,"lon":14.761634,"ts":"2019-03-15T18:50:54Z","tz":1,"tags":{"name":"Östlicher Töpferturm","natural":"rock","sport":"climbing"}},"687645117":{"lat":50.8491263,"lon":14.683014,"ts":"2022-12-01T13:59:53Z","tz":1,"tags":{"bridge":"yes","climbing":"route","highway":"via_ferrata","name":"Nonnensteig","oneway":"yes","via_ferrata_scale":"3"}},"687645118":{"lat":50.8490253,"lon":14.68305,"ts":"2022-12-01T13:59:53Z","tz":1,"tags":{"climbing":"route","highway":"via_ferrata","name":"Nonnensteig","oneway":"yes","via_ferrata_scale":"3"}},"734373738":{"lat":50.8502121,"lon":14.6833971,"ts":"2021-03-02T22:36:59Z","tz":1,"tags":{"climbing:grade:saxon:min":"III","climbing:rock":"sandstone","climbing:trad":"yes","ele":"521","name":"Schluchtwand","name:en":"Canyon Wall","natural":"peak","sport":"climbing"}},"734373741":{"lat":50.8499334,"lon":14.6830798,"ts":"2021-03-02T22:36:59Z","tz":1,"tags":{"climbing:grade:saxon:min":"VI","climbing:rock":"sandstone","climbing:trad":"yes","ele":"523","name":"Barbarine","natural":"peak","sport":"climbing"}},"901429382":{"lat":50.8332885,"lon":14.7416152,"ts":"2015-05-17T15:09:45Z","tz":1,"tags":{"climbing:abseiling":"yes","climbing:grade:saxon:max":"Xa","climbing:grade:saxon:min":"II","climbing:rock":"sandstone","climbing:summit_log":"yes","climbing:trad":"yes","name":"Kelchsteinwächter","name:en":"Chalice Rock Guard","natural":"peak","sport":"climbing"}},"901429419":{"lat":50.8331097,"lon":14.7417008,"ts":"2023-10-27T17:14:32Z","tz":1,"tags":{"climbing:abseiling":"yes","climbing:grade:saxon:max":"VIIIb","climbing:grade:saxon:min":"VIIc","climbing:rock":"sandstone","climbing:summit_log":"yes","climbing:trad":"yes","name":"Kelchstein","name:en":"Chalice Rock","natural":"peak","sport":"climbing","tourism":"attraction","wheelchair":"yes","wikidata":"Q1738142","wikipedia":"de:Kelchstein"}},"1039832528":{"lat":50.8560631,"lon":14.7326398,"ts":"2022-03-13T10:43:27Z","tz":1,"tags":{"natural":"cliff","sport":"climbing"}},"1118642636":{"lat":50.848957,"lon":14.6830999,"ts":"2022-12-01T16:37:31Z","tz":1,"tags":{"climbing":"route","highway":"via_ferrata","ladder":"yes","oneway":"yes","via_ferrata_scale":"2","wikimedia_commons":"File:Jonsdorf-Nonnensteig 20220615 131443.jpg"}},"1286727974":{"lat":50.8382185,"lon":14.7565216,"ts":"2023-10-01T13:29:10Z","tz":1,"tags":{"climbing:abseiling":"1","climbing:grade:saxon:min":"I","climbing:rock":"sandstone","climbing:summit_log":"yes","climbing:trad":"yes","name":"Mönchswand","name:en":"Monk Wall","natural":"peak","sport":"climbing","summit:cross":"no","summit:register":"yes"}},"1845116941":{"lat":50.8389507,"lon":14.6898724,"ts":"2021-03-02T22:36:59Z","tz":1,"tags":{"climbing:grade:saxon:min":"II","climbing:rock":"sandstone","climbing:trad":"yes","name":"Rehstein","name:en":"Deer Stone","natural":"peak","sport":"climbing"}},"1862232739":{"lat":50.8372467,"lon":14.7540315,"ts":"2021-03-02T21:14:34Z","tz":1,"tags":{"climbing:grade:saxon:min":"IV","climbing:rock":"sandstone","climbing:trad":"yes","name":"Oberer Mönch","natural":"peak","sport":"climbing","summit:register":"yes"}},"1923782752":{"lat":50.8373627,"lon":14.7538709,"ts":"2021-03-02T21:14:34Z","tz":1,"tags":{"climbing:grade:saxon:min":"II","climbing:rock":"sandstone","climbing:trad":"yes","name":"Kastenturm","natural":"peak","source":"survey","sport":"climbing"}},"1923782753":{"lat":50.8374565,"lon":14.7541068,"ts":"2021-03-02T21:14:34Z","tz":1,"tags":{"climbing:grade:saxon:min":"II","climbing:rock":"sandstone","climbing:trad":"yes","name":"Novize","natural":"peak","source":"survey","sport":"climbing"}},"1923782754":{"lat":50.8375646,"lon":14.7538502,"ts":"2021-03-02T21:14:34Z","tz":1,"tags":{"climbing:grade:saxon:min":"II","climbing:rock":"sandstone","climbing:trad":"yes","name":"Unterer Mönch","natural":"peak","source":"survey","sport":"climbing"}},"2260819421":{"lat":50.8353,"lon":14.737629,"ts":"2021-03-02T21:14:34Z","tz":1,"tags":{"climbing:grade:saxon:min":"III","climbing:rock":"sandstone","climbing:trad":"yes","name":"Doppelkopf","natural":"peak","sport":"climbing","summit:register":"yes"}},"2260819427":{"lat":50.8504083,"lon":14.7618095,"ts":"2021-03-02T21:14:34Z","tz":1,"tags":{"climbing:grade:saxon:min":"I","climbing:rock":"sandstone","climbing:trad":"yes","name":"Echse","natural":"peak","sport":"climbing","summit:register":"yes"}},"2260819444":{"lat":50.8488363,"lon":14.6979164,"ts":"2023-09-30T13:59:27Z","tz":1,"tags":{"climbing:grade:saxon:min":"III","climbing:rock":"sandstone","climbing:trad":"yes","name":"Habicht","natural":"peak","sport":"climbing","summit:cross":"no","summit:register":"yes"}},"2410286935":{"lat":50.8448295,"lon":14.7640018,"ts":"2021-03-02T21:14:34Z","tz":1,"tags":{"climbing:grade:saxon:min":"I","climbing:rock":"sandstone","climbing:trad":"yes","name":"Onkel und Tante","natural":"peak","sport":"climbing","summit:register":"yes"}},"2410286938":{"lat":50.8449856,"lon":14.7641864,"ts":"2021-03-02T21:14:34Z","tz":1,"tags":{"climbing:grade:saxon:min":"IV","climbing:rock":"sandstone","climbing:trad":"yes","name":"Ernst-Schulze-Stein","natural":"peak","sport":"climbing","summit:register":"yes"}},"2510722926":{"lat":50.8413617,"lon":14.7295721,"ts":"2024-08-14T15:47:31Z","tz":1,"tags":{"name":"Teufelszahn","natural":"peak","sport":"climbing"}},"2510722930":{"lat":50.8410813,"lon":14.7259332,"ts":"2021-03-02T21:14:34Z","tz":1,"tags":{"climbing:grade:saxon:min":"III","climbing:rock":"sandstone","climbing:trad":"yes","name":"Verborgenes Horn","natural":"peak","sport":"climbing"}},"2511163540":{"lat":50.928899,"lon":14.432054,"ts":"2021-05-28T22:01:42Z","tz":1,"tags":{"access:conditional":"yes@(JUL 01-JAN 31)","climbing:grade:saxon:min":"III","name":"Tlustá teta","name:de":"Dicke Tante","natural":"peak","ref":"62","sport":"climbing","website":"http://db-sandsteinklettern.gipfelbuch.de/weg.php?gipfelid=2004"}},"2511163544":{"lat":50.925691,"lon":14.430075,"ts":"2021-05-28T22:01:42Z","tz":1,"tags":{"access:conditional":"yes@(JUL 01-JAN 31)","climbing:grade:saxon:min":"III","name":"Dietrichův kámen","name:de":"Dietrichstein","natural":"peak","ref":"63","sport":"climbing","website":"http://db-sandsteinklettern.gipfelbuch.de/weg.php?gipfelid=2005"}},"2511163568":{"lat":50.9286279,"lon":14.4272135,"ts":"2021-05-28T22:01:42Z","tz":1,"tags":{"access:conditional":"yes@(JUL 01-JAN 31)","climbing:grade:saxon:min":"II","name":"Velká medvědice","name:de":"Große Bärin","natural":"peak","ref":"59","sport":"climbing","website":"http://db-sandsteinklettern.gipfelbuch.de/weg.php?gipfelid=2001"}},"2511163571":{"lat":50.928867,"lon":14.420076,"ts":"2021-05-28T22:01:42Z","tz":1,"tags":{"access:conditional":"yes@(JUL 01-JAN 31)","climbing:grade:saxon:min":"II","name":"Zadní kužel","name:de":"Hinterer Kegel","natural":"peak","ref":"50","sport":"climbing","website":"http://db-sandsteinklettern.gipfelbuch.de/weg.php?gipfelid=1992"}},"2511163609":{"lat":50.926394,"lon":14.421347,"ts":"2021-05-28T22:01:42Z","tz":1,"tags":{"access:conditional":"yes@(JUL 01-JAN 31)","climbing:grade:saxon:min":"II","name":"Malý muž","name:de":"Kleiner Mann","natural":"peak","ref":"49","sport":"climbing","website":"http://db-sandsteinklettern.gipfelbuch.de/weg.php?gipfelid=1991"}},"2511163612":{"lat":50.932536,"lon":14.427951,"ts":"2021-05-28T22:01:42Z","tz":1,"tags":{"climbing:grade:saxon:min":"IV","name":"Loupežník","name:de":"Räuberlein","natural":"peak","ref":"51","sport":"climbing","website":"http://db-sandsteinklettern.gipfelbuch.de/weg.php?gipfelid=1993"}},"2511163614":{"lat":50.928947,"lon":14.432054,"ts":"2021-05-28T22:01:42Z","tz":1,"tags":{"access:conditional":"yes@(JUL 01-JAN 31)","alt_name":"Dicker Onkel","climbing:grade:saxon:min":"I","name":"Tlustý strýc (Pachole)","name:de":"Kleines Kind","natural":"peak","ref":"61","sport":"climbing","website":"http://db-sandsteinklettern.gipfelbuch.de/weg.php?gipfelid=2003"}},"2511163626":{"lat":50.9250145,"lon":14.4240598,"ts":"2021-05-28T22:01:42Z","tz":1,"tags":{"access:conditional":"yes@(JUL 01-JAN 31)","alt_name":"Großer Mann","climbing:grade:saxon:min":"VI","name":"Velký muž","name:de":"Mann","natural":"peak","ref":"48","sport":"climbing","website":"http://db-sandsteinklettern.gipfelbuch.de/weg.php?gipfelid=1990"}},"2511163683":{"lat":50.859301,"lon":14.414717,"ts":"2021-05-30T12:43:13Z","tz":1,"tags":{"access:conditional":"yes@(JUL 01-JAN 31)","alt_name":"Franzosenturm","climbing:grade:saxon:min":"III","name":"Francouzská věž","name:de":"Scholzentalwächter","natural":"cliff","ref":"85","sport":"climbing","website":"http://db-sandsteinklettern.gipfelbuch.de/weg.php?gipfelid=1403"}},"2511163715":{"lat":50.932864,"lon":14.427698,"ts":"2021-05-28T22:01:42Z","tz":1,"tags":{"alt_name":"Waldgeist","climbing:grade:saxon:min":"II","name":"Strážce Šternberka","name:de":"Sternbergwächter","natural":"peak","ref":"52","sport":"climbing","website":"http://db-sandsteinklettern.gipfelbuch.de/weg.php?gipfelid=1994"}},"2511163720":{"lat":50.924785,"lon":14.425182,"ts":"2021-05-28T22:01:42Z","tz":1,"tags":{"access:conditional":"yes@(JUL 01-JAN 31)","alt_name":"Dicke Frau","climbing:grade:saxon:min":"II","name":"Tlustá paní","name:de":"Waldstein","natural":"peak","ref":"47","sport":"climbing","website":"http://db-sandsteinklettern.gipfelbuch.de/weg.php?gipfelid=1989"}},"2573264380":{"lat":50.848484,"lon":14.741006,"ts":"2021-03-02T21:14:34Z","tz":1,"tags":{"climbing:grade:saxon:min":"III","climbing:rock":"sandstone","climbing:trad":"yes","name":"Falkenturm","natural":"peak","sport":"climbing"}},"3009934017":{"lat":50.8371922,"lon":14.7554592,"ts":"2021-03-02T21:14:34Z","tz":1,"tags":{"climbing:grade:saxon:min":"I","climbing:rock":"sandstone","climbing:trad":"yes","name":"Abt","natural":"peak","sport":"climbing"}},"3009934018":{"lat":50.835948,"lon":14.7425708,"ts":"2021-03-02T21:14:34Z","tz":1,"tags":{"climbing:grade:saxon:min":"III","climbing:rock":"sandstone","climbing:trad":"yes","name":"Ameise","natural":"peak","sport":"climbing"}},"3009934019":{"lat":50.8434252,"lon":14.7273925,"ts":"2023-02-14T18:43:34Z","tz":1,"tags":{"climbing:grade:saxon:min":"II","climbing:rock":"sandstone","climbing:trad":"yes","name":"Backenzahn","natural":"peak","sport":"climbing"}},"3009934031":{"lat":50.8360764,"lon":14.741586,"ts":"2021-03-02T21:14:34Z","tz":1,"tags":{"climbing:grade:saxon:min":"IV","climbing:rock":"sandstone","climbing:trad":"yes","name":"Eisbär","natural":"peak","sport":"climbing"}},"3009934032":{"lat":50.83593,"lon":14.7429275,"ts":"2021-03-02T21:14:34Z","tz":1,"tags":{"climbing:grade:saxon:min":"II","climbing:rock":"sandstone","climbing:trad":"yes","name":"Elefantenkopf","natural":"peak","sport":"climbing"}},"3009936533":{"lat":50.8347011,"lon":14.7358877,"ts":"2023-02-14T18:43:34Z","tz":1,"tags":{"climbing:grade:uiaa:min":"2","climbing:rock":"sandstone","climbing:trad":"yes","name":"Emporturm","natural":"peak","sport":"climbing"}},"3009936534":{"lat":50.835376,"lon":14.7536491,"ts":"2023-10-01T10:53:38Z","tz":1,"tags":{"climbing:grade:saxon:min":"II","climbing:rock":"sandstone","climbing:trad":"yes","name":"Enzianer Turm","natural":"peak","sport":"climbing","summit:cross":"no","summit:register":"yes"}},"3009936541":{"lat":50.8351509,"lon":14.7532865,"ts":"2024-08-27T07:18:48Z","tz":1,"tags":{"climbing:abseiling":"1","climbing:grade:saxon:min":"II","climbing:rock":"sandstone","climbing:summit_log":"yes","climbing:trad":"yes","name":"Großer Felsengassenturm","natural":"peak","sport":"climbing","url":"http://www.skalnioblasti.cz/5_index.asp?cmd=6&skala_id=14557"}},"3009936548":{"lat":50.8347804,"lon":14.7425739,"ts":"2021-03-02T21:14:34Z","tz":1,"tags":{"climbing:grade:saxon:min":"I","climbing:rock":"sandstone","climbing:trad":"yes","name":"Hauptrosenstein","natural":"peak","sport":"climbing"}},"3009936551":{"lat":50.8355335,"lon":14.7428572,"ts":"2021-03-02T21:14:34Z","tz":1,"tags":{"climbing:grade:saxon:min":"II","climbing:rock":"sandstone","climbing:trad":"yes","name":"Hoher Rosenstein","natural":"peak","sport":"climbing"}},"3009936561":{"lat":50.8359853,"lon":14.7426808,"ts":"2021-03-02T21:14:34Z","tz":1,"tags":{"climbing:grade:saxon:min":"VI","climbing:rock":"sandstone","climbing:trad":"yes","name":"Jubiläumsturm","natural":"peak","sport":"climbing"}},"3009936565":{"lat":50.8352438,"lon":14.7533718,"ts":"2024-08-27T07:18:48Z","tz":1,"tags":{"climbing:abseiling":"1","climbing:grade:saxon:min":"II","climbing:rock":"sandstone","climbing:summit_log":"yes","climbing:trad":"yes","name":"Kleiner Felsengassenturm","natural":"peak","sport":"climbing"}},"3009936583":{"lat":50.8355574,"lon":14.7539022,"ts":"2021-03-02T21:14:34Z","tz":1,"tags":{"climbing:grade:saxon:min":"III","climbing:rock":"sandstone","climbing:trad":"yes","name":"Nadel","natural":"peak","sport":"climbing"}},"3009936587":{"lat":50.8347955,"lon":14.7360546,"ts":"2022-12-24T14:48:29Z","tz":1,"tags":{"climbing:grade:uiaa:min":"3","climbing:rock":"sandstone","climbing:trad":"yes","name":"Oberer Bienenhaidstein","natural":"peak","sport":"climbing"}},"3009936588":{"lat":50.834488,"lon":14.7516156,"ts":"2021-03-02T21:14:34Z","tz":1,"tags":{"climbing:grade:saxon:min":"I","climbing:rock":"sandstone","climbing:trad":"yes","name":"Osterturm","natural":"peak","sport":"climbing"}},"3009936590":{"lat":50.8313304,"lon":14.7425547,"ts":"2021-03-02T21:14:34Z","tz":1,"tags":{"climbing:grade:saxon:min":"II","climbing:rock":"sandstone","climbing:trad":"yes","name":"Oybiner Lokomotive","natural":"peak","sport":"climbing"}},"3009936594":{"lat":50.8316627,"lon":14.7424908,"ts":"2021-03-02T21:14:34Z","tz":1,"tags":{"climbing:grade:saxon:min":"II","climbing:rock":"sandstone","climbing:trad":"yes","name":"Plattenstein","natural":"peak","sport":"climbing"}},"3009936602":{"lat":50.835387,"lon":14.7425234,"ts":"2021-03-02T21:14:34Z","tz":1,"tags":{"climbing:grade:saxon:min":"III","climbing:rock":"sandstone","climbing:trad":"yes","name":"Rosenspitze","natural":"peak","sport":"climbing"}},"3009936604":{"lat":50.8351852,"lon":14.7424478,"ts":"2021-03-02T21:14:34Z","tz":1,"tags":{"climbing:grade:saxon:min":"VI","climbing:rock":"sandstone","climbing:trad":"yes","name":"Rosenstumpf","natural":"peak","sport":"climbing"}},"3009936605":{"lat":50.8339103,"lon":14.7514162,"ts":"2021-03-02T21:14:34Z","tz":1,"tags":{"climbing:grade:saxon:min":"II","climbing:rock":"sandstone","climbing:trad":"yes","name":"Satanskopf","natural":"peak","sport":"climbing"}},"3009936620":{"lat":50.8348702,"lon":14.7363467,"ts":"2023-02-14T18:43:34Z","tz":1,"tags":{"climbing:grade:uiaa:min":"2","climbing:rock":"sandstone","climbing:trad":"yes","name":"Unterer Bienenhaidstein","natural":"peak","sport":"climbing"}},"3009936628":{"lat":50.8340475,"lon":14.7508687,"ts":"2021-03-02T21:14:34Z","tz":1,"tags":{"climbing:grade:saxon:min":"II","climbing:rock":"sandstone","climbing:trad":"yes","name":"Wetterhaube","natural":"peak","sport":"climbing"}},"3009936629":{"lat":50.8370868,"lon":14.7479348,"ts":"2021-03-02T21:14:34Z","tz":1,"tags":{"climbing:grade:saxon:min":"III","climbing:rock":"sandstone","climbing:trad":"yes","name":"Wetterstein","natural":"peak","sport":"climbing"}},"3009942262":{"lat":50.8442246,"lon":14.7393774,"ts":"2021-10-26T23:25:09Z","tz":1,"tags":{"climbing:grade:saxon:min":"II","climbing:rock":"sandstone","climbing:trad":"yes","name":"Burgwächter","natural":"peak","sport":"climbing"}},"3009942263":{"lat":50.8446677,"lon":14.7325481,"ts":"2021-03-02T21:14:34Z","tz":1,"tags":{"climbing:grade:saxon:min":"IV","climbing:rock":"sandstone","climbing:trad":"yes","name":"Däumling","natural":"peak","sport":"climbing"}},"3009942264":{"lat":50.8447653,"lon":14.7325998,"ts":"2021-10-26T23:25:09Z","tz":1,"tags":{"climbing:grade:saxon:min":"II","climbing:rock":"sandstone","climbing:trad":"yes","name":"Däumlingswarte","natural":"peak","sport":"climbing"}},"3009942265":{"lat":50.8448977,"lon":14.7400407,"ts":"2021-03-02T21:14:34Z","tz":1,"tags":{"climbing:grade:saxon:min":"VIIa","climbing:rock":"sandstone","climbing:trad":"yes","name":"Fassspitzel","natural":"peak","sport":"climbing"}},"3009942268":{"lat":50.8438899,"lon":14.7314035,"ts":"2021-10-26T23:25:09Z","tz":1,"tags":{"climbing:grade:saxon:min":"I","climbing:rock":"sandstone","climbing:trad":"yes","name":"Liebesturm","natural":"peak","sport":"climbing"}},"3009942269":{"lat":50.8445153,"lon":14.7372939,"ts":"2021-04-02T09:59:48Z","tz":1,"tags":{"climbing:grade:saxon:min":"IV","climbing:rock":"sandstone","climbing:trad":"yes","name":"Märchenturm","natural":"peak","sport":"climbing"}},"3009942270":{"lat":50.8432889,"lon":14.7427012,"ts":"2021-03-02T21:14:34Z","tz":1,"tags":{"climbing:grade:saxon:min":"V","climbing:rock":"sandstone","climbing:trad":"yes","name":"Rabennest","natural":"cliff","sport":"climbing"}},"3257126663":{"lat":50.928444,"lon":14.451416,"ts":"2021-05-28T22:01:42Z","tz":1,"tags":{"climbing:grade:saxon:min":"I","name":"Velký Plačtivý kámen","name:de":"Großer Weinstein","natural":"peak","ref":"86","sport":"climbing","website":"http://db-sandsteinklettern.gipfelbuch.de/weg.php?gipfelid=1099"}},"3257127186":{"lat":50.927944,"lon":14.451555,"ts":"2020-12-07T18:07:17Z","tz":1,"tags":{"name":"Stěna nad ohništěm","name:de":"Wand überm Feuerplatz","natural":"cliff","ref":"84","sport":"climbing","website":"http://db-sandsteinklettern.gipfelbuch.de/weg.php?gipfelid=2026"}},"3257127187":{"lat":50.933277,"lon":14.437888,"ts":"2021-05-28T22:01:42Z","tz":1,"tags":{"access:conditional":"yes@(JUL 01-JAN 31)","climbing:grade:saxon:min":"V","name":"Brtnická věž","name:de":"Zeidlerturm","natural":"peak","ref":"54","sport":"climbing","website":"http://db-sandsteinklettern.gipfelbuch.de/weg.php?gipfelid=1996"}},"3466933660":{"lat":50.916555,"lon":14.440666,"ts":"2021-05-28T22:01:42Z","tz":1,"tags":{"access:conditional":"yes@(JUL 01-JAN 31)","climbing:grade:saxon:min":"III","name":"Bivoj","natural":"peak","ref":"83","sport":"climbing","website":"http://db-sandsteinklettern.gipfelbuch.de/weg.php?gipfelid=2025"}},"3466933661":{"lat":50.91325,"lon":14.446333,"ts":"2021-05-28T22:01:42Z","tz":1,"tags":{"access:conditional":"yes@(JUL 01-JAN 31)","climbing:grade:saxon:min":"IV","name":"Borový kámen","name:de":"Kiefernstein","natural":"peak","ref":"74","sport":"climbing","website":"http://db-sandsteinklettern.gipfelbuch.de/weg.php?gipfelid=2016"}},"3466933662":{"lat":50.933166,"lon":14.437916,"ts":"2021-05-28T22:01:42Z","tz":1,"tags":{"access:conditional":"yes@(JUL 01-JAN 31)","climbing:grade:saxon:min":"II","name":"Brtnická stěna","name:de":"Zeidlerwand","natural":"cliff","ref":"55","sport":"climbing","website":"http://db-sandsteinklettern.gipfelbuch.de/weg.php?gipfelid=1997"}},"3466933666":{"lat":50.932694,"lon":14.438194,"ts":"2021-05-28T22:01:42Z","tz":1,"tags":{"access:conditional":"yes@(JUL 01-JAN 31)","climbing:grade:saxon:min":"IV","name":"Dvojitá věž","name:de":"Doppelturm","natural":"peak","ref":"57","sport":"climbing","website":"http://db-sandsteinklettern.gipfelbuch.de/weg.php?gipfelid=1999"}},"3466933668":{"lat":50.914361,"lon":14.443333,"ts":"2021-05-28T22:01:42Z","tz":1,"tags":{"access:conditional":"yes@(JUL 01-JAN 31)","climbing:grade:saxon:min":"V","name":"Giselina skála","name:de":"Giselafels","natural":"peak","ref":"73","sport":"climbing","website":"http://db-sandsteinklettern.gipfelbuch.de/weg.php?gipfelid=2015"}},"3466933669":{"lat":50.934722,"lon":14.414694,"ts":"2021-05-28T22:01:42Z","tz":1,"tags":{"access:conditional":"yes@(JUL 01-JAN 31)","climbing:grade:saxon:min":"III","name":"Hláska Stürmerova dolu","name:de":"Stürmergrundwächter","natural":"peak","ref":"20","sport":"climbing","website":"http://db-sandsteinklettern.gipfelbuch.de/weg.php?gipfelid=1962"}},"3466933670":{"lat":50.934638,"lon":14.41475,"ts":"2021-05-28T22:01:42Z","tz":1,"tags":{"access:conditional":"yes@(JUL 01-JAN 31)","climbing:grade:saxon:min":"II","name":"Hlásný","name:de":"Turmwächter","natural":"peak","ref":"19.4","sport":"climbing","website":"http://db-sandsteinklettern.gipfelbuch.de/weg.php?gipfelid=14544"}},"3466933671":{"lat":50.911277,"lon":14.4515,"ts":"2021-05-28T22:01:42Z","tz":1,"tags":{"climbing:grade:saxon:min":"II","name":"Hradní jehla","name:de":"Burgnadel","natural":"peak","ref":"77","sport":"climbing","website":"http://db-sandsteinklettern.gipfelbuch.de/weg.php?gipfelid=2019"}},"3466933675":{"lat":50.926277,"lon":14.440277,"ts":"2021-05-28T22:01:42Z","tz":1,"tags":{"access:conditional":"yes@(JUL 01-JAN 31)","climbing:grade:saxon:min":"V","name":"Kastelánka","name:de":"Kastellanin","natural":"peak","ref":"68","sport":"climbing","website":"http://db-sandsteinklettern.gipfelbuch.de/weg.php?gipfelid=2010"}},"3466933677":{"lat":50.915694,"lon":14.434694,"ts":"2021-05-28T22:01:42Z","tz":1,"tags":{"access:conditional":"yes@(JUL 01-JAN 31)","climbing:grade:saxon:min":"IV","name":"Krtek","name:de":"Maulwurf","natural":"peak","ref":"71","sport":"climbing","website":"http://db-sandsteinklettern.gipfelbuch.de/weg.php?gipfelid=2013"}},"3466933679":{"lat":50.925972,"lon":14.441472,"ts":"2021-05-28T22:01:42Z","tz":1,"tags":{"access:conditional":"yes@(JUL 01-JAN 31)","alt_name":"Schilfwand","climbing:grade:saxon:min":"I","name":"Kuncova stěna (Rákosová stěna)","name:de":"Kunzewand","natural":"cliff","ref":"67","sport":"climbing","website":"http://db-sandsteinklettern.gipfelbuch.de/weg.php?gipfelid=2009"}},"3466933682":{"lat":50.915109,"lon":14.4434918,"ts":"2021-05-28T22:01:42Z","tz":1,"tags":{"access:conditional":"yes@(JUL 01-JAN 31)","climbing:grade:saxon:min":"III","name":"Lahvička","name:de":"Fläschel","natural":"peak","ref":"82","sport":"climbing","website":"http://db-sandsteinklettern.gipfelbuch.de/weg.php?gipfelid=2024"}},"3466933683":{"lat":50.934944,"lon":14.417138,"ts":"2021-05-28T22:01:42Z","tz":1,"tags":{"access:conditional":"yes@(JUL 01-JAN 31)","climbing:grade:saxon:min":"III","name":"Maják","name:de":"Leuchtturm","natural":"peak","ref":"19","sport":"climbing","website":"http://db-sandsteinklettern.gipfelbuch.de/weg.php?gipfelid=1961"}},"3466933685":{"lat":50.91425,"lon":14.445972,"ts":"2021-05-28T22:01:42Z","tz":1,"tags":{"access:conditional":"yes@(JUL 01-JAN 31)","climbing:grade:saxon:min":"II","name":"Markétina věž (Kopretinová věž)","name:de":"Margarethenturm","natural":"peak","ref":"81","sport":"climbing","website":"http://db-sandsteinklettern.gipfelbuch.de/weg.php?gipfelid=2023"}},"3466933686":{"lat":50.9367028,"lon":14.4491248,"ts":"2021-05-28T22:01:42Z","tz":1,"tags":{"alt_name":"Martinsturm","climbing:grade:saxon:min":"III","name":"Martinův kámen (Martinova věž)","name:de":"Martinsstein","natural":"peak","ref":"88","sport":"climbing","website":"http://db-sandsteinklettern.gipfelbuch.de/weg.php?gipfelid=2028"}},"3466941293":{"lat":50.934416,"lon":14.416444,"ts":"2021-05-28T22:01:42Z","tz":1,"tags":{"access:conditional":"yes@(JUL 01-JAN 31)","climbing:grade:saxon:min":"II","name":"Osadní kámen","name:de":"Gemeindestein","natural":"peak","ref":"19.2","sport":"climbing","website":"http://db-sandsteinklettern.gipfelbuch.de/weg.php?gipfelid=14543"}},"3466941295":{"lat":50.928305,"lon":14.451388,"ts":"2020-12-07T18:07:17Z","tz":1,"tags":{"name":"Pavučinový hrad","name:de":"Spinnennetzburg","natural":"cliff","ref":"85","sport":"climbing","website":"http://db-sandsteinklettern.gipfelbuch.de/weg.php?gipfelid=2027"}},"3466941299":{"lat":50.932888,"lon":14.438138,"ts":"2021-05-28T22:01:42Z","tz":1,"tags":{"access:conditional":"yes@(JUL 01-JAN 31)","climbing:grade:saxon:min":"V","name":"Převislá věž","name:de":"Überhängender Turm","natural":"peak","ref":"56","sport":"climbing","website":"http://db-sandsteinklettern.gipfelbuch.de/weg.php?gipfelid=1998"}},"3466941301":{"lat":50.926472,"lon":14.440944,"ts":"2021-05-28T22:01:42Z","tz":1,"tags":{"access:conditional":"yes@(JUL 01-JAN 31)","climbing:grade:saxon:min":"IV","name":"Rákosník","name:de":"Rohrsänger","natural":"peak","ref":"66","sport":"climbing","website":"http://db-sandsteinklettern.gipfelbuch.de/weg.php?gipfelid=2008"}},"3466941302":{"lat":50.927194,"lon":14.43825,"ts":"2021-05-28T22:01:42Z","tz":1,"tags":{"access:conditional":"yes@(JUL 01-JAN 31)","alt_name":"Drilling","climbing:grade:saxon:min":"I","name":"Slunovratový kámen (Trojče)","name:de":"Sonnwendstein","natural":"peak","ref":"65","sport":"climbing","website":"http://db-sandsteinklettern.gipfelbuch.de/weg.php?gipfelid=2007"}},"3466941306":{"lat":50.909888,"lon":14.449611,"ts":"2021-05-28T22:01:42Z","tz":1,"tags":{"climbing:grade:saxon:min":"IV","name":"Strážce Klenotnice","name:de":"Schatzkammerwächter","natural":"peak","ref":"75","sport":"climbing","website":"http://db-sandsteinklettern.gipfelbuch.de/weg.php?gipfelid=2017"}},"3466941307":{"lat":50.912135,"lon":14.456328,"ts":"2021-05-28T22:01:42Z","tz":1,"tags":{"access:conditional":"yes@(JUL 01-JAN 31)","climbing:grade:saxon:min":"IV","name":"Strážce Kyjovského údolí","name:de":"Khaatalwächter","natural":"peak","ref":"78","sport":"climbing","website":"http://db-sandsteinklettern.gipfelbuch.de/weg.php?gipfelid=2020"}},"3466941308":{"lat":50.931611,"lon":14.431388,"ts":"2021-05-28T22:01:42Z","tz":1,"tags":{"access:conditional":"yes@(JUL 01-JAN 31)","climbing:grade:saxon:min":"III","name":"Strážce Malého Krkavčího dolu","name:de":"Kleiner Rabengrundwächter","natural":"peak","ref":"53","sport":"climbing","website":"http://db-sandsteinklettern.gipfelbuch.de/weg.php?gipfelid=1995"}},"3466941311":{"lat":50.912361,"lon":14.449194,"ts":"2021-05-28T22:01:42Z","tz":1,"tags":{"access:conditional":"yes@(JUL 01-JAN 31)","climbing:grade:saxon:min":"II","name":"Svíčka","name:de":"Kerze","natural":"peak","ref":"79","sport":"climbing","website":"http://db-sandsteinklettern.gipfelbuch.de/weg.php?gipfelid=2021"}},"3466941315":{"lat":50.928083,"lon":14.436361,"ts":"2021-05-28T22:01:42Z","tz":1,"tags":{"access:conditional":"yes@(JUL 01-JAN 31)","climbing:grade:saxon:min":"I","name":"Velbloudí věž","name:de":"Kamelturm","natural":"peak","ref":"64","sport":"climbing","website":"http://db-sandsteinklettern.gipfelbuch.de/weg.php?gipfelid=2006"}},"3466941316":{"lat":50.932611,"lon":14.438305,"ts":"2021-05-28T22:01:42Z","tz":1,"tags":{"access:conditional":"yes@(JUL 01-JAN 31)","climbing:grade:saxon:min":"V","name":"Vlk","name:de":"Wolf","natural":"peak","ref":"58","sport":"climbing","website":"http://db-sandsteinklettern.gipfelbuch.de/weg.php?gipfelid=2000"}},"3466941317":{"lat":50.928717,"lon":14.429662,"ts":"2021-05-28T22:01:42Z","tz":1,"tags":{"access:conditional":"yes@(JUL 01-JAN 31)","climbing:grade:saxon:min":"III","name":"Vlčí doupě","name:de":"Wolfshöhle","natural":"peak","ref":"60","sport":"climbing","website":"http://db-sandsteinklettern.gipfelbuch.de/weg.php?gipfelid=2002"}},"3466941321":{"lat":50.9260622,"lon":14.4392756,"ts":"2021-05-28T22:01:42Z","tz":1,"tags":{"access:conditional":"yes@(JUL 01-JAN 31)","climbing:grade:saxon:min":"III","name":"Zpustlý kastelán","name:de":"Verkommener Kastellan","natural":"peak","ref":"69","sport":"climbing","website":"http://db-sandsteinklettern.gipfelbuch.de/weg.php?gipfelid=2011"}},"3466941323":{"lat":50.925166,"lon":14.4395,"ts":"2021-05-28T22:01:42Z","tz":1,"tags":{"access:conditional":"yes@(JUL 01-JAN 31)","climbing:grade:saxon:min":"IV","name":"Zámecká věž","name:de":"Schloßturm","natural":"peak","ref":"70","sport":"climbing","website":"http://db-sandsteinklettern.gipfelbuch.de/weg.php?gipfelid=2012"}},"3466941324":{"lat":50.909666,"lon":14.449027,"ts":"2021-05-28T22:01:42Z","tz":1,"tags":{"climbing:grade:saxon:min":"III","name":"Černokněžník","name:de":"Hexenmeister","natural":"peak","ref":"76","sport":"climbing","website":"http://db-sandsteinklettern.gipfelbuch.de/weg.php?gipfelid=2018"}},"3466941325":{"lat":50.915333,"lon":14.441305,"ts":"2020-12-07T18:07:17Z","tz":1,"tags":{"access:conditional":"yes@(JUL 01-JAN 31)","name":"Čertův kámen","name:de":"Teufelsstein","natural":"cliff","ref":"72","sport":"climbing","website":"http://db-sandsteinklettern.gipfelbuch.de/weg.php?gipfelid=2014"}},"3466941326":{"lat":50.913,"lon":14.448166,"ts":"2021-05-28T22:01:42Z","tz":1,"tags":{"access:conditional":"yes@(JUL 01-JAN 31)","climbing:grade:saxon:min":"III","name":"Říjová jehla","name:de":"Brunftnadel","natural":"peak","ref":"80","sport":"climbing","website":"http://db-sandsteinklettern.gipfelbuch.de/weg.php?gipfelid=2022"}},"3474720077":{"lat":50.861472,"lon":14.415416,"ts":"2021-05-30T12:43:13Z","tz":1,"tags":{"access:conditional":"yes@(JUL 01-JAN 31)","climbing:grade:saxon:min":"III","name":"Nahodilá věž","name:de":"Zufallsturm","natural":"peak","ref":"77","sport":"climbing","website":"http://db-sandsteinklettern.gipfelbuch.de/weg.php?gipfelid=1098"}},"3474722911":{"lat":50.839166,"lon":14.430611,"ts":"2021-05-30T13:35:13Z","tz":1,"tags":{"climbing:grade:saxon:min":"V","name":"Střelený Prušák","name:de":"Schusslicher Preuße","natural":"peak","ref":"96.4","sport":"climbing","website":"http://db-sandsteinklettern.gipfelbuch.de/weg.php?gipfelid=14567"}},"3474722930":{"lat":50.862027,"lon":14.4405,"ts":"2021-05-30T12:43:13Z","tz":1,"tags":{"access":"no","name":"Říjnová věž","name:de":"Oktoberturm","natural":"peak","ref":"97","sport":"climbing","website":"http://db-sandsteinklettern.gipfelbuch.de/weg.php?gipfelid=1415"}},"3474954518":{"lat":50.880055,"lon":14.415527,"ts":"2021-05-28T21:26:25Z","tz":1,"tags":{"access:conditional":"yes@(JUL 01-JAN 31)","climbing:grade:saxon:min":"I","name":"Brontosaurus","natural":"peak","ref":"103","sport":"climbing","website":"http://db-sandsteinklettern.gipfelbuch.de/weg.php?gipfelid=1261"}},"3474954523":{"lat":50.879128,"lon":14.417747,"ts":"2021-05-28T21:26:25Z","tz":1,"tags":{"access:conditional":"yes@(JUL 01-JAN 31)","climbing:grade:saxon:min":"II","name":"Cipísek","natural":"peak","ref":"96","sport":"climbing","website":"http://db-sandsteinklettern.gipfelbuch.de/weg.php?gipfelid=1254"}},"3474954541":{"lat":50.9055,"lon":14.415527,"ts":"2021-05-28T21:26:25Z","tz":1,"tags":{"access:conditional":"yes@(JUL 01-JAN 31)","climbing:grade:saxon:min":"II","name":"Jižní kříž","name:de":"Kreuz des Südens","natural":"peak","ref":"52","sport":"climbing","website":"http://db-sandsteinklettern.gipfelbuch.de/weg.php?gipfelid=1210"}},"3474954543":{"lat":50.905166,"lon":14.416861,"ts":"2021-05-28T21:26:25Z","tz":1,"tags":{"access:conditional":"yes@(JUL 01-JAN 31)","climbing:grade:saxon:min":"II","name":"Kalich","name:de":"Kelch","natural":"peak","ref":"53","sport":"climbing","website":"http://db-sandsteinklettern.gipfelbuch.de/weg.php?gipfelid=1211"}},"3474954560":{"lat":50.881027,"lon":14.417083,"ts":"2021-05-28T21:26:25Z","tz":1,"tags":{"access:conditional":"yes@(JUL 01-JAN 31)","alt_name":"Leuchttturm","climbing:grade:saxon:min":"II","name":"Maják","name:de":"Talwächter","natural":"peak","ref":"98","sport":"climbing","website":"http://db-sandsteinklettern.gipfelbuch.de/weg.php?gipfelid=1256"}},"3474954564":{"lat":50.879972,"lon":14.4185,"ts":"2023-05-19T16:36:44Z","tz":1,"tags":{"access:conditional":"yes@(JUL 01-JAN 31)","alt_name":"Durrelltürme","climbing:grade:saxon:min":"II","name":"Manželská věž (Durrellovy věže)","name:de":"Eheturm","natural":"peak","ref":"97","sport":"climbing","website":"http://db-sandsteinklettern.gipfelbuch.de/weg.php?gipfelid=1255"}},"3474954578":{"lat":50.888194,"lon":14.415166,"ts":"2021-05-28T21:26:25Z","tz":1,"tags":{"access:conditional":"yes@(JUL 01-JAN 31)","climbing:grade:saxon:min":"II","name":"Poustevna","name:de":"Einsiedelei","natural":"peak","ref":"93","sport":"climbing","website":"http://db-sandsteinklettern.gipfelbuch.de/weg.php?gipfelid=1251"}},"3474954590":{"lat":50.8723441,"lon":14.4353866,"ts":"2021-05-28T21:26:25Z","tz":1,"tags":{"climbing:grade:saxon:min":"II","name":"Lebka","name:de":"Schädelchen","natural":"peak","ref":"95","sport":"climbing","website":"http://db-sandsteinklettern.gipfelbuch.de/weg.php?gipfelid=1253"}},"3474954592":{"lat":50.890972,"lon":14.415055,"ts":"2021-05-28T21:26:25Z","tz":1,"tags":{"access:conditional":"yes@(JUL 01-JAN 31)","climbing:grade:saxon:min":"II","name":"Skylla","name:de":"Scylla","natural":"peak","ref":"61","sport":"climbing","website":"http://db-sandsteinklettern.gipfelbuch.de/weg.php?gipfelid=1219"}},"3474956403":{"lat":50.8805023,"lon":14.4162356,"ts":"2021-05-28T21:26:25Z","tz":1,"tags":{"access:conditional":"yes@(JUL 01-JAN 31)","climbing:grade:saxon:min":"I","name":"Strážce jehly","name:de":"Nadelwächter","natural":"peak","ref":"100","sport":"climbing","website":"http://db-sandsteinklettern.gipfelbuch.de/weg.php?gipfelid=1258"}},"3474956409":{"lat":50.880527,"lon":14.416388,"ts":"2021-05-28T21:26:25Z","tz":1,"tags":{"access:conditional":"yes@(JUL 01-JAN 31)","climbing:grade:saxon:min":"VIIb","name":"Tokáňská jehla","name:de":"Balzhüttennadel","natural":"peak","ref":"99","sport":"climbing","website":"http://db-sandsteinklettern.gipfelbuch.de/weg.php?gipfelid=1257"}},"3474956423":{"lat":50.880555,"lon":14.414638,"ts":"2021-05-28T21:26:25Z","tz":1,"tags":{"access:conditional":"yes@(JUL 01-JAN 31)","climbing:grade:saxon:min":"I","name":"Věž Tadeáše Haenkeho","name:de":"Thaddaeus-Haenke-Turm","natural":"peak","ref":"102","sport":"climbing","website":"http://db-sandsteinklettern.gipfelbuch.de/weg.php?gipfelid=1260"}},"3474956431":{"lat":50.906416,"lon":14.41525,"ts":"2021-05-28T21:26:25Z","tz":1,"tags":{"access:conditional":"yes@(JUL 01-JAN 31)","climbing:grade:saxon:min":"III","name":"Západní špička","name:de":"Westspitze","natural":"peak","ref":"51","sport":"climbing","website":"http://db-sandsteinklettern.gipfelbuch.de/weg.php?gipfelid=1209"}},"3474956436":{"lat":50.880805,"lon":14.414916,"ts":"2021-05-28T21:26:25Z","tz":1,"tags":{"access:conditional":"yes@(JUL 01-JAN 31)","climbing:grade:saxon:min":"III","name":"Čtyřlístek","name:de":"Vierblatt","natural":"peak","ref":"101","sport":"climbing","website":"http://db-sandsteinklettern.gipfelbuch.de/weg.php?gipfelid=1259"}},"3523708391":{"lat":50.8509949,"lon":14.7546509,"ts":"2020-12-12T17:10:29Z","tz":1,"tags":{"climbing:abseiling":"1","climbing:grade:saxon:min":"II","climbing:rock":"sandstone","climbing:summit_log":"yes","climbing:trad":"yes","name":"Gratzer Felsen","natural":"peak","sport":"climbing","summit:register":"yes","website":"http://fizig.de/index.php"}},"3523708392":{"lat":50.8509974,"lon":14.7556732,"ts":"2021-03-02T18:41:03Z","tz":1,"tags":{"climbing:abseiling":"yes","climbing:grade:saxon:min":"II","climbing:rock":"sandstone","climbing:summit_log":"yes","climbing:trad":"yes","name":"Gratzer Zinnen","natural":"peak","sport":"climbing"}},"3523709793":{"lat":50.8512357,"lon":14.755996,"ts":"2019-03-17T17:13:48Z","tz":1,"tags":{"climbing:grade:saxon:min":"IV","climbing:rock":"sandstone","climbing:trad":"yes","name":"Krumme Tante","natural":"peak","sport":"climbing","summit:register":"yes"}},"4854013816":{"lat":50.8543325,"lon":14.7430848,"ts":"2021-03-02T21:14:34Z","tz":1,"tags":{"climbing:grade:saxon:min":"IV","climbing:rock":"sandstone","climbing:trad":"yes","name":"Drachenwand","natural":"cliff","sport":"climbing"}},"6185756635":{"lat":50.8498895,"lon":14.7624807,"ts":"2024-08-11T21:03:27Z","tz":1,"tags":{"climbing:grade:saxon:min":"I","climbing:rock":"sandstone","climbing:trad":"yes","name":"Sphinx","natural":"peak","sport":"climbing","summit:cross":"no","summit:register":"yes"}},"6185758270":{"lat":50.8484133,"lon":14.7622233,"ts":"2021-03-02T21:14:34Z","tz":1,"tags":{"climbing:grade:saxon:min":"I","climbing:rock":"sandstone","climbing:trad":"yes","name":"Opferstein","natural":"peak","sport":"climbing"}},"6185858177":{"lat":50.846035,"lon":14.7398201,"ts":"2021-03-02T21:14:34Z","tz":1,"tags":{"climbing:grade:saxon:min":"II","climbing:rock":"sandstone","climbing:trad":"yes","name":"Elfenturm","natural":"peak","sport":"climbing"}},"6187785866":{"lat":50.8502484,"lon":14.7619016,"ts":"2022-12-24T14:47:11Z","tz":1,"tags":{"climbing:grade:uiaa:min":"2","climbing:rock":"sandstone","climbing:trad":"yes","name":"Saurier","natural":"peak","sport":"climbing"}},"6190653190":{"lat":50.847455,"lon":14.7509006,"ts":"2021-03-02T21:14:34Z","tz":1,"tags":{"climbing:grade:saxon:min":"II","climbing:rock":"sandstone","climbing:trad":"yes","name":"Xenon","natural":"peak","sport":"climbing"}},"6190653192":{"lat":50.8468059,"lon":14.7527649,"ts":"2021-03-02T21:14:34Z","tz":1,"tags":{"climbing:grade:saxon:min":"VI","climbing:rock":"sandstone","climbing:trad":"yes","name":"Einsamer Turm","name:de":"Einsamer Turm","natural":"peak","sport":"climbing"}},"6190653194":{"lat":50.8475215,"lon":14.751935,"ts":"2021-03-02T21:14:34Z","tz":1,"tags":{"climbing:grade:saxon:min":"II","climbing:rock":"sandstone","climbing:trad":"yes","name":"Bergkanzel","natural":"peak","sport":"climbing"}},"6190653195":{"lat":50.8478461,"lon":14.7520341,"ts":"2021-03-02T21:14:34Z","tz":1,"tags":{"climbing:grade:saxon:min":"II","climbing:rock":"sandstone","climbing:trad":"yes","name":"Zackenkrone","natural":"peak","sport":"climbing"}},"6202940748":{"lat":50.8513187,"lon":14.7477217,"ts":"2021-03-02T21:14:34Z","tz":1,"tags":{"climbing:grade:saxon:min":"III","climbing:rock":"sandstone","climbing:trad":"yes","name":"Ameisenjungfer","natural":"peak","sport":"climbing"}},"6202940749":{"lat":50.8507259,"lon":14.7478748,"ts":"2021-03-02T21:14:34Z","tz":1,"tags":{"climbing:grade:saxon:min":"IV","climbing:rock":"sandstone","climbing:trad":"yes","name":"Vergessener Turm","natural":"peak","sport":"climbing"}},"6202953561":{"lat":50.8449416,"lon":14.7441929,"ts":"2021-03-02T21:14:34Z","tz":1,"tags":{"climbing:grade:saxon:min":"III","climbing:rock":"sandstone","climbing:trad":"yes","name":"Nordwestlicher Zwilling","natural":"peak","sport":"climbing"}},"6202953563":{"lat":50.844922,"lon":14.7439355,"ts":"2021-10-26T23:25:09Z","tz":1,"tags":{"climbing:grade:saxon:min":"III","climbing:rock":"sandstone","climbing:trad":"yes","name":"Schluchtwächter","natural":"peak","sport":"climbing"}},"6202953564":{"lat":50.8452047,"lon":14.7433568,"ts":"2021-03-02T21:14:34Z","tz":1,"tags":{"climbing:grade:saxon:min":"III","climbing:rock":"sandstone","climbing:trad":"yes","name":"Glöckner","natural":"peak","sport":"climbing"}},"6202953565":{"lat":50.8451262,"lon":14.7425468,"ts":"2021-03-02T21:14:34Z","tz":1,"tags":{"climbing:grade:saxon:min":"VI","climbing:rock":"sandstone","climbing:trad":"yes","name":"Morsche Zinne","natural":"peak","sport":"climbing"}},"6202953566":{"lat":50.8449416,"lon":14.7424717,"ts":"2021-03-02T21:14:34Z","tz":1,"tags":{"climbing:grade:saxon:min":"VI","climbing:rock":"sandstone","climbing:trad":"yes","name":"Bewachsener Turm","natural":"peak","sport":"climbing"}},"6202953567":{"lat":50.8450266,"lon":14.7417743,"ts":"2021-03-02T21:14:34Z","tz":1,"tags":{"climbing:grade:saxon:min":"IV","climbing:rock":"sandstone","climbing:trad":"yes","name":"Hausgrundwarte","natural":"cliff","sport":"climbing"}},"6202953571":{"lat":50.8467157,"lon":14.7403047,"ts":"2021-03-02T21:14:34Z","tz":1,"tags":{"climbing:grade:saxon:min":"III","climbing:rock":"sandstone","climbing:trad":"yes","name":"Hausgrundspitzel","natural":"peak","sport":"climbing"}},"6202995978":{"lat":50.8490615,"lon":14.698738,"ts":"2021-03-02T22:36:59Z","tz":1,"tags":{"climbing:grade:saxon:min":"III","climbing:rock":"sandstone","climbing:trad":"yes","name":"Bärwandkopf","natural":"peak","sport":"climbing"}},"6203003176":{"lat":50.8496039,"lon":14.6829183,"ts":"2021-03-02T22:36:59Z","tz":1,"tags":{"climbing:grade:saxon:min":"VI","climbing:rock":"sandstone","climbing:trad":"yes","name":"Nonnenturm","natural":"peak","sport":"climbing"}},"6203017914":{"lat":50.8458677,"lon":14.7003389,"ts":"2021-03-02T23:22:55Z","tz":1,"tags":{"alt_name":"Ditter Bruder","climbing:grade:saxon:min":"II","climbing:rock":"sandstone","climbing:trad":"yes","name":"Bruder Klaus","natural":"peak","sport":"climbing"}},"6203043664":{"lat":50.854638,"lon":14.7424272,"ts":"2021-03-02T21:14:34Z","tz":1,"tags":{"climbing:grade:saxon:min":"VI","climbing:rock":"sandstone","climbing:trad":"yes","name":"Wilde Mauer","natural":"cliff","sport":"climbing"}},"6203894385":{"lat":50.837246,"lon":14.7284093,"ts":"2021-03-02T21:14:34Z","tz":1,"tags":{"climbing:grade:saxon:min":"II","climbing:rock":"sandstone","climbing:trad":"yes","name":"Förster","natural":"peak","sport":"climbing"}},"6230494725":{"lat":50.8460209,"lon":14.7410237,"ts":"2021-03-02T21:14:34Z","tz":1,"tags":{"climbing:grade:saxon:min":"II","climbing:rock":"sandstone","climbing:trad":"yes","name":"Teichwächter","natural":"peak","sport":"climbing"}},"6343397523":{"lat":50.8501561,"lon":14.7606245,"ts":"2021-03-02T21:14:34Z","tz":1,"tags":{"climbing:grade:saxon:min":"II","climbing:rock":"sandstone","climbing:trad":"yes","name":"Töpfertürme","natural":"peak","sport":"climbing","summit:register":"yes"}},"6572492281":{"lat":50.850513,"lon":14.6837871,"ts":"2021-03-02T22:36:59Z","tz":1,"tags":{"climbing:grade:saxon:min":"II","climbing:rock":"sandstone","climbing:trad":"yes","name":"Nonnenfelsen","natural":"peak","sport":"climbing"}},"6574485929":{"lat":50.8519604,"lon":14.6872259,"ts":"2021-03-02T22:36:59Z","tz":1,"tags":{"climbing:grade:saxon:min":"II","climbing:rock":"sandstone","climbing:trad":"yes","name":"Zigeunerwand","natural":"peak","sport":"climbing"}},"7084202815":{"lat":50.8441029,"lon":14.744439,"ts":"2021-03-02T21:14:34Z","tz":1,"tags":{"climbing:grade:saxon:min":"IV","climbing:rock":"sandstone","climbing:trad":"yes","name":"Falkennest","natural":"cliff","sport":"climbing"}},"7773784003":{"lat":50.7931411,"lon":14.4732391,"ts":"2020-07-31T18:27:25Z","tz":1,"tags":{"climbing":"yes","information":"map","map_size":"site","map_type":"topo","tourism":"information"}},"7773784005":{"lat":50.7937124,"lon":14.4830484,"ts":"2020-07-31T18:27:25Z","tz":1,"tags":{"climbing":"yes","information":"map","map_size":"site","map_type":"topo","tourism":"information"}},"7973634711":{"lat":50.8451349,"lon":14.6852739,"ts":"2021-03-02T23:22:55Z","tz":1,"tags":{"climbing:grade:saxon:min":"III","climbing:rock":"sandstone","climbing:trad":"yes","name":"Semperhexe","natural":"peak","sport":"climbing"}},"7973634713":{"lat":50.8458102,"lon":14.6896657,"ts":"2021-03-02T22:36:59Z","tz":1,"tags":{"climbing:grade:saxon:min":"I","climbing:rock":"sandstone","climbing:trad":"yes","name":"Kiefernwand","natural":"peak","sport":"climbing"}},"8200217302":{"lat":50.8452622,"lon":14.4172756,"ts":"2021-05-30T14:37:28Z","tz":1,"tags":{"climbing:grade:saxon:min":"I","name":"Kamzičí bobek","name:de":"Gamsschiss","natural":"peak","sport":"climbing","website":"https://www.skalnioblasti.cz/5_index.asp?cmd=6&skala_id=13207"}},"8202759435":{"lat":50.91408,"lon":14.42916,"ts":"2021-05-28T22:01:42Z","tz":1,"tags":{"access:conditional":"yes@(JUL 01-JAN 31)","climbing:grade:saxon:min":"III","name":"Kohoutí věž","name:de":"Hahnenturm","natural":"peak","sport":"climbing","website":"http://db-sandsteinklettern.gipfelbuch.de/weg.php?gipfelid=11302"}},"8202759436":{"lat":50.91425,"lon":14.43225,"ts":"2021-05-28T22:01:42Z","tz":1,"tags":{"access:conditional":"yes@(JUL 01-JAN 31)","climbing:grade:saxon:min":"IV","name":"Veverka","name:de":"Eichhörnchen","natural":"peak","sport":"climbing","website":"http://db-sandsteinklettern.gipfelbuch.de/weg.php?gipfelid=14554"}},"8202759437":{"lat":50.91416,"lon":14.43219,"ts":"2021-05-28T22:01:42Z","tz":1,"tags":{"access:conditional":"yes@(JUL 01-JAN 31)","climbing:grade:saxon:min":"II","name":"Lísková věž","name:de":"Haselturm","natural":"peak","sport":"climbing","website":"http://db-sandsteinklettern.gipfelbuch.de/weg.php?gipfelid=14553"}},"8202759438":{"lat":50.91225,"lon":14.44788,"ts":"2021-05-28T22:01:42Z","tz":1,"tags":{"access:conditional":"yes@(JUL 01-JAN 31)","climbing:grade:saxon:min":"III","name":"Computer","natural":"peak","sport":"climbing","website":"http://db-sandsteinklettern.gipfelbuch.de/weg.php?gipfelid=14552"}},"8202759439":{"lat":50.9263,"lon":14.44002,"ts":"2021-05-28T22:01:42Z","tz":1,"tags":{"access:conditional":"yes@(JUL 01-JAN 31)","climbing:grade:saxon:min":"I","name":"Domov důchodců","name:de":"Altersheim","natural":"peak","sport":"climbing","website":"http://db-sandsteinklettern.gipfelbuch.de/weg.php?gipfelid=9464"}},"8221804534":{"lat":50.84772,"lon":14.765404,"ts":"2021-03-02T21:14:34Z","tz":1,"tags":{"alt_name":"Töpferhöhlenstein","climbing:grade:saxon:min":"II","climbing:rock":"sandstone","climbing:trad":"yes","name":"Rübezahls Sessel","natural":"peak","sport":"climbing"}},"8222567022":{"lat":50.8382375,"lon":14.7273563,"ts":"2023-02-14T18:43:34Z","tz":1,"tags":{"climbing:grade:saxon:min":"I","climbing:rock":"sandstone","climbing:trad":"yes","name":"Dachskanzel","natural":"peak","sport":"climbing"}},"8481091306":{"lat":50.844555,"lon":14.690861,"ts":"2021-03-02T22:36:59Z","tz":1,"tags":{"climbing:grade:saxon:min":"IV","climbing:rock":"sandstone","climbing:trad":"yes","name":"Großvater","natural":"peak","sport":"climbing"}},"12032694074":{"lat":50.7741427,"lon":14.5448899,"ts":"2024-07-04T06:16:52Z","tz":1,"tags":{"author":"Autoři neznámí","climbing":"route_bottom","climbing:grade:uiaa":"4","name":"V hold německým lezcům","sport":"climbing","website":"https://www.horosvaz.cz/skaly-cesta-87982/"}},"12032694075":{"lat":50.7741481,"lon":14.5448539,"ts":"2024-07-04T06:16:52Z","tz":1,"tags":{"author":"Autoři neznámí","climbing":"route_bottom","climbing:grade:uiaa":"5+","name":"Varianta cesty Uteč a užívej","sport":"climbing","website":"https://www.horosvaz.cz/skaly-cesta-87981/"}},"12032694076":{"lat":50.7741552,"lon":14.544827,"ts":"2024-07-04T06:16:52Z","tz":1,"tags":{"author":"Autoři neznámí","climbing":"route_bottom","climbing:grade:uiaa":"5+","name":"Uteč a užívej","sport":"climbing","website":"https://www.horosvaz.cz/skaly-cesta-87980/"}},"12032694077":{"lat":50.7741651,"lon":14.5447962,"ts":"2024-07-04T06:16:52Z","tz":1,"tags":{"author":"Autoři neznámí","climbing":"route_bottom","climbing:grade:uiaa":"5+/6-","name":"Vzpomínka na Eiger","sport":"climbing","website":"https://www.horosvaz.cz/skaly-cesta-87979/"}},"12032694078":{"lat":50.7741851,"lon":14.5447718,"ts":"2024-07-04T06:16:52Z","tz":1,"tags":{"author":"Autoři neznámí","climbing":"route_bottom","climbing:grade:uiaa":"5+/6-","name":"Třicítka","sport":"climbing","website":"https://www.horosvaz.cz/skaly-cesta-87978/"}},"12032694079":{"lat":50.7742082,"lon":14.5447473,"ts":"2024-07-04T06:16:52Z","tz":1,"tags":{"author":"Autoři neznámí","climbing":"route_bottom","climbing:grade:uiaa":"6+","name":"Poslední přes dva","sport":"climbing","website":"https://www.horosvaz.cz/skaly-cesta-87977/"}},"12032694080":{"lat":50.7742313,"lon":14.5447229,"ts":"2024-07-04T06:16:52Z","tz":1,"tags":{"author":"Autoři neznámí","climbing":"route_bottom","climbing:grade:uiaa":"8-","name":"Pacošův luk","sport":"climbing","website":"https://www.horosvaz.cz/skaly-cesta-88875/"}},"12032694081":{"lat":50.7742535,"lon":14.5447066,"ts":"2024-07-04T06:16:52Z","tz":1,"tags":{"author":"Autoři neznámí","climbing":"route_bottom","climbing:grade:uiaa":"6+","name":"Mongol párty","sport":"climbing","website":"https://www.horosvaz.cz/skaly-cesta-88680/"}},"12032694082":{"lat":50.7742705,"lon":14.5447356,"ts":"2024-07-04T06:16:52Z","tz":1,"tags":{"author":"Autoři neznámí","climbing":"route_bottom","climbing:grade:uiaa":"7+","name":"Requiem pro Dalíka","sport":"climbing","website":"https://www.horosvaz.cz/skaly-cesta-88679/"}},"12032694083":{"lat":50.7742875,"lon":14.5447646,"ts":"2024-07-04T06:16:52Z","tz":1,"tags":{"author":"Autoři neznámí","climbing":"route_bottom","climbing:grade:uiaa":"8-","name":"Alžírské peklo","sport":"climbing","website":"https://www.horosvaz.cz/skaly-cesta-88678/"}},"12032694084":{"lat":50.7743046,"lon":14.5447936,"ts":"2024-07-04T06:16:52Z","tz":1,"tags":{"author":"Autoři neznámí","climbing":"route_bottom","climbing:grade:uiaa":"7+","name":"Dr. Chaoz","sport":"climbing","website":"https://www.horosvaz.cz/skaly-cesta-88677/"}},"12032694085":{"lat":50.7743216,"lon":14.5448225,"ts":"2024-07-04T06:16:52Z","tz":1,"tags":{"author":"Autoři neznámí","climbing":"route_bottom","climbing:grade:uiaa":"6","name":"Tři ptáci","sport":"climbing","website":"https://www.horosvaz.cz/skaly-cesta-88676/"}},"12032694086":{"lat":50.7743387,"lon":14.5448515,"ts":"2024-07-04T06:16:52Z","tz":1,"tags":{"author":"Autoři neznámí","climbing":"route_bottom","climbing:grade:uiaa":"4+/5","name":"Cesta paní domácí","sport":"climbing","website":"https://www.horosvaz.cz/skaly-cesta-88675/"}},"12032694087":{"lat":50.7743504,"lon":14.5448815,"ts":"2024-07-04T06:16:52Z","tz":1,"tags":{"author":"Autoři neznámí","climbing":"route_bottom","climbing:grade:uiaa":"4+/5-","name":"Bezejmenná","sport":"climbing","website":"https://www.horosvaz.cz/skaly-cesta-89483/"}},"12032694088":{"lat":50.7743443,"lon":14.5449145,"ts":"2024-07-04T06:16:52Z","tz":1,"tags":{"author":"Autoři neznámí","climbing":"route_bottom","climbing:grade:uiaa":"9-","name":"Dětský den","sport":"climbing","website":"https://www.horosvaz.cz/skaly-cesta-89482/"}},"12032694089":{"lat":50.7743382,"lon":14.5449476,"ts":"2024-07-04T06:16:52Z","tz":1,"tags":{"author":"Pavel Henke a Tomáš Sobotka, 25.3.2023","climbing":"route_bottom","climbing:grade:uiaa":"AF 9","name":"Ďáblův chřtán","sport":"climbing","website":"https://www.horosvaz.cz/skaly-cesta-117204/"}},"12110560966":{"lat":50.8412757,"lon":14.7289505,"ts":"2024-08-14T15:29:51Z","tz":1,"tags":{"name":"Höllenhund","natural":"cliff","sport":"climbing"}},"12139345327":{"lat":50.835034,"lon":14.7530359,"ts":"2024-08-27T07:18:48Z","tz":1,"tags":{"climbing:rock":"sandstone","climbing:summit_log":"yes","climbing:trad":"yes","name":"Felsengassenspitze","natural":"peak","sport":"climbing"}},"12243087140":{"lat":50.8644147,"lon":14.7648896,"ts":"2024-10-11T04:10:41Z","tz":1,"tags":{"access":"private","climbing:grade:saxon:min":"I","climbing:rock":"sandstone","climbing:summit_log":"yes","climbing:trad":"yes","description:de":"Auf Privatgrund stehend. Erlaubnis des Grundstückseigentümers einholen.","description:en":"Standing on private property. Obtain permission from the property owner.","height":"2","importance":"local","name":"Katzenstein","natural":"peak","sport":"climbing"}}}