{"83519980":{"lat":47.9526475,"lon":14.4582846,"ts":"2022-04-28T08:23:26Z","tz":1,"tags":{"climbing":"crag","climbing:grade:uiaa:max":"8+","climbing:grade:uiaa:min":"5","climbing:length":"15","climbing:quality":"solid","climbing:rock":"limestone","climbing:sport":"45","name":"Klettergarten Riesenbergerwand","natural":"cliff","sport":"climbing","website":"https://www.klettern-im-ennstal.at/kletterziele/klettergaerten/riesenbergerwand/"}},"86721113":{"lat":47.9605082,"lon":14.4383851,"ts":"2022-04-28T08:18:01Z","tz":1,"tags":{"access":"permissive","climbing:grade:uiaa:max":"9","climbing:grade:uiaa:min":"3+","climbing:sport":"25","name":"Klettergarten Camp Sibley","natural":"cliff","sport":"climbing","url":"https://www.klettern-im-ennstal.at/kletterziele/klettergaerten/camp-sibley/","website":"https://www.dascamp.at/"}},"86721117":{"lat":47.9604461,"lon":14.4387204,"ts":"2010-11-27T20:26:47Z","tz":1,"tags":{"natural":"cliff","sport":"climbing"}},"90573906":{"lat":47.9623304,"lon":14.4255051,"ts":"2022-04-28T08:18:01Z","tz":1,"tags":{"name":"Klettergarten Rebensteiner Mauer","natural":"cliff","sport":"climbing","website":"https://www.klettern-im-ennstal.at/kletterziele/klettergaerten/rebenstein/"}},"116909398":{"lat":47.9609484,"lon":14.4362752,"ts":"2022-04-28T08:18:01Z","tz":1,"tags":{"name":"Klettergarten Langenstein","natural":"cliff","sport":"climbing","website":"https://www.klettern-im-ennstal.at/kletterziele/klettergaerten/langenstein/"}},"119416694":{"lat":47.9531323,"lon":14.4544476,"ts":"2022-04-28T08:23:26Z","tz":1,"tags":{"climbing:grade:uiaa:max":"9-","climbing:grade:uiaa:min":"5","climbing:length":"15","climbing:rock":"limestone","climbing:sport":"50","name":"Klettergarten Sonnleitnerwand","natural":"cliff","sport":"climbing","website":"https://www.klettern-im-ennstal.at/kletterziele/klettergaerten/sonnleitnerwand/"}},"121509901":{"lat":47.9236549,"lon":14.4374864,"ts":"2022-04-28T07:45:12Z","tz":1,"tags":{"name":"Klettergarten Burgfelsen","natural":"cliff","sport":"climbing","website":"https://www.klettern-im-ennstal.at/kletterziele/klettergaerten/burgfelsen/"}},"310726690":{"lat":47.9387456,"lon":14.4770363,"ts":"2022-04-28T08:23:26Z","tz":1,"tags":{"name":"Sauzahn","natural":"cliff","sport":"climbing","website":"https://www.klettern-im-ennstal.at/kletterziele/klettergaerten/sauzahn/"}},"342216452":{"lat":47.8863738,"lon":14.5395125,"ts":"2022-01-11T12:56:39Z","tz":1,"tags":{"addr:city":"Großraming","addr:country":"AT","addr:housenumber":"9","addr:postcode":"4463","addr:street":"Eisenstraße","building":"yes","leisure":"sports_centre","sport":"climbing"}},"350055588":{"lat":47.9148571,"lon":14.4563192,"ts":"2022-04-28T07:55:48Z","tz":1,"tags":{"name":"Pfennigstein","natural":"cliff","sport":"climbing","website":"https://www.klettern-im-ennstal.at/kletterziele/klettergaerten/pfennigsteingebiet/"}},"350055591":{"lat":47.9172111,"lon":14.4539017,"ts":"2022-04-28T07:55:48Z","tz":1,"tags":{"climbing:grade:uiaa:min":"8-","climbing:sport":"yes","name":"Hackerschädl","natural":"cliff","sport":"climbing","url":"https://www.klettern-im-ennstal.at/kletterziele/klettergaerten/hackerschaedl/"}},"350055592":{"lat":47.9169408,"lon":14.4548002,"ts":"2022-04-28T07:55:48Z","tz":1,"tags":{"name":"Hacker Nordwand","natural":"cliff","sport":"climbing","website":"https://www.klettern-im-ennstal.at/kletterziele/klettergaerten/hacker-nordwand/"}},"350055597":{"lat":47.9145546,"lon":14.4549515,"ts":"2022-04-28T07:55:48Z","tz":1,"tags":{"name":"Pfennigsteinmauer","natural":"cliff","sport":"climbing","website":"https://www.klettern-im-ennstal.at/kletterziele/klettergaerten/pfennigsteinmauer/"}},"350055598":{"lat":47.9151042,"lon":14.453632,"ts":"2022-04-28T07:55:48Z","tz":1,"tags":{"natural":"cliff","sport":"climbing","website":"https://www.klettern-im-ennstal.at/kletterziele/klettergaerten/evamauer/"}},"527917651":{"lat":47.8863527,"lon":14.5395143,"ts":"2022-01-11T12:56:39Z","tz":1,"tags":{"climbing":"wall","name":"Kletterturm","sport":"climbing"}},"654784849":{"lat":47.8805297,"lon":14.6822676,"ts":"2020-11-27T09:55:08Z","tz":1,"tags":{"addr:city":"Gaflenz","addr:country":"AT","addr:housenumber":"6a","addr:place":"Neudorf","addr:postcode":"3335","building":"yes","contact:phone":"+43 7355 60349","leisure":"sports_centre","name":"Kletterhalle 6a","opening_hours":"Tu-Fr 17:00-22:00; Sa, Su 16:00-21:00","sport":"climbing","website":"https://www.kletterhalle6a.at/kontakt/daten/"}},"881470516":{"lat":47.8414578,"lon":14.642297,"ts":"2021-11-23T09:10:12Z","tz":1,"tags":{"natural":"cliff","sport":"climbing"}},"938150818":{"lat":47.9224942,"lon":14.4173506,"ts":"2022-04-28T07:37:45Z","tz":1,"tags":{"name":"Gelsenwand","natural":"cliff","sport":"climbing","website":"https://www.klettern-im-ennstal.at/kletterziele/klettergaerten/gelsenwand/"}},"938155409":{"lat":47.917616,"lon":14.4264112,"ts":"2022-04-28T07:38:55Z","tz":1,"tags":{"name":"Blaslmauer","natural":"cliff","sport":"climbing","website":"https://www.klettern-im-ennstal.at/kletterziele/klettergaerten/blaslmauer/"}},"940861801":{"lat":47.9169481,"lon":14.4539398,"ts":"2022-04-28T07:55:48Z","tz":1,"tags":{"climbing:grade:uiaa:min":"6","climbing:sport":"yes","name":"Nusswand Hauptsektor","natural":"cliff","sport":"climbing","url":"https://www.klettern-im-ennstal.at/kletterziele/klettergaerten/nusswand/"}},"940966563":{"lat":47.916808,"lon":14.4541077,"ts":"2022-04-28T07:55:48Z","tz":1,"tags":{"climbing:grade:uiaa:min":"6","climbing:sport":"yes","name":"Nusswand Rechter Wandteil","natural":"cliff","sport":"climbing","url":"https://www.klettern-im-ennstal.at/kletterziele/klettergaerten/nusswand/rechter-wandteil/"}},"946026727":{"lat":47.9624843,"lon":14.4271434,"ts":"2021-05-24T14:50:58Z","tz":1,"tags":{"alt_name":"Rebensteinmauern;Rebensteiner-Mauern;Rebensteinermauer;Rebensteiner-Mauer;Rebensteinmauer","name":"Klettergarten Rebenstein Untere Wand","natural":"cliff","sport":"climbing"}},"984485715":{"lat":47.8429202,"lon":14.6418121,"ts":"2021-11-23T09:10:12Z","tz":1,"tags":{"name":"Weyer Neu","natural":"cliff","sport":"climbing"}},"992022280":{"lat":47.9172142,"lon":14.4533776,"ts":"2022-04-28T07:55:48Z","tz":1,"tags":{"description":"Sektor Marathon Man","height":"30","name":"Hackermauer Marathon Man","natural":"cliff","sport":"climbing","website":"https://www.klettern-im-ennstal.at/kletterziele/klettergaerten/hackermauer/"}},"992022281":{"lat":47.9171058,"lon":14.4533654,"ts":"2022-04-28T07:55:48Z","tz":1,"tags":{"height":"20","name":"Hackermauer First Class","natural":"cliff","sport":"climbing","website":"https://www.klettern-im-ennstal.at/kletterziele/klettergaerten/hackermauer/"}},"995420426":{"lat":47.9169928,"lon":14.4537164,"ts":"2022-04-28T07:55:48Z","tz":1,"tags":{"name":"Topolinowand","natural":"cliff","sport":"climbing","website":"https://www.klettern-im-ennstal.at/kletterziele/klettergaerten/topolinowand/"}},"995421336":{"lat":47.9168929,"lon":14.4543867,"ts":"2021-10-21T22:47:32Z","tz":1,"tags":{"name":"Kleine Welt","natural":"cliff","sport":"climbing"}},"995421756":{"lat":47.9168675,"lon":14.4542123,"ts":"2022-04-28T07:55:48Z","tz":1,"tags":{"name":"Obere Nusswand","natural":"cliff","sport":"climbing","website":"https://www.klettern-im-ennstal.at/kletterziele/klettergaerten/obere-nusswand/"}},"1005517651":{"lat":47.8384236,"lon":14.6448396,"ts":"2022-04-28T08:06:03Z","tz":1,"tags":{"name":"Rettenstein","natural":"cliff","sport":"climbing","website":"https://www.klettern-im-ennstal.at/kletterziele/klettergaerten/rettenstein/"}},"1055618665":{"lat":47.9106903,"lon":14.5247605,"ts":"2022-06-05T08:53:00Z","tz":1,"tags":{"alt_name":"Wolkerlmauer","name":"Wolkenmauer","natural":"cliff","sport":"climbing","website":"https://www.klettern-im-ennstal.at/kletterziele/klettergaerten/wolkerlmauer/"}}}