{"165815346":{"location":[45.9570901,14.6582937],"ts":"2018-12-02T20:27:01Z","tz":1,"tags":{"building":"yes","name":"Plezalni klub Ascendo","sport":"climbing"}},"233630264":{"location":[46.0496278,14.5487399],"ts":"2023-12-09T11:38:35Z","tz":1,"tags":{"addr:city":"Ljubljana","addr:housenumber":"10","addr:postcode":"1000","addr:street":"Pesarska cesta","building":"yes","charge":"16 EUR","climbing:boulder":"yes","climbing:grade:french:max":"8c","climbing:grade:french:min":"4a","climbing:length":"15.5","climbing:routes":"334","climbing:sport":"yes","email":"info@plezalnicenter.si","fee":"yes","indoor":"yes","leisure":"sports_centre","name":"Plezalni center Ljubljana","name:etymology:wikidata":"Q437","opening_hours":"Mo,We,Fr 09:00-22:30; Tu,Th 06:30-22:30; Sa,Su,PH 08:00-21:30","phone":"+386 68 61 32 10","sport":"climbing","website":"https://www.plezalnicenter.si/"}},"392678699":{"location":[46.0456647,14.4985277],"ts":"2023-03-14T19:43:35Z","tz":1,"tags":{"area":"yes","barrier":"city_wall","climbing":"boulder","fee":"no","historic":"citywalls","material":"brick","name":"Rimski zid","name:en":"Roman Wall","sport":"climbing","two_sided":"yes"}},"974832712":{"location":[46.0452303,14.5004287],"ts":"2022-01-19T16:30:50Z","tz":1,"tags":{"area":"yes","barrier":"city_wall","climbing":"boulder","fee":"no","historic":"citywalls","material":"brick","name":"Rimski zid","name:en":"Roman Wall","sport":"climbing","two_sided":"yes"}},"1179699423":{"location":[46.0445894,14.4541788],"ts":"2025-01-09T17:29:17Z","tz":1,"tags":{"building":"yes","leisure":"sports_centre","sport":"climbing"}},"1235939716":{"location":[46.0731403,14.497581],"ts":"2023-12-31T22:10:44Z","tz":1,"tags":{"addr:city":"Ljubljana","addr:housenumber":"1","addr:postcode":"1000","addr:street":"Magistrova ulica","building:part":"sports_centre","charge":"14.50","climbing:boulder":"yes","climbing:deepwater":"no","climbing:ice":"no","climbing:mixed":"no","climbing:multipitch":"no","climbing:sport":"no","climbing:toprope":"no","climbing:trad":"no","email":"info@bolderscena.si","fee":"yes","indoor":"yes","leisure":"sports_centre","name":"Bolder Scena","opening_hours":"Mo-Su 09:00-22:30","operator":"BS Group d.o.o.","outdoor":"no","phone":"+386 40 530 248","sport":"climbing","website":"https://bolderscena.si/"}},"9977197874":{"location":[46.0390104,14.486707],"ts":"2022-08-25T14:12:38Z","tz":1,"tags":{"leisure":"sports_centre","sport":"climbing"}},"10018043097":{"location":[46.0213343,14.5361339],"ts":"2022-09-12T12:10:21Z","tz":1,"tags":{"leisure":"sports_centre","sport":"climbing"}},"10025780416":{"location":[46.0688296,14.5186923],"ts":"2022-09-14T21:15:24Z","tz":1,"tags":{"access":"customers","addr:city":"Ljubljana","addr:housenumber":"58","addr:postcode":"1000","addr:street":"Vojkova cesta","climbing:boulder":"yes","climbing:sport":"no","climbing:toprope":"no","email":"info@balvanija.si","fee":"yes","indoor":"yes","leisure":"sports_centre","name":"Balvanija","opening_hours":"Mo-Fr 15:00-22:30; Sa-Su 15:00-22:00","phone":"+38616208848","sport":"climbing","website":"https://balvanija.si/"}}}