{"18669606":{"location":[47.8111479,13.3571453],"ts":"2025-02-08T16:57:50Z","tz":1,"tags":{"climbing":"crag","name":"Drachenwand","site":"climbing","sport":"climbing","type":"site"}},"59098902":{"location":[47.8105863,13.3580001],"ts":"2025-02-08T16:56:34Z","tz":1,"tags":{"climbing":"route","description":"Achtung: Alpine Erfahrung, Trittsicherheit und Schwindelfreiheit sind auf diesem Weg unbedingt erforderlich. Einige Teilstücke müssen über Leitern erklommen werden und sind mit Seilen versichert.","highway":"path","incline":"up","name":"Hirschsteig","sac_scale":"alpine_hiking","sport":"climbing","trail_visibility":"excellent","website":"https://mondsee.salzkammergut.at/oesterreich-tour/detail/100079/ueber-den-hirschsteig-auf-die-drachenwand-alpiner-steig.html"}},"102689988":{"location":[47.8048177,13.0359288],"ts":"2021-08-01T15:49:50Z","tz":1,"tags":{"access":"yes","climbing":"area","climbing:boulder":"yes","climbing:grade:french:max":"5c","climbing:grade:french:min":"3","climbing:length":"10","climbing:sport":"yes","climbing:toprope":"no","climbing:traditional":"no","leisure":"playground","name":"Klettergarten Müllner Schanze","sport":"climbing","url":"https://www.salzburg.info/de/reiseinfos/salzburg-a-z/kletterparcours-muellner-schanze_az_10252","wheelchair":"limited"}},"422150666":{"location":[47.9574102,13.0644464],"ts":"2019-03-29T09:01:31Z","tz":1,"tags":{"leisure":"pitch","name":"Hochseilpark Seeham","phone":"+43 6217 29029","sport":"climbing","tourism":"attraction","website":"https://parks.hochseilpark.at/hochseilpark-seeham/home/"}},"462735590":{"location":[47.7921977,13.0635653],"ts":"2009-08-12T21:09:26Z","tz":1,"tags":{"sport":"climbing"}},"792241612":{"location":[47.8028108,13.1054677],"ts":"2021-08-01T16:03:05Z","tz":1,"tags":{"access":"yes","natural":"cliff","sport":"climbing"}},"928267187":{"location":[47.7772412,13.3574992],"ts":"2020-04-29T08:10:16Z","tz":1,"tags":{"climbing":"crag","climbing:rock":"limestone","leisure":"pitch","name":"Klettergarten Plombergstein - Sektor Südwand","sport":"climbing"}},"928267191":{"location":[47.7776447,13.3566033],"ts":"2018-11-03T15:58:28Z","tz":1,"tags":{"climbing":"crag","climbing:rock":"limestone","name":"Klettergarten Plombergstein - Sektor AV Garten","natural":"cliff","sport":"climbing"}},"1328151346":{"location":[47.7970754,13.0604337],"ts":"2024-10-25T13:27:56Z","tz":1,"tags":{"climbing:boulder":"yes","leisure":"sports_centre","sport":"climbing"}},"4511192976":{"location":[47.8109426,13.0609246],"ts":"2023-03-30T08:11:23Z","tz":1,"tags":{"access":"customers","addr:city":"Salzburg","addr:housenumber":"9","addr:postcode":"5020","addr:street":"Richard-Kürth-Straße","brand":"Boulderbar","climbing:boulder":"yes","climbing:speed":"no","climbing:sport":"no","climbing:toprope":"no","climbing:traditional":"no","email":"office@boulderbar-sbg.at","leisure":"sports_centre","name":"boulderbar Salzburg","opening_hours":"Mo-Su 09:00-22:00","sport":"climbing","website":"https://boulderbar.net/salzburg"}},"4910616000":{"location":[47.8098935,13.3099236],"ts":"2020-12-28T10:55:34Z","tz":1,"tags":{"climbing":"route_bottom","leisure":"pitch","sport":"climbing"}},"5170644986":{"location":[47.7801284,13.3586993],"ts":"2020-09-11T22:41:11Z","tz":1,"tags":{"climbing":"route_bottom","climbing:grade:uiaa:max":"4","climbing:grade:uiaa:mean":"3","climbing:pitches":"6","leisure":"pitch","name":"Irma La Douce","sport":"climbing"}},"5960350439":{"location":[47.825783,13.0331913],"ts":"2021-08-01T15:41:11Z","tz":1,"tags":{"access":"customers","addr:city":"Salzburg","addr:country":"AT","addr:housenumber":"23","addr:postcode":"5020","addr:street":"Wasserfeldstraße","climbing:boulder":"yes","climbing:grade:french:max":"8a","climbing:grade:french:min":"3a","climbing:length":"16","climbing:speed":"no","climbing:sport":"yes","climbing:toprope":"yes","climbing:traditional":"no","email":"info@kletterhallesalzburg.at","entrance":"main","indoor":"yes","leisure":"sports_centre","name":"Kletterhalle Salzburg","opening_hours":"Mo-Fr 10:00-22:00; Sa-Su 10:00-21:00","outdoor":"yes","phone":"+43 699 11212001","sport":"climbing","website":"https://www.kletterhallesalzburg.at/"}},"6034278022":{"location":[47.7766766,13.3590947],"ts":"2020-09-11T22:41:11Z","tz":1,"tags":{"climbing":"route_bottom","climbing:grade:uiaa:max":"6+","climbing:grade:uiaa:mean":"5","climbing:pitches":"9","leisure":"pitch","name":"Filou","sport":"climbing"}},"6927810142":{"location":[47.9711428,13.1074834],"ts":"2020-04-20T12:25:58Z","tz":1,"tags":{"climbing:sport":"yes","leisure":"sports_centre","sport":"climbing"}},"8199837709":{"location":[47.7938948,13.0403732],"ts":"2020-12-06T20:37:05Z","tz":1,"tags":{"sport":"climbing"}},"9177330377":{"location":[47.780575,13.2255067],"ts":"2023-04-09T17:04:42Z","tz":1,"tags":{"climbing":"playground","leisure":"pitch","name":"Waldkletterweg Faistenau","sport":"climbing_adventure"}}}