{"156341622":{"location":[47.6909803,13.0862063],"ts":"2019-03-29T04:08:49Z","tz":1,"tags":{"addr:city":"Hallein","addr:country":"AT","addr:housenumber":"33","addr:postcode":"5400","addr:street":"Neualmerstraße","building":"yes","leisure":"sports_centre","name":"ÖAV Boulder Hallein","sport":"climbing","website":"https://www.boulderhallein.com/"}},"191577226":{"location":[47.7212617,13.0720303],"ts":"2023-05-19T15:27:36Z","tz":1,"tags":{"access":"customers","building":"yes","climbing:boulder":"yes","climbing:grade:french:max":"6c","climbing:grade:french:min":"3c","climbing:speed":"no","climbing:sport":"yes","climbing:toprope":"yes","climbing:traditional":"no","email":"ulsz-rif@sbg.ac.at","fee":"yes","height":"25","leisure":"sports_centre","name":"Kletterturm Rif","opening_hours":"Mo-Sa 07:00-22:30; So,PH 7:00-21:00","payment:coins":"yes","phone":"+43 6245 87035","sport":"climbing","website":"https://www.ulsz-rif.at/anlagen","wheelchair":"limited"}},"223286328":{"location":[47.5790915,13.1912057],"ts":"2019-03-29T04:11:04Z","tz":1,"tags":{"name":"Klettergarten Pass Lueg","name:en":"climbing crag Pass Lueg","natural":"cliff","sport":"climbing","website":"https://www.bergsteigen.com/klettergarten/salzburg/tennen-gebirge/pass-lueg","wheelchair":"no"}},"253597455":{"location":[47.7465847,13.05863],"ts":"2021-08-01T15:56:09Z","tz":1,"tags":{"access":"customers","addr:city":"Anif","addr:housenumber":"32","addr:postcode":"5081","addr:street":"Eisgrabenstraße","building":"yes","building:levels":"1","climbing:boulder":"yes","climbing:speed":"no","climbing:sport":"yes","climbing:traditional":"no","email":"info@jboc.at","leisure":"sports_centre","name":"Kletterhalle Südwand","opening_hours":"We-Su 10:00-22:00","phone":"+43 699 11741087","sport":"climbing","website":"http://www.suedwand-anif.at","wheelchair":"yes"}},"422248252":{"location":[47.5682801,13.1822012],"ts":"2020-03-27T13:04:49Z","tz":1,"tags":{"climbing:rock":"limestone","name":"Kleiner Pass Lueg Klettergarten","natural":"cliff","sport":"climbing"}},"641279875":{"location":[47.5841794,13.0395424],"ts":"2020-08-07T05:25:39Z","tz":1,"tags":{"climbing":"route","name":"Sommer, Sonne, Sonnenschein","sport":"climbing"}},"731741334":{"location":[47.6008692,13.0540595],"ts":"2019-10-04T18:03:44Z","tz":1,"tags":{"climbing":"route","name":"Alte Westwand","sport":"climbing"}},"731741335":{"location":[47.6006487,13.0540765],"ts":"2020-08-12T16:23:11Z","tz":1,"tags":{"climbing":"route","name":"Jubiläumsweg","sport":"climbing"}},"741933167":{"location":[47.5802535,13.0339295],"ts":"2019-11-08T10:40:31Z","tz":1,"tags":{"climbing":"route","name":"Hefe.Kante","sport":"climbing"}},"741933168":{"location":[47.5801247,13.0338832],"ts":"2019-11-04T15:02:55Z","tz":1,"tags":{"climbing":"route","name":"Die \"44\"","sport":"climbing"}},"741933169":{"location":[47.580132,13.0337895],"ts":"2019-11-04T15:02:55Z","tz":1,"tags":{"climbing":"route","name":"Almroas","sport":"climbing"}},"834874528":{"location":[47.5838473,13.0386228],"ts":"2020-08-07T05:25:39Z","tz":1,"tags":{"climbing":"route","name":"Brettschmankerl","sport":"climbing"}},"854830234":{"location":[47.5922928,13.0630456],"ts":"2020-10-04T07:15:41Z","tz":1,"tags":{"climbing":"route","name":"Herbstvergnügen (V+)","sport":"climbing"}},"1375045027":{"location":[47.7327245,13.0809431],"ts":"2019-03-29T04:13:35Z","tz":1,"tags":{"name":"Kletterpark Salzburg","sport":"climbing","website":"https://www.kletterpark-salzburg.at/"}},"2315712582":{"location":[47.6342738,13.2596442],"ts":"2020-12-18T22:48:42Z","tz":1,"tags":{"climbing:sport":"yes","ele":"1527","name":"Gitschenwand","natural":"peak","outdoor":"yes","sport":"climbing","wikidata":"Q21877890"}},"3608997834":{"location":[47.6327079,13.2399848],"ts":"2015-06-21T14:38:41Z","tz":1,"tags":{"climbing:sport":"yes","ele":"1527","name":"Wilhelmswand","natural":"peak","outdoor":"yes","sport":"climbing"}},"3700075653":{"location":[47.5681751,13.1823445],"ts":"2020-03-27T13:04:49Z","tz":1,"tags":{"lit":"no","name":"Kleiner Pass Lueg","sport":"climbing","surface":"rock"}},"4447398384":{"location":[47.5776986,13.1217883],"ts":"2016-10-14T10:20:03Z","tz":1,"tags":{"leisure":"pitch","name":"Differential dy/dx","source":"survey","sport":"climbing"}},"5821343068":{"location":[47.5816363,13.0411181],"ts":"2024-12-22T14:07:04Z","tz":1,"tags":{"climbing":"crag","climbing:grade:uiaa:max":"7","climbing:grade:uiaa:min":"4","climbing:multipitch":"yes","name":"Jägerkreuz","sport":"climbing"}},"5821343069":{"location":[47.5835786,13.0380215],"ts":"2024-12-22T14:07:04Z","tz":1,"tags":{"climbing":"crag","climbing:grade:uiaa:max":"7","climbing:grade:uiaa:min":"4","climbing:multipitch":"yes","name":"Südwestwand-Linker Pfeiler","sport":"climbing"}},"6039707334":{"location":[47.5799602,13.0343651],"ts":"2024-12-22T14:07:04Z","tz":1,"tags":{"climbing":"crag","name":"Mitterkaser","sport":"climbing"}},"6039707335":{"location":[47.5825779,13.0390509],"ts":"2024-12-22T14:07:04Z","tz":1,"tags":{"climbing":"crag","name":"Südwestwand-Rechter Pfeiler","sport":"climbing"}},"6443943785":{"location":[47.6260701,13.139621],"ts":"2022-06-13T17:48:21Z","tz":1,"tags":{"addr:city":"Kuchl","addr:country":"AT","addr:housenumber":"126a","addr:postcode":"5431","addr:street":"Markt","at_bev:addr_date":"2019-04-01","club":"sport","name":"Alpenverein Kuchl","sport":"climbing","website":"https://www.alpenverein.at/kuchl/"}},"7447872506":{"location":[47.7408385,13.027465],"ts":"2020-04-26T04:11:09Z","tz":1,"tags":{"leisure":"pitch","sport":"climbing"}}}