{"551348417":{"location":[47.4897295,18.9420589],"ts":"2024-09-04T01:33:44Z","tz":1,"tags":{"alt_name":"Végvári szikla","climbing:toprope":"yes","description":"Felső triász kori üledékes szarukő (tűzkő). Homogén, viaszos-zsírfényű, kagylós-szilánkops törésű. Neve törökkori végvári harcok emléke: Petneházy és gróf Lodron Girolamo alezredes hősi csatája.","fee":"no","height":"6","name":"Szent Mihály-szikla (Végvári-szikla)","natural":"rock","opening_hours":"24/7","ref":"Litotéka ltsz.: L 86/018","sport":"climbing","tourism":"attraction","url":"http://www.ace.hu/litot/talytab1.html#look167","url:geocaching":"https://geocaching.hu/caches.geo?id=959","website":"https://hegyisportclub.blogspot.com/p/fejlesztesek.html","wheelchair":"no"}},"9358624548":{"location":[47.4555996,18.9648592],"ts":"2021-12-22T16:10:14Z","tz":1,"tags":{"climbing:boulder":"yes","contact:website":"https://spiritboulder.hu/","leisure":"sports_centre","name":"Spirit Boulder","sport":"climbing"}},"9644522651":{"location":[47.4078331,18.9370049],"ts":"2022-04-06T00:55:49Z","tz":1,"tags":{"building":"no","leisure":"sports_centre","sport":"climbing"}},"9977287791":{"location":[47.5017583,18.7513293],"ts":"2022-08-25T14:54:45Z","tz":1,"tags":{"contact:facebook":"https://www.facebook.com/pokhalofalmaszas/","contact:website":"https://falramaszok.hu/","leisure":"sports_centre","name":"Falramászók","sport":"climbing"}},"11245791189":{"location":[47.4656509,18.8953799],"ts":"2023-10-14T05:02:00Z","tz":1,"tags":{"addr:city":"Budaörs","addr:housenumber":"2","addr:postcode":"2040","addr:street":"Gyár utca","check_date":"2023-10-07","leisure":"sports_centre","name":"Spider Club","opening_hours":"Mo-Fr 10:00-21:30","payment:mastercard":"yes","payment:visa":"yes","sport":"climbing","website":"https://www.spiderclub.hu/budaors/","wheelchair":"no"}},"11360785799":{"location":[47.3789852,18.9283839],"ts":"2023-11-18T21:32:57Z","tz":1,"tags":{"climbing:boulder":"yes","climbing:multipitch":"yes","leisure":"sports_centre","name":"Spirit boulder","sport":"climbing"}}}