{"1256637676":{"location":[42.6243927,23.3622438],"ts":"2024-03-01T17:34:20Z","tz":2,"tags":{"building":"yes","leisure":"sports_centre","name":"Balkan Climbing","opening_hours":"Mo-Fr 07:30-23:00; Sa 09:00-22:00; Su 09:00-22:00","phone":"+359 88 563 3299","sport":"climbing","website":"https://balkanclimbing.com"}},"4464944083":{"location":[42.6576391,23.3134941],"ts":"2023-05-14T06:08:04Z","tz":2,"tags":{"leisure":"sports_centre","level":"3","name":"Funtopia","phone":"+359 700 20867","sport":"climbing","website":"https://funtopiaworld.com/sofia/"}},"6456475885":{"location":[42.6652643,23.3746548],"ts":"2023-05-14T06:08:04Z","tz":2,"tags":{"addr:city":"София","addr:housenumber":"111В","addr:street":"бул. Цариградско шосе","leisure":"sports_centre","name":"Walltopia climbing center","phone":"+359 88 803 8835","sport":"climbing","website":"https://walltopiaclimbingcenter.eu/"}},"6669998286":{"location":[42.677143,23.2884491],"ts":"2024-11-01T16:18:11Z","tz":2,"tags":{"check_date":"2024-11-01","contact:facebook":"alpibg","email":"alpi2002@abv.bg","int_name":"Alpi","level":"0;-1","name":"Alpi","opening_hours":"Mo-Fr 10:00-19:30; Sa 10:00-18:00","phone":"+35928581969","shop":"sports","sport":"climbing","website":"https://www.alpibg.com/"}},"9658717080":{"location":[42.6721972,23.3956084],"ts":"2022-04-11T15:13:03Z","tz":2,"tags":{"addr:housenumber":"7","addr:street":"бул. Искърско шосе","indoor":"yes","leisure":"sports_centre","name":"Център за катерене Европа","name:en":"Climbing Center Europe","sport":"climbing","website":"https://climbing.sportcentereurope.bg"}},"9658822708":{"location":[42.6460341,23.3484524],"ts":"2023-11-04T05:19:06Z","tz":2,"tags":{"indoor":"yes","leisure":"sports_centre","name":"Клуб по катерене и алпинизъм НСА","name:en":"Climbing gym NSA","sport":"climbing","website":"https://climbnsa.com/"}},"9758133641":{"location":[42.6940084,23.3359619],"ts":"2023-08-18T10:21:25Z","tz":2,"tags":{"charge":"10","fee":"yes","leisure":"sports_centre","level":"5","name":"Стената СУ","name:en":"Stenata SU","name:fr":"Stenata SU","opening_hours":"Mo-Fr 07:30-21:00","sport":"climbing","website":"https://m.facebook.com/stenatasu/"}},"10934183145":{"location":[42.6457409,23.3766165],"ts":"2023-05-28T15:36:03Z","tz":2,"tags":{"addr:city":"София","addr:housenumber":"51","addr:postcode":"1715","addr:street":"бул. Александър Малинов","email":"info@stenata.com","name":"Стената","name:en":"Stenata","opening_hours":"Mo-Fr 11:00-19:00","payment:cash":"yes","phone":"+359 882 595 041","shop":"sports","sport":"climbing","website":"https://stenata.com/"}}}