{"253531343":{"location":[52.2141979,7.0261716],"ts":"2019-03-28T13:56:00Z","tz":1,"tags":{"building":"yes","climbing:sport":"yes","fee":"no","indoor":"no","name":"Kletterturm","outdoor":"yes","sport":"climbing","website":"https://www.gronau.de/index.phtml?La=1&sNavID=1486.201&object=tx%7C1486.1052.1&sub=0"}},"269551208":{"location":[52.2241734,6.8725213],"ts":"2023-10-02T12:21:15Z","tz":1,"tags":{"addr:city":"Enschede","addr:housenumber":"65","addr:postcode":"7521BE","addr:street":"Goolkatenweg","building":"industrial","climbing:boulder":"yes","email":"Info@boulderstationenschede.nl","leisure":"sports_centre","name":"Boulderstation","opening_hours":"Mo-Fr 12:00-23:00, Sa-Su 9:00-21:00","phone":"+31 6 53446111","ref:bag":"153100000283980","source":"BAG","source:date":"2014-03-24","sport":"climbing","start_date":"1922","website":"https://www.boulderstationenschede.nl/"}},"270872014":{"location":[52.2072733,6.9000242],"ts":"2019-11-17T11:51:39Z","tz":1,"tags":{"addr:city":"Enschede","addr:housenumber":"20","addr:postcode":"7541BR","addr:street":"J.J. van Deinselaan","building":"yes","climbing:boulder":"yes","climbing:length:max":"18","climbing:sport":"yes","climbing:toprope":"yes","fee":"yes","indoor":"yes","leisure":"sports_centre","name":"Arque Klimcentrum","opening_hours":"Mo 19:00-23:00, Tu 19:00-23:00, We 14:00-23:00, Th 19:00-23:00, Fr 16:00-23:00, Sa 11:00-18:00, Su 11:00-18:00","ref:bag":"0153100000222131","source":"BAG","source:date":"2019-11-17","sport":"climbing","start_date":"2001","website":"http://www.arque.nl/"}},"285895283":{"location":[52.2141058,7.0289037],"ts":"2015-11-08T21:11:27Z","tz":1,"tags":{"leisure":"sports_centre","name":"Kletternetz","sport":"climbing"}},"286240877":{"location":[52.2434701,6.8510176],"ts":"2024-11-14T13:51:03Z","tz":1,"tags":{"access":"private","climbing:bolted":"yes","climbing:boulder":"no","climbing:length:max":"29","climbing:length:min":"7","climbing:multipitch":"yes","climbing:sport":"yes","name":"Buitenklimwand Universiteit Twente","outdoor":"yes","panoramax":"4650cb7b-083d-4f56-8557-209ae927a8f8","panoramax:0":"ac1ca727-f198-49a2-875e-fc94689f62eb","sport":"climbing","url":"http://tsac.alpenclub.nl","website":"https://www.utwente.nl/en/sport/accommodations/sport-locations/outdoor/"}},"286241210":{"location":[52.2440029,6.8502657],"ts":"2017-08-03T03:55:52Z","tz":1,"tags":{"climbing:bolted":"yes","climbing:boulder":"yes","climbing:length:max":"7","climbing:sport":"yes","description":"betonnenwand + noppenwand + boulderwand","fee":"yes","indoor":"yes","sport":"climbing","website":"https://www.utwente.nl/en/sport/accommodations/sport-locations/"}},"878344490":{"location":[52.0541643,7.0180928],"ts":"2020-11-27T17:12:26Z","tz":1,"tags":{"building":"no","comment":"Outdoor Niedrig- und Hoch-Seilgarten sowie Klettergarten","leisure":"sports_centre","operator":"Berufsorientierungszentrum Ahaus (BOZ)","sport":"climbing"}},"2758707716":{"location":[52.2232821,6.9039659],"ts":"2019-11-24T15:01:22Z","tz":1,"tags":{"addr:city":"Enschede","addr:housenumber":"49","addr:postcode":"7511ZA","addr:street":"Hoge Bothofstraat","climbing:boulder":"yes","email":"info@cubebouldergym.nl","fee":"yes","indoor":"yes","leisure":"sports_centre","name":"Cube Bouldergym","opening_hours":"Mo 18:00-23:00, Tu 18:00-23:00, We 14:00-23:00, Th 18:00-23:00, Fr 14:00-23:00, Sa 12:00-19:00, Su 12:00-19:00","phone":"+31 6 10968707","source":"BAG","source:date":"2014-03-24","sport":"climbing","website":"https://cubebouldergym.nl/"}},"3671292119":{"location":[52.2436721,6.8512389],"ts":"2024-11-14T13:51:03Z","tz":1,"tags":{"access":"yes","climbing:boulder":"yes","fee":"no","name":"Boulderwand","outdoor":"yes","panoramax":"a4c7cf72-dd2f-4728-aa1e-8c03bb3f7f3c","sport":"climbing","website":"https://www.utwente.nl/en/sport/accommodations/sport-locations/outdoor/"}}}