{"54229072":{"location":[51.4329309,6.8367072],"ts":"2025-03-29T12:33:07Z","tz":1,"tags":{"addr:city":"Mülheim an der Ruhr","addr:country":"DE","addr:housenumber":"51","addr:postcode":"45478","addr:street":"Ruhrorter Straße","building":"yes","contact:facebook":"https://www.facebook.com/neoliet/","email":"info@neoliet.de","leisure":"sports_centre","name":"Neoliet Kletterhalle","opening_hours":"Mo-Th 12:00-22:30; Fr 12:00-23:00; Sa 10:00-23:00; Su,PH 10:00-22:30; Dec 24,31 10:00-16:00; Jan 01 14:00+; Dec 25 off","operator":"Kletterzentrum Neoliet GmbH","phone":"+49 74026266","sport":"climbing","type":"artifical rock outside;cimbing hall inside","website":"https://www.neoliet.de/","website:stock":"https://www.neoliet.de/neoliet-muelheim/"}},"113277375":{"location":[51.4479522,6.9870085],"ts":"2023-03-15T12:10:09Z","tz":1,"tags":{"addr:city":"Essen","addr:country":"DE","addr:housenumber":"106a","addr:postcode":"45145","addr:street":"Münchener Straße","building":"yes","leisure":"sports_centre","name":"Boulderbar Neoliet Essen","opening_hours":"Mo-Th 12:00-22:00; Fr-Su 10:00-22:00","source":"personal visite;local knowledge","sport":"climbing","website":"https://www.neoliet.de/boulderbar-essen/"}},"125541065":{"location":[51.5162133,6.8211186],"ts":"2021-09-29T09:07:25Z","tz":1,"tags":{"addr:city":"Oberhausen","addr:housenumber":"14","addr:postcode":"46149","addr:street":"Erlenstraße","building":"yes","climbing:boulder":"yes","fee":"yes","leisure":"sports_centre","name":"Boulderbar Oberhausen","opening_hours":"Mo-We,Fr 12:00-22:00; Th,Sa,Su,PH 10:00-22:00","sport":"climbing","website":"https://www.neoliet.de/boulderbar-oberhausen/"}},"143176080":{"location":[51.4665033,7.0287742],"ts":"2020-01-07T15:26:08Z","tz":1,"tags":{"addr:housenumber":"29b","addr:street":"Graf-Beust-Allee","building":"retail","building:levels":"1","leisure":"sports_centre","name":"Kletterzentrum Neoliet","roof:levels":"0","sport":"climbing"}},"144160865":{"location":[51.431815,6.7431796],"ts":"2019-07-04T11:36:19Z","tz":1,"tags":{"addr:city":"Duisburg","addr:housenumber":"85","addr:postcode":"47059","addr:street":"Essenberger Straße","building":"yes","climbing:boulder":"yes","fee":"yes","indoor":"yes","leisure":"sports_centre","name":"Einstein Boulderhalle Duisburg","opening_hours":"Mo-Su 10:00-22:00","payment:coins":"yes","payment:girocard":"yes","payment:notes":"yes","sport":"climbing","website":"https://duisburg.einstein-boulder.com"}},"172325010":{"location":[51.5236503,7.0280025],"ts":"2012-07-20T19:37:57Z","tz":1,"tags":{"name":"Kletteranlage Nordsternpark","sport":"climbing","tourism":"attraction"}},"230951418":{"location":[51.412195,6.7458898],"ts":"2013-07-23T10:26:38Z","tz":1,"tags":{"leisure":"pitch","name":"Kletterwand","sport":"climbing"}},"292831828":{"location":[51.39948,6.7886524],"ts":"2008-09-01T11:17:06Z","tz":1,"tags":{"name":"tree2tree","sport":"climbing"}},"1633303085":{"location":[51.4829099,6.7811882],"ts":"2015-10-20T08:59:56Z","tz":1,"tags":{"fee":"yes","name":"Klettergarten DAV Duisburg","operator":"Deutscher Alpenverein Sektion Duisburg e.V.","sport":"climbing","tourism":"attraction","website":"http://www.landschaftspark.de/freizeit-sport/klettergarten"}},"2035644130":{"location":[51.4632594,6.9794975],"ts":"2023-12-01T07:33:03Z","tz":1,"tags":{"leisure":"outside","sport":"climbing"}},"2138796366":{"location":[51.482325,7.0193359],"ts":"2013-02-02T12:15:42Z","tz":1,"tags":{"fee":"yes","leisure":"climbing","name":"Kletterpütt","opening_hours":"Mo-Su 09:00-23:00","operator":"DAV-Essen","sport":"climbing"}},"5024512788":{"location":[51.4552924,6.9853767],"ts":"2024-08-12T12:32:57Z","tz":1,"tags":{"addr:city":"Essen","addr:housenumber":"73","addr:postcode":"45143","addr:street":"Haedenkampstraße","brand":"Element Boulders","leisure":"sports_centre","level":"1","name":"Element Boulders Essen","opening_hours":"Mo 15:00-23:00; Tu-Su 09:00-23:00","sport":"climbing","website":"https://essen.element-boulders.de"}},"11560111169":{"location":[51.4752839,7.008647],"ts":"2024-01-28T17:23:03Z","tz":1,"tags":{"climbing:multipitch":"yes","climbing:sport":"yes","climbing:trad":"yes","fixme":"Fußballerareal mit Kunstrasen neu Januar 2024 nich inne luftbilder","leisure":"sports_centre","outdoor":"yes","sport":"climbing"}},"12085740667":{"location":[51.4287419,6.976978],"ts":"2024-07-31T17:59:02Z","tz":1,"tags":{"check_date":"2024-07-31","climbing:quality":"solid","climbing:sport":"yes","leisure":"pitch","outdoor":"yes","sport":"climbing"}}}