{"27277361":{"lat":50.8129493,"lon":6.9921984,"ts":"2019-02-19T16:34:43Z","tz":1,"tags":{"addr:city":"Wesseling","addr:country":"DE","addr:housenumber":"5","addr:postcode":"50389","addr:street":"Vorgebirgsstraße","building":"yes","contact:email":"info@bronxrock.de","contact:phone":"+49 2236 89 05 70","contact:website":"https://www.bronxrock.de/","name":"BronxRock Kletterhalle","opening_hours":"Mo-Fr 09:00-24:00; Sa,Su 09:00-22:00","sport":"climbing"}},"151877983":{"lat":50.8382422,"lon":6.9033049,"ts":"2023-04-18T09:55:58Z","tz":1,"tags":{"addr:city":"Brühl","addr:housenumber":"60","addr:postcode":"50321","addr:street":"Kurfürstenstraße","building":"yes","contact:facebook":"https://www.facebook.com/KletterturmBruehl","contact:instagram":"https://www.instagram.com/turmx.de/","contact:whatsapp":"https://api.whatsapp.com/send?phone=491725850055&text=","contact:youtube":"https://www.youtube.com/channel/UCKsEGWx6oNyK7u_dmm0ioCw","email":"info@turmx.de","name":"TurmX- Der Kletterturm","opening_hours":"Sa,Su 10:00-18:00|| \"nach Vereinbarung\"","operator":"HS Kletterwelten GmbH","sport":"climbing","tourism":"attraction","website":"https://turmx.de"}},"155290884":{"lat":50.9470582,"lon":6.906946,"ts":"2022-09-25T12:43:02Z","tz":1,"tags":{"building":"yes","climbing:boulder":"yes","climbing:toprope":"yes","leisure":"sports_centre","name":"Kletterfabrik","note":"Gebäudeumriss nach eigenen Fotos grob geschätzt","opening_hours":"Mo-Fr 09:30-23:00; Sa-Su 10:00-21:00","ref":"K3","sport":"climbing","website":"https://www.kletterfabrik-koeln.de/","wheelchair":"yes"}},"690901522":{"lat":50.8333843,"lon":7.0140239,"ts":"2019-05-18T14:14:32Z","tz":1,"tags":{"leisure":"sports_centre","name":"Kletterwand","sport":"climbing"}},"1131433040":{"lat":50.9091415,"lon":6.8191283,"ts":"2023-01-21T17:31:12Z","tz":1,"tags":{"addr:housenumber":"18","addr:postcode":"50226","addr:street":"Ernst-Heinrich-Geist-Straße","climbing:boulder":"yes","climbing:toprope":"yes","contact:email":"info@chimpanzodrome.de","contact:phone":"+49 2234 273 410","contact:website":"https://www.chimpanzodrome.de/","leisure":"sports_centre","name":"Chimpanzodrome","opening_hours":"Mo-Su 10:00-23:00","sport":"climbing","wheelchair":"limited","wheelchair:description":"Eingangsbereich und Tresen erreichbar, weiter innen sind aber Treppen."}},"1892815472":{"lat":50.9155541,"lon":6.9638068,"ts":"2024-02-13T02:21:58Z","tz":1,"tags":{"addr:city":"Köln","addr:country":"DE","addr:housenumber":"11","addr:postcode":"50678","addr:street":"Kyllstraße","addr:suburb":"Südstadt","climbing:boulder":"yes","email":"info@k11-koeln.de","leisure":"sports_centre","name":"K11 Boulderhalle","operator":"düselder&podeiko Gbr","phone":"+49 221 789 690 72","sport":"climbing","website":"https://k11-koeln.de/"}},"3280381163":{"lat":50.9450349,"lon":6.9050147,"ts":"2024-12-27T18:21:07Z","tz":1,"tags":{"addr:housenumber":"143h","addr:street":"Oskar-Jäger-Straße","check_date":"2024-12-22","climbing:boulder":"yes","climbing:toprope":"no","contact:email":"info@sportall-gmbh.de","contact:facebook":"https://www.facebook.com/Boulderplanet/","contact:instagram":"https://www.instagram.com/boulderplanet_koeln","contact:phone":"+49 221 57165230","internet_access":"wlan","internet_access:fee":"customers","leisure":"sports_centre","level":"0","name":"Boulderplanet","opening_hours":"Mo-Sa 10:00-23:00; Su,PH 10:00-22:00; Dec 24 10:00-15:00; Dec 31 10:00-06:00, Jan 1 12:00-22:00","payment:american_express":"yes","payment:apple_pay":"yes","payment:cash":"no","payment:contactless":"yes","payment:diners_club":"yes","payment:discover_card":"yes","payment:girocard":"yes","payment:google_pay":"yes","payment:jcb":"yes","payment:maestro":"yes","payment:mastercard":"yes","payment:unionpay":"yes","payment:unionpay_debit":"yes","payment:v_pay":"yes","payment:visa":"yes","payment:visa_debit":"yes","smoking":"no","sport":"climbing","surveillance":"indoor","website":"https://boulderplanet.de/","wheelchair":"yes"}},"6445140764":{"lat":50.9410476,"lon":6.9687062,"ts":"2023-11-28T06:01:35Z","tz":1,"tags":{"climbing:bolted":"yes","climbing:boulder":"no","climbing:rock":"limestone","climbing:toprope":"only","climbing:trad":"no","fee":"no","leisure":"pitch","name":"Kletteranlage Hohenzollernbrücke","outdoor":"yes","sport":"climbing","website":"https://www.dav-koeln.de/cgi-bin/page.cgi?368","wikimedia_commons":"Category:Kletteranlage_Hohenzollernbrücke"}},"10212643075":{"lat":50.9447446,"lon":6.9051728,"ts":"2022-11-23T18:37:56Z","tz":1,"tags":{"leisure":"sports_centre","operator":"Boulderplanet","sport":"climbing"}},"12043151815":{"lat":50.9366391,"lon":6.9530556,"ts":"2024-08-09T21:08:58Z","tz":1,"tags":{"addr:city":"Köln","addr:housenumber":"70","addr:postcode":"50667","addr:street":"Schildergasse","charge":"14 EUR","climbing:boulder":"yes","contact:email":"info.city@koeln.element-boulders.de","contact:instagram":"element.koeln.city","contact:phone":"+49 221 95583880","contact:tiktok":"element.boulders","contact:website":"https://koeln.element-boulders.de/","contact:youtube":"elementboulders","fee":"yes","leisure":"sports_centre","level":"3;4;5;6","name":"Element Boulders","opening_hours":"Mo-Su 09:00-23:00","opening_hours:url":"https://koeln.element-boulders.de/preise-oeffnungszeiten-2.html","operator":"Element Boulders Köln GmbH","operator:type":"private","payment:cards":"yes","payment:cash":"yes","payment:girocard":"yes","sport":"climbing","wheelchair":"limited"}}}