{"98872570":{"lat":49.3131913,"lon":6.7863639,"ts":"2024-06-25T11:23:41Z","tz":1,"tags":{"brand:wikidata":"Q513666","building":"yes","climbing:boulder":"yes","climbing:toprope":"yes","contact:website":"https://www.bergfreunde-saar.de/index.php?id=120","name":"DAV Kletterhalle Ensdorf","operator":"Deutscher Alpenverein Sektion Bergfreunde Saar","sport":"climbing"}},"116595831":{"lat":49.273274,"lon":7.0215454,"ts":"2023-09-14T19:26:45Z","tz":1,"tags":{"addr:city":"Saarbrücken","addr:country":"DE","addr:housenumber":"1","addr:postcode":"66125","addr:street":"Herrensohrer Wiesen","building":"yes","check_date":"2023-09-14","climbing:boulder":"yes","climbing:toprope":"yes","contact:facebook":"https://facebook.com/KBA-Kletter-und-BoulderArena-486501078048591/","contact:instagram":"https://www.instagram.com/kba_boulderhalle/","email":"info@kba-saar.de","fee":"yes","internet_access":"no","leisure":"sports_centre","level":"0","name":"Kletter- und BoulderArena","opening_hours":"Mo-Sa 10:00-22:00; So 10:00-20:00","operator":"KBA Kletter- und BoulderArena GmbH","payment:mastercard":"yes","payment:visa":"yes","phone":"+49 6897 9522246","short_name":"KBA","sport":"climbing","start_date":"2011-10-22","website":"https://www.kba-saar.de/","wheelchair":"limited"}},"642011313":{"lat":49.3215642,"lon":6.7404578,"ts":"2023-10-01T21:11:33Z","tz":1,"tags":{"addr:city":"Saarlouis","addr:country":"DE","addr:housenumber":"10","addr:postcode":"66740","addr:street":"St.Nazairer Allee","alt_name":"Rocklands-Climbing","building":"yes","building:levels":"2","climbing:boulder":"yes","climbing:toprope":"yes","fee":"yes","height":"18","leisure":"sports_centre","name":"Rocklands Saarlouis","sport":"climbing","website":"http://www.rocklands-sls.de","wheelchair":"limited"}},"661041384":{"lat":49.231282,"lon":7.0019761,"ts":"2023-02-03T12:24:07Z","tz":1,"tags":{"addr:city":"Saarbrücken","addr:housenumber":"30","addr:postcode":"66111","addr:street":"Mainzer Straße","climbing:boulder":"yes","climbing:toprope":"yes","contact:phone":"+49 681 9102232","contact:website":"http://www.kletterzentrum-saarbruecken.de/","fee":"yes","leisure":"sports_centre","name":"Kletterzentrum Saarbrücken","opening_hours":"Mo-Fr 12:00-22:00; PH,Sa 10:00-22:00; Su 10:00-21:00; \"Sondervereinbarungen für Gruppen\"","operator":"Kletterzentrum Saarbrücken GmbH","sport":"climbing","surveillance":"indoor","surveillance:type":"camera","wheelchair":"no"}},"1331707706":{"lat":49.2616508,"lon":6.8094782,"ts":"2024-11-07T21:30:11Z","tz":1,"tags":{"addr:city":"Wadgassen","addr:country":"DE","addr:housenumber":"57","addr:postcode":"66787","addr:street":"Provinzialstraße","building":"yes","climbing:boulder":"yes","climbing:sport":"no","climbing:toprope":"no","contact:facebook":"dadaboulderswadgassen","contact:instagram":"dada_boulders","email":"info@dadaboulders.de","leisure":"sports_centre","name":"Dada Boulders","opening_hours":"Mo-Fr 10:00-21:00; Sa,Su,PH 10:00-20:00","operator":"Gorilla Gateway GmbH","payment:cash":"yes","payment:credit_cards":"yes","payment:debit_cards":"yes","phone":"+49 6834 9091333","sport":"climbing","website":"https://dadaboulders.de"}},"9978601206":{"lat":49.2263391,"lon":6.9754578,"ts":"2024-06-28T01:21:02Z","tz":1,"tags":{"access":"private","description":"künstliche Kletterwand an der Außenseite des Gebäudes","leisure":"pitch","name":"Kletterwand der Gemeinschaftsschule Saarbrücken-Bellevue","note":"Kletterwand = eine Art vertikaler \"pitch\" (ansonsten Validator-Fehler JOSM, Osmose ...)","sport":"climbing"}},"10694355774":{"lat":49.2072172,"lon":7.0231336,"ts":"2023-09-17T15:08:06Z","tz":1,"tags":{"addr:city":"Saarbrücken","addr:housenumber":"28","addr:postcode":"66130","addr:street":"Neumühler Weg","climbing:boulder":"yes","contact:email":"service@boulderwerk.com","contact:instagram":"boulderwerk.saarbruecken","contact:phone":"+49 681 30983420","fee":"yes","leisure":"sports_centre","name":"Boulderwerk","opening_hours":"Mo,Tu 10:00-22:00; We-Fr 13:00-22:00; Su 10:00-22:00; Sa 11:00-22:00","payment:american_express":"yes","payment:apple_pay":"yes","payment:cash":"yes","payment:contactless":"yes","payment:google_pay":"yes","payment:maestro":"yes","payment:mastercard":"yes","payment:v_pay":"yes","payment:visa":"yes","sport":"climbing","start_date":"2023-02-27","website":"https://www.boulderwerk.com/"}},"11073441606":{"lat":49.2308528,"lon":6.9782103,"ts":"2024-09-17T01:26:03Z","tz":1,"tags":{"access":"private","description":"Kletterwand","leisure":"pitch","sport":"climbing"}}}