{"151191515":{"location":[46.4921186,7.6906096],"ts":"2012-05-29T19:59:33Z","tz":1,"tags":{"name":"Oeschiwald","natural":"cliff","sport":"climbing"}},"242750521":{"location":[46.4521783,7.4485341],"ts":"2019-09-09T08:25:32Z","tz":1,"tags":{"addr:city":"Lenk im Simmental","addr:country":"CH","addr:housenumber":"3g","addr:postcode":"3775","addr:street":"Simmendamm","building":"barn","contact:email":"info@boulderschuer.ch","contact:website":"http://boulderschuer.ch","fee":"yes","leisure":"sports_centre","name":"BoulderSchüür Lenk","sport":"climbing"}},"428965200":{"location":[46.4827385,7.6399029],"ts":"2018-08-02T09:54:02Z","tz":1,"tags":{"name":"Klettergebiet Ueschenen","natural":"cliff","sport":"climbing"}},"567338483":{"location":[46.3478716,7.4445922],"ts":"2021-04-08T14:46:35Z","tz":1,"tags":{"leisure":"sports_centre","name":"Cry Baby","sport":"climbing"}},"567338485":{"location":[46.3489914,7.441631],"ts":"2021-04-06T16:22:29Z","tz":1,"tags":{"leisure":"sports_centre","sport":"climbing"}},"613364058":{"location":[46.4779944,7.6333643],"ts":"2018-08-02T10:00:17Z","tz":1,"tags":{"name":"Klettergebiet Ueschenen","natural":"cliff","sport":"climbing"}},"1640163352":{"location":[46.4921789,7.6905011],"ts":"2015-04-07T13:41:32Z","tz":1,"tags":{"name":"Kletterfelsen Oeschiwald","sport":"climbing"}},"1640164406":{"location":[46.4908493,7.677369],"ts":"2015-04-07T13:41:32Z","tz":1,"tags":{"name":"Kletterfelsen Wildi","sport":"climbing"}},"5803745332":{"location":[46.4802926,7.635479],"ts":"2018-08-02T09:54:02Z","tz":1,"tags":{"name":"Klettergebiet Ueschenen","sport":"climbing"}},"8599760474":{"location":[46.3406927,7.4775431],"ts":"2024-08-03T07:04:42Z","tz":1,"tags":{"description":"56 routes -6a to 8a up to 40m long","leisure":"sports_centre","name":"Panoramix","sport":"climbing","url":"https://www.thecrag.com/en/climbing/switzerland/alpen/wallis/area/3301853940"}},"8599760475":{"location":[46.3389226,7.4870379],"ts":"2021-04-08T14:46:35Z","tz":1,"tags":{"leisure":"sports_centre","name":"Les Violettes","sport":"climbing"}},"8599760476":{"location":[46.3418222,7.4612015],"ts":"2021-04-08T14:46:35Z","tz":1,"tags":{"leisure":"sports_centre","name":"Mondralèche","sport":"climbing"}},"8599760477":{"location":[46.3444715,7.4358326],"ts":"2021-04-06T16:22:29Z","tz":1,"tags":{"leisure":"sports_centre","sport":"climbing"}},"8599760478":{"location":[46.3601691,7.4194952],"ts":"2021-04-08T14:46:35Z","tz":1,"tags":{"leisure":"sports_centre","name":"Armeillon","sport":"climbing"}},"8607090761":{"location":[46.3419945,7.4978842],"ts":"2021-04-08T14:46:35Z","tz":1,"tags":{"leisure":"sports_centre","sport":"climbing"}},"8807297643":{"location":[46.3226122,7.5128581],"ts":"2021-06-05T16:57:18Z","tz":1,"tags":{"leisure":"sports_centre","source":"https://i.imgur.com/GmjxNqf.png","sport":"climbing"}},"9850467994":{"location":[46.5075707,7.6977838],"ts":"2022-06-27T12:41:28Z","tz":1,"tags":{"name:de":"Bire Südost-Flanke","name:en":"Bire SE-Flank","name:fr":"Bire Versant SE","sport":"climbing"}},"11162891929":{"location":[46.5556898,7.4758231],"ts":"2023-09-07T15:22:16Z","tz":1,"tags":{"climbing:boulder":"yes","name":"Grimmimutz Kletterwand","playground":"climbingframe","sport":"climbing"}},"12101055138":{"location":[46.3421595,7.439177],"ts":"2024-08-09T16:22:55Z","tz":1,"tags":{"climbing":"crag","climbing:sport":"yes","name":"M12","sport":"climbing"}},"13040066385":{"location":[46.343271,7.437927],"ts":"2025-07-31T20:52:09Z","tz":1,"tags":{"leisure":"sports_centre","name":"Colonne","sport":"climbing"}},"13040066386":{"location":[46.3437474,7.4379194],"ts":"2025-07-31T20:52:09Z","tz":1,"tags":{"leisure":"sports_centre","name":"Nuit grave/Pil's","sport":"climbing"}},"13040066394":{"location":[46.3461373,7.4477882],"ts":"2025-07-31T20:52:09Z","tz":1,"tags":{"leisure":"sports_centre","name":"Vatseret Bas","sport":"climbing"}}}