{"275335575":{"location":[36.4452235,23.130333],"ts":"2024-12-23T11:27:16Z","tz":2,"tags":{"climbing":"crag","climbing:sport":"yes","fee":"no","name":"Ζόμπολο","name:el":"Ζόμπολο","name:en":"Zobolo","natural":"cliff","outdoor":"yes","sport":"climbing","url":"https://climbgreece.com/zobolo/","website":"https://www.climbzobolo.gr/"}},"878182441":{"location":[36.45326,23.1525454],"ts":"2024-12-23T11:27:55Z","tz":2,"tags":{"climbing":"crag","climbing:orientation":"w","climbing:routes":"30","climbing:sport":"yes","fee":"no","name":"Χιόνι","name:el":"Χιόνι","name:en":"Hioni","natural":"cliff","outdoor":"yes","sport":"climbing","url":"https://climbgreece.com/zobolo/","website":"https://kavomalias-climbing.gr/sectors/chioni.php"}},"1061274976":{"location":[36.4557882,23.1589612],"ts":"2024-12-23T11:28:35Z","tz":2,"tags":{"climbing":"crag","climbing:bolted":"yes","climbing:grade:french:max":"8a","climbing:grade:french:min":"5b","climbing:length:max":"25","climbing:orientation":"n;w","climbing:sport":"41","fee":"no","name":"Λυκόγκρεμο","name:el":"Λυκόγκρεμο","name:en":"Lykogremo","natural":"cliff","outdoor":"yes","sport":"climbing","url":"https://climbgreece.com/lykogremo-kotroni-two-brand-new-sectors-in-zobolo/"}},"1153467049":{"location":[36.4455649,23.1311734],"ts":"2024-12-23T11:27:16Z","tz":2,"tags":{"climbing":"crag","climbing:sport":"yes","fee":"no","name":"Ζόμπολο East","name:el":"Ζόμπολο","name:en":"Zobolo East","natural":"cliff","outdoor":"yes","sport":"climbing","url":"https://climbgreece.com/zobolo/","website":"https://www.climbzobolo.gr/"}},"9750873865":{"location":[36.4594859,23.1512629],"ts":"2024-12-23T11:29:14Z","tz":2,"tags":{"climbing":"crag","climbing:grade:french:max":"8b","climbing:grade:french:min":"5b","climbing:length:max":"30","climbing:orientation":"e","climbing:routes":"40","climbing:sport":"yes","name":"Κοτρώνι","name:el":"Κοτρώνι","name:en":"Kotroni","sport":"climbing","url":"https://climbgreece.com/lykogremo-kotroni-two-brand-new-sectors-in-zobolo/"}}}