{"385076537":{"lat":41.3055031,"lon":1.7041813,"ts":"2019-01-29T14:49:20Z","tz":1,"tags":{"natural":"cliff","sport":"climbing"}},"409590900":{"lat":41.2860652,"lon":1.702247,"ts":"2016-04-11T18:40:09Z","tz":1,"tags":{"alt_name":"Penya del Escofet","height":"25","name":"La Facu","natural":"cliff","sport":"climbing"}},"545547544":{"lat":41.4417151,"lon":1.583211,"ts":"2022-11-26T04:21:01Z","tz":1,"tags":{"name":"Penyes de Salomó","name:ca":"Penyes de Salomó","natural":"cliff","sport":"climbing"}},"781593314":{"lat":41.2460973,"lon":1.6644006,"ts":"2022-11-26T03:20:53Z","tz":1,"tags":{"name":"Paret de la Talaia","name:ca":"Paret de la Talaia","natural":"cliff","sport":"climbing"}},"781593315":{"lat":41.2632409,"lon":1.6520466,"ts":"2020-03-15T17:49:00Z","tz":1,"tags":{"natural":"cliff","sport":"climbing"}},"781593316":{"lat":41.2606598,"lon":1.6480761,"ts":"2021-03-27T17:57:35Z","tz":1,"tags":{"natural":"cliff","sport":"climbing"}},"781593317":{"lat":41.265234,"lon":1.6472525,"ts":"2022-11-19T01:59:44Z","tz":1,"tags":{"name":"Can Figuera","name:ca":"Can Figuera","natural":"cliff","sport":"climbing"}},"781593318":{"lat":41.2726399,"lon":1.6475734,"ts":"2020-03-15T17:49:00Z","tz":1,"tags":{"natural":"cliff","sport":"climbing"}},"7142789194":{"lat":41.305396,"lon":1.7039922,"ts":"2020-03-10T12:55:22Z","tz":1,"tags":{"climbing":"crag","sport":"climbing"}},"10312159320":{"lat":41.2455297,"lon":1.7202996,"ts":"2024-04-10T17:02:24Z","tz":1,"tags":{"addr:housenumber":"27","addr:street":"Carrer de la Masia del Notari","contact:phone":"+34 937307536","leisure":"sports_centre","name":"Indoorwall Vilanova i la Geltrú","sport":"climbing"}}}