{"661312246":{"lat":38.9365506,"lon":-94.6697286,"ts":"2020-12-09T06:20:16Z","tz":-6,"tags":{"addr:city":"Overland Park","addr:housenumber":"7200","addr:postcode":"66212","addr:state":"KS","addr:street":"West 106th Street","building":"yes","fee":"yes","leisure":"sports_centre","name":"Apex Climbing Gym","sport":"climbing","website":"https://apexclimbinggym.com/"}},"11732766816":{"lat":38.9649669,"lon":-94.7178552,"ts":"2024-03-15T01:29:27Z","tz":-6,"tags":{"fee":"yes","leisure":"sports_centre","name":"Monster Mountain","operator":"Emerald City Gym","operator:type":"private_for_profit","sport":"climbing"}},"11981580743":{"lat":39.069789,"lon":-94.6014276,"ts":"2024-06-14T19:18:37Z","tz":-6,"tags":{"addr:city":"Kansas City","addr:housenumber":"3150","addr:postcode":"64111","addr:state":"MO","addr:street":"Mercier Street","addr:unit":"Suite 641A","leisure":"sports_centre","name":"RoKC Underground","sport":"climbing"}},"11987611856":{"lat":39.0791158,"lon":-94.8525244,"ts":"2024-06-17T13:55:19Z","tz":-6,"tags":{"leisure":"sports_centre","sport":"climbing"}}}