{"26763667":{"lat":52.5473549,"lon":13.3847697,"ts":"2024-04-03T00:01:13Z","tz":1,"tags":{"alt_name":"Bunkeranlage Humboldthain","building":"bunker","bunker_type":"gun_emplacement","historic":"yes","image":"http://commons.wikimedia.org/wiki/File:Berlin_Humboldthain_Aussichtspunkte_Bunker.jpg","military":"bunker","name":"Flakturm Humboldthain","name:de":"Flakturm Humboldthain","name:en":"Flak Towers at Humboldthain Park","name:es":"La torre antiaérea Humboldthain","ruins":"yes","sport":"climbing","start_date":"1942","wheelchair":"no","wikidata":"Q118220217","wikimedia_commons":"Category:Flakturm Volkspark Humboldthain","wikipedia":"de:Flakturm Humboldthain"}},"44449471":{"lat":52.5280887,"lon":13.4412641,"ts":"2020-11-24T17:21:06Z","tz":1,"tags":{"access":"yes","climbing:boulder":"yes","lit":"no","name":"Kletterfelsen im Friedrichshain","natural":"rock","sport":"climbing"}},"46181323":{"lat":52.5488385,"lon":13.3995743,"ts":"2024-05-09T10:38:05Z","tz":1,"tags":{"access":"customers","barrier":"fence","check_date:opening_hours":"2021-03-10","fence_type":"metal","height":"2","leisure":"sports_centre","name":"Kletteranlage Schwedter Nordwand","opening_hours":"Mo-Su,PH 00:00+","operator":"DAV - Alpinclub Berlin","operator:type":"private_non_profit","sport":"climbing","surface":"pebblestone","website":"https://www.alpinclub-berlin.de/","wheelchair":"yes"}},"46508937":{"lat":52.4913715,"lon":13.4881854,"ts":"2023-05-31T12:11:44Z","tz":1,"tags":{"addr:city":"Berlin","addr:country":"DE","addr:housenumber":"13","addr:postcode":"10317","addr:street":"Hauptstraße","addr:suburb":"Rummelsburg","building":"commercial","building:levels":"1","check_date:opening_hours":"2021-04-17","climbing:boulder":"yes","fee":"yes","indoor":"yes","internet_access":"wlan","internet_access:fee":"no","leisure":"sports_hall","name":"Ostbloc Boulderhalle","opening_hours":"Mo-Fr 10:00-23:00; Sa,Su 09:00-23:00; PH 10:00-23:00","phone":"+49 30 55499422","roof:levels":"0","roof:shape":"gabled","sport":"climbing","toilets:wheelchair":"no","website":"https://www.ostbloc.de/","wheelchair":"limited"}},"48438994":{"lat":52.5486594,"lon":13.3818524,"ts":"2020-11-25T00:12:02Z","tz":1,"tags":{"building":"sports_centre","climbing:boulder":"yes","climbing:length":"15","climbing:sport":"yes","climbing:toprope":"yes","fee":"yes","height":"15","indoor":"yes","sport":"climbing"}},"74207927":{"lat":52.5028058,"lon":13.5053225,"ts":"2021-05-22T10:37:25Z","tz":1,"tags":{"leisure":"pitch","lit":"yes","sport":"climbing","surface":"sand"}},"172422438":{"lat":52.5488353,"lon":13.3996188,"ts":"2024-05-09T10:38:05Z","tz":1,"tags":{"building":"tower","building:cladding":"concrete","building:colour":"#808000","climbing:bolted":"yes","climbing:outdoor":"yes","climbing:rock":"concrete","climbing:sport":"yes","height":"7","leisure":"sports_centre","name":"Kletterfelsen Schwedter Nordwand","operator":"DAV - Alpinclub Berlin","roof:shape":"flat","sport":"climbing","tower:type":"climbing"}},"172422439":{"lat":52.5488352,"lon":13.3995425,"ts":"2024-05-09T10:38:05Z","tz":1,"tags":{"building":"tower","building:cladding":"concrete","building:colour":"#808000","climbing:bolted":"yes","climbing:outdoor":"yes","climbing:rock":"concrete","climbing:sport":"yes","height":"15","leisure":"sports_centre","name":"Kletterfelsen Schwedter Nordwand","operator":"DAV - Alpinclub Berlin","roof:shape":"flat","sport":"climbing","tower:type":"climbing"}},"279479191":{"lat":52.5287522,"lon":13.3627744,"ts":"2014-12-15T00:45:55Z","tz":1,"tags":{"building":"yes","climbing:boulder":"yes","climbing:outdoor":"yes","sport":"climbing"}},"283624425":{"lat":52.4956626,"lon":13.3647105,"ts":"2021-10-19T15:40:48Z","tz":1,"tags":{"leisure":"pitch","lit":"no","sport":"climbing","surface":"pebblestone"}},"288222186":{"lat":52.5486062,"lon":13.3822835,"ts":"2023-11-10T03:12:57Z","tz":1,"tags":{"addr:city":"Berlin","addr:country":"DE","addr:housenumber":"20-26","addr:postcode":"13357","addr:street":"Böttgerstraße","addr:suburb":"Gesundbrunnen","contact:phone":"+49-30-887 15 79-0","fee":"yes","leisure":"sports_centre","name":"Magic Mountain","opening_hours":"Th 08:00-23:30; Mo-We,Fr 10:00-23:30; PH,Sa,Su 10:00-22:00","sport":"climbing","toilets:wheelchair":"yes","website":"https://www.magicmountain.de/","wheelchair":"yes"}},"288222187":{"lat":52.5485716,"lon":13.3825537,"ts":"2020-11-24T20:00:34Z","tz":1,"tags":{"building":"tower","climbing:boulder":"yes","climbing:length":"15","climbing:outdoor":"yes","climbing:sport":"yes","climbing:toprope":"yes","description":"commercial climbing gym, indoor and outdoor","height":"15","man_made":"tower","name":"Magic Mountain","sport":"climbing","tower:type":"climbing"}},"288222188":{"lat":52.5486025,"lon":13.3824786,"ts":"2014-12-15T00:45:54Z","tz":1,"tags":{"building":"tower","climbing:boulder":"yes","climbing:length":"15","climbing:outdoor":"yes","climbing:sport":"yes","climbing:toprope":"yes","height":"15","man_made":"tower","sport":"climbing","tower:type":"climbing"}},"288222189":{"lat":52.5486098,"lon":13.3824138,"ts":"2014-12-15T00:45:54Z","tz":1,"tags":{"building":"tower","climbing:boulder":"yes","climbing:length":"15","climbing:outdoor":"yes","climbing:sport":"yes","climbing:toprope":"yes","height":"15","man_made":"tower","sport":"climbing","tower:type":"climbing"}},"317216617":{"lat":52.507218,"lon":13.4544251,"ts":"2021-08-06T15:57:52Z","tz":1,"tags":{"addr:city":"Berlin","addr:country":"DE","addr:housenumber":"99","addr:postcode":"10245","addr:street":"Revaler Straße","climbing:bolted":"yes","climbing:boulder":"yes","climbing:sport":"72","fee":"yes","indoor":"yes","leisure":"sports_centre","name":"Der Kegel","opening_hours":"Mo-Fr 09:00-23:00; Sa,Su,PH 10:20-23:00","outdoor":"yes","sport":"climbing","website":"https://derkegel.de/"}},"317307685":{"lat":52.5639202,"lon":13.5816243,"ts":"2021-05-28T14:34:08Z","tz":1,"tags":{"leisure":"pitch","lit":"no","sport":"climbing"}},"317307687":{"lat":52.5639152,"lon":13.5816006,"ts":"2023-09-20T17:10:36Z","tz":1,"tags":{"access":"yes","alt_name":"Wuhletalwächter","building":"tower","climbing:bolted":"yes","climbing:outdoor":"yes","climbing:rock":"concrete","climbing:sport":"yes","climbing:toprope":"yes","height":"17.5","image":"https://commons.wikimedia.org/wiki/File:Kletterfelsen_Ahrensfelde_01.jpg","man_made":"tower","name":"Kletterfelsen Wuhletalwächter","note":"Kletterturm","operator":"DAV - AlpinClub Berlin","sport":"climbing","tower:type":"climbing","wikidata":"Q1677491","wikimedia_commons":"Category:Kletterturm Wuhletalwächter im Eichepark","wikipedia":"de:Wuhletalwächter"}},"317307688":{"lat":52.5670783,"lon":13.4908825,"ts":"2019-03-13T08:17:54Z","tz":1,"tags":{"access":"no","climbing:sport":"no","climbing:toprope":"no","man_made":"tower","name":"Monte Balkon","note":"lt. Webseite \"aus Sicherheitsgründen gesperrt\"","operator":"DAV - Alpinclub Berlin","sport":"climbing","tower:type":"climbing","website":"https://www.alpinclub-berlin.de/index.php/kletteranlagen/montebalkon"}},"317307689":{"lat":52.5639169,"lon":13.5816186,"ts":"2021-01-02T05:37:30Z","tz":1,"tags":{"access":"yes","area":"yes","barrier":"wall","climbing:boulder":"yes","climbing:outdoor":"yes","climbing:rock":"concrete","operator":"DAV - AlpinClub Berlin","sport":"climbing"}},"446921846":{"lat":52.5071282,"lon":13.4544578,"ts":"2020-07-24T12:53:56Z","tz":1,"tags":{"abandoned:military":"bunker","building":"yes","building:shape":"cylinder","description":"Spitzbunker auch Winkelturm als Werkluftschutzraum. Genutzt als Kletterturm.","height":"18.7","historic":"yes","name":"Spitzbunker","roof:height":"8","roof:shape":"pyramidal","sport":"climbing"}},"618370435":{"lat":52.5284021,"lon":13.3623781,"ts":"2018-08-20T23:41:17Z","tz":1,"tags":{"building":"shed","building:levels":"1","roof:shape":"flat","sport":"climbing"}},"680456099":{"lat":52.5638765,"lon":13.410308,"ts":"2024-10-01T20:31:10Z","tz":1,"tags":{"addr:city":"Berlin","addr:country":"DE","addr:housenumber":"62","addr:postcode":"13187","addr:street":"Mühlenstraße","addr:suburb":"Pankow","check_date":"2024-10-01","climbing:boulder":"yes","contact:email":"info@bertablock.de","fee":"yes","indoor":"yes","leisure":"sports_centre","name":"Berta Block","opening_hours":"Mo-Fr, PH 09:00-23:00; Sa, Su 10:00-22:00","payment:cash":"no","payment:credit_cards":"yes","payment:debit_cards":"yes","phone":"+49 30 91424730","sport":"climbing","website":"http://bertablock.de"}},"782344808":{"lat":52.5441033,"lon":13.3871135,"ts":"2023-10-25T21:54:02Z","tz":1,"tags":{"barrier":"wall","height":"6","material":"concrete","sport":"climbing"}},"822955322":{"lat":52.5028164,"lon":13.5053053,"ts":"2020-07-04T20:09:31Z","tz":1,"tags":{"climbing:boulder":"yes","natural":"rock","sport":"climbing"}},"822955323":{"lat":52.5028068,"lon":13.5053481,"ts":"2020-07-04T20:09:31Z","tz":1,"tags":{"climbing:boulder":"yes","natural":"rock","sport":"climbing"}},"822955324":{"lat":52.5028093,"lon":13.5053894,"ts":"2020-07-04T20:09:31Z","tz":1,"tags":{"climbing:boulder":"yes","natural":"rock","sport":"climbing"}},"822955325":{"lat":52.5028143,"lon":13.5054253,"ts":"2020-07-04T20:09:31Z","tz":1,"tags":{"climbing:boulder":"yes","natural":"rock","sport":"climbing"}},"876638470":{"lat":52.5356001,"lon":13.4292246,"ts":"2022-04-22T10:00:12Z","tz":1,"tags":{"access":"yes","area":"yes","climbing:boulder":"yes","description":"Boulderfelsen für Kinder","lit":"no","name":"Boulderfelsen Spielplatz Jablonskistraße","sport":"climbing","start_date":"2020"}},"1041747393":{"lat":52.4959593,"lon":13.439232,"ts":"2022-03-19T19:20:05Z","tz":1,"tags":{"access":"permissive","man_made":"tower","playground":"structure","sport":"climbing","tower:type":"climbing"}},"1072594934":{"lat":52.5540891,"lon":13.4250104,"ts":"2022-06-23T09:07:50Z","tz":1,"tags":{"barrier":"wall","climbing:outdoor":"yes","climbing:sport":"yes","sport":"climbing"}},"1094435690":{"lat":52.5294155,"lon":13.5023516,"ts":"2022-09-14T08:22:46Z","tz":1,"tags":{"leisure":"pitch","sport":"climbing"}},"1747426713":{"lat":52.5474129,"lon":13.384721,"ts":"2020-04-05T06:59:20Z","tz":1,"tags":{"access":"private","contact:website":"https://dav-berlin.de/klettern/kletteranlagen/bunkerwand-humboldthain/","leisure":"pitch","operator":"Deutscher Alpenverein Sektion Berlin e.V.","sport":"climbing","wheelchair":"no"}},"1768495247":{"lat":52.4959931,"lon":13.448546,"ts":"2014-09-18T23:29:25Z","tz":1,"tags":{"climbing:boulder":"yes","note":"mixture of playground climbing and bouldering","playground":"climbingwall","sport":"climbing"}},"2917748026":{"lat":52.5485758,"lon":13.3818333,"ts":"2024-08-18T20:20:38Z","tz":1,"tags":{"addr:city":"Berlin","addr:housenumber":"20","addr:postcode":"13357","addr:street":"Böttgerstraße","check_date":"2024-08-18","contact:facebook":"https://www.facebook.com/MagicMountainKletterhalle/","email":"info@magicmountain.de","fee":"yes","leisure":"sports_centre","name":"Magic Mountain","opening_hours":"Mo-We 10:00-23:30; Th-Fr 09:00-23:30; Sa-Su,PH 09:00-22:00","phone":"+49 30 88715790","sport":"climbing","website":"https://www.magicmountain.de/"}},"3966842994":{"lat":52.4951304,"lon":13.4286748,"ts":"2023-08-03T09:41:45Z","tz":1,"tags":{"addr:city":"Berlin","addr:housenumber":"38","addr:postcode":"10999","addr:street":"Ohlauer Straße","climbing:boulder":"yes","climbing:sport":"no","climbing:toprope":"no","contact:phone":"+49 30 51302181","contact:website":"http://boulderklubkreuzberg.de","indoor":"yes","leisure":"sports_centre","name":"Boulderklub Kreuzberg","opening_hours":"Mo-Fr 07:00-22:00; Sa-Su 09:00-22:00","sport":"climbing","wheelchair":"no"}},"7308381602":{"lat":52.5440975,"lon":13.3871273,"ts":"2020-09-11T22:41:11Z","tz":1,"tags":{"climbing:grade:uiaa:max":"8","climbing:grade:uiaa:min":"2","climbing:length":"6","climbing:orientation":"S","description":"Kletteranlage kleiner Bunker","leisure":"pitch","sport":"climbing"}},"12218592480":{"lat":52.5224964,"lon":13.4365739,"ts":"2024-11-06T14:36:57Z","tz":1,"tags":{"addr:city":"Berlin","addr:housenumber":"91B","addr:postcode":"10249","addr:street":"Friedenstraße","contact:facebook":"https://www.facebook.com/urbanapes.berlin.fhain/","email":"fhain@urbanapes.de","fee":"yes","leisure":"sports_centre","level":"-1","name":"urban apes fhain","opening_hours":"Mo-Su 09:00-22:30","operator":"urban apes Fhain Berlin GmbH","operator:type":"private","payment:cards":"yes","payment:cash":"no","ref:vatin":"DE 359784165","sport":"climbing","website":"https://www.urbanapes.de/fhain/"}},"12289677297":{"lat":52.5220712,"lon":13.4369789,"ts":"2024-10-26T07:55:12Z","tz":1,"tags":{"addr:housenumber":"91 b","addr:street":"Friedenstraße","contact:email":"fhain@urbanapes.de","name":"urban apes Fhain","opening_hours":"Mo-Su 09:00-22:00","operator":"urban apes Group","phone":"+49 30 69515784","sport":"climbing","website":"https://www.urbanapes.de/fhain/"}}}