{"18452539":{"lat":51.0238868,"lon":13.6940808,"ts":"2024-12-22T15:54:39Z","tz":1,"tags":{"climbing":"area","name":"Weisseritztal","sport":"climbing","type":"site"}},"18511408":{"lat":50.9944122,"lon":13.3610947,"ts":"2025-01-06T17:18:27Z","tz":1,"tags":{"climbing":"area","name":"Mulde- und Bobritzschtal","sport":"climbing","type":"site"}},"31127368":{"lat":51.0208071,"lon":13.6881775,"ts":"2024-12-22T15:53:34Z","tz":1,"tags":{"climbing":"crag","natural":"cliff","sport":"climbing"}},"90568309":{"lat":51.1350994,"lon":13.6071654,"ts":"2024-12-22T15:41:02Z","tz":1,"tags":{"climbing":"crag","climbing:grade:uiaa:max":"9-","climbing:grade:uiaa:min":"2","climbing:rock":"monzonit","climbing:sport":"23","ele":"198.5","name":"Hoher Stein","natural":"peak","sport":"climbing","website":"http://db-sandsteinklettern.gipfelbuch.de/weg.php?gipfelid=15157","wikidata":"Q1623938","wikipedia":"de:Hoher Stein (Coswig)"}},"212736833":{"lat":51.1303277,"lon":13.437841,"ts":"2020-11-16T12:27:43Z","tz":1,"tags":{"climbing":"no","name":"Pechsteinklippen","natural":"cliff"}},"220205486":{"lat":50.9784143,"lon":13.3845337,"ts":"2025-01-06T17:18:27Z","tz":1,"tags":{"climbing":"crag","name":"Biwakwand","natural":"cliff","sport":"climbing"}},"269843003":{"lat":51.0233982,"lon":13.6881078,"ts":"2022-03-01T13:01:21Z","tz":1,"tags":{"access":"permissive","description":"Klettergebiet unterhalb der Begerburg","leisure":"park","name":"Klettergarten „Plauenscher Grund“","sport":"climbing","website":"http://www.kv-fernblick.de/klettern/klettergaerten/plauenscher_grund.html"}},"346104555":{"lat":51.0207423,"lon":13.6884827,"ts":"2021-04-05T07:13:59Z","tz":1,"tags":{"sport":"climbing"}},"360008741":{"lat":51.1192993,"lon":13.6560949,"ts":"2025-04-05T09:09:05Z","tz":1,"tags":{"climbing:access":"no","name":"Kleiner Steinbruch","natural":"cliff","sport":"climbing"}},"473636534":{"lat":51.1357491,"lon":13.6068895,"ts":"2024-12-22T15:41:02Z","tz":1,"tags":{"climbing":"crag","climbing:sport":"9","name":"Kleiner Stein","natural":"peak","sport":"climbing"}},"880923551":{"lat":51.0269548,"lon":13.7017265,"ts":"2024-12-22T15:53:34Z","tz":1,"tags":{"climbing":"crag","name":"Sponge Bob","natural":"cliff","sport":"climbing"}},"880923552":{"lat":51.0265841,"lon":13.7016574,"ts":"2024-12-22T15:53:34Z","tz":1,"tags":{"climbing":"crag","name":"Parkwand","natural":"cliff","sport":"climbing"}},"880923553":{"lat":51.0263593,"lon":13.7016681,"ts":"2024-12-22T15:53:34Z","tz":1,"tags":{"climbing":"crag","name":"Boulderbox-Gedenkwand","natural":"cliff","sport":"climbing"}},"880923554":{"lat":51.0261821,"lon":13.7017432,"ts":"2024-12-22T15:53:34Z","tz":1,"tags":{"climbing":"crag","name":"Wachturm","natural":"cliff","sport":"climbing"}},"931762786":{"lat":51.1208726,"lon":13.6573081,"ts":"2023-11-06T13:56:44Z","tz":1,"tags":{"description":"Steinbruch","name":"Dorfgrundbruch","natural":"cliff","sport":"climbing"}},"3426763579":{"lat":51.0202964,"lon":13.6890615,"ts":"2020-11-22T22:11:14Z","tz":1,"tags":{"ele":"224","name":"Heidenschanze","natural":"peak","sport":"climbing"}},"4092127994":{"lat":51.0182021,"lon":13.6777315,"ts":"2020-08-22T08:53:38Z","tz":1,"tags":{"cliff":"granit_stone","image":"http://commons.wikimedia.org/wiki/File:2016_Collmberg_Kletter-Felsen_f%C3%BCr_behinderte_Personen.jpg","leisure":"cliff","name":"Prothesenwand","sport":"climbing","website":"http://db-sandsteinklettern.gipfelbuch.de/weg.php?gipfelid=18785","wheelchair":"limited"}},"4140861650":{"lat":51.0203458,"lon":13.6907942,"ts":"2020-11-22T22:08:20Z","tz":1,"tags":{"name":"Sandsteinriegel","sport":"climbing"}},"6406054025":{"lat":51.0209342,"lon":13.6863728,"ts":"2024-12-22T15:54:39Z","tz":1,"tags":{"climbing":"crag","climbing:summit_log":"yes","description":"Die Heidenschanze ist ein Klettergipfel mit Gipfelbuch. Geübte Kletterer können den Gipfel auch ohne Seil über den Westgrat I erreichen.","name":"Heidenschanze","natural":"rock","sport":"climbing"}},"8124408279":{"lat":51.1300356,"lon":13.4382231,"ts":"2020-11-16T12:27:43Z","tz":1,"tags":{"climbing":"no","historic:sport":"climbing"}},"8592242756":{"lat":51.05788,"lon":13.6881532,"ts":"2021-04-04T11:43:03Z","tz":1,"tags":{"description":"Boulderwand","playground":"boulder","sport":"climbing"}},"8894305796":{"lat":51.0467191,"lon":13.6867029,"ts":"2021-07-05T07:33:59Z","tz":1,"tags":{"leisure":"sports_centre","sport":"climbing"}},"11080532597":{"lat":51.120224,"lon":13.5919276,"ts":"2024-01-18T20:52:43Z","tz":1,"tags":{"addr:city":"Radebeul","addr:country":"DE","addr:housenumber":"6","addr:postcode":"01445","addr:street":"Nach der Schiffsmühle","charge":"12.50 EUR/person;8.50 EUR/child","fee":"yes","leisure":"sports_centre","name":"boulderdrome","opening_hours":"Mo-Fr 14:00-22:00; Sa, Su, PH 10:00-22:00","operator":"Fabian Ludwig & Leonie Gildein","payment:cards":"yes","payment:cash":"yes","payment:credit_cards":"yes","payment:debit_cards":"yes","phone":"+49 351 888 909 73","sport":"climbing","website":"https://www.boulderdrome.de/"}},"11760483388":{"lat":51.1177667,"lon":13.6567264,"ts":"2024-03-25T09:02:13Z","tz":1,"tags":{"climbing":"crag","name":"Hoher Stein","sport":"climbing"}}}