{"454735441":{"location":[37.9342544,22.5333743],"ts":"2025-02-21T01:00:21Z","tz":2,"tags":{"climbing:grade:french:min":"5a","climbing:orientation":"E","climbing:rock":"conglomerate","climbing:sport":"yes","climbing:trad":"yes","contact:facebook":"https://www.facebook.com/climbfrygani/","name":"Φρύγανη","name:el":"Φρύγανη","name:en":"Frygani","natural":"cliff","sport":"climbing","website":"http://www.climbcorinthia.com/"}},"578992648":{"location":[37.7875777,22.7969962],"ts":"2025-02-21T01:00:26Z","tz":2,"tags":{"alt_name":"Χούνη","alt_name:en":"Houni","climbing:sport":"4","name":"Τρητός","name:el":"Τρητός","name:en":"Tritos","natural":"cliff","sport":"climbing","url":"http://www.routes.gr/?Page=el/Climbing/Fields/Tritos-Chouni"}},"672630678":{"location":[37.9154196,22.5320074],"ts":"2025-02-21T01:00:31Z","tz":2,"tags":{"climbing":"crag","climbing:orientation":"w","climbing:sport":"yes","contact:facebook":"https://www.facebook.com/climbfrygani/","name":"Μύλος","name:el":"Μύλος","name:en":"Mylos","natural":"cliff","sport":"climbing","url":"https://www.vrahomania.gr/frigani_nea_pedia/"}},"1078923521":{"location":[37.9258531,22.513991],"ts":"2025-02-21T01:00:53Z","tz":2,"tags":{"climbing:length:max":"30","climbing:orientation":"s","climbing:sport":"10","contact:facebook":"https://www.facebook.com/climbfrygani/","fee":"no","indoor":"no","name":"Κεφαλάρι","name:el":"Κεφαλάρι","name:en":"Kefalari","natural":"cliff","sport":"climbing","url":"https://www.vrahomania.gr/frigani_nea_pedia/"}},"1078923523":{"location":[37.9269451,22.5521148],"ts":"2025-02-21T01:00:53Z","tz":2,"tags":{"climbing":"crag","climbing:grade:french:min":"5b","climbing:length:max":"30","climbing:orientation":"w","climbing:sport":"20","contact:facebook":"https://www.facebook.com/climbfrygani/","name":"Άστρα","name:el":"Άστρα","name:en":"Astra","natural":"cliff","sport":"climbing","url":"https://www.vrahomania.gr/frigani_nea_pedia/"}},"10123303986":{"location":[37.8747295,22.5622899],"ts":"2022-10-23T08:54:43Z","tz":2,"tags":{"name":"Πεδίο αναρρίχησης Ασπροκαμπου","sport":"climbing"}}}