{"14748872":{"location":[37.5520843,22.8156022],"ts":"2024-12-23T11:22:21Z","tz":2,"tags":{"climbing":"crag","climbing:grade:french:max":"7b+","climbing:grade:french:min":"5a","climbing:sport":"yes","fee":"no","name":"Κάτω Κόσμος","name:el":"Κάτω Κόσμος","name:en":"Kato Kosmos","outdoor":"yes","sport":"climbing","type":"site","url":"https://27crags.com/crags/kato-kosmos"}},"281242346":{"location":[37.5627575,22.7937357],"ts":"2016-06-15T16:12:31Z","tz":2,"tags":{"climbing:sport":"yes","description:el":"Πινακίδες απαγορεύουν την αναρρίχηση!","description:en":"Signs are posted that prohibit climbing!","name":"Ακροναυπλιά","name:el":"Ακροναυπλιά","name:en":"Akronafplia","natural":"cliff","sport":"climbing","url":"http://climbgreece.com/nafplio/"}},"376878824":{"location":[37.5492206,22.8149481],"ts":"2015-10-25T19:02:43Z","tz":2,"tags":{"climbing:bolted":"yes","climbing:grade:french:max":"6b+","climbing:grade:french:min":"3c","climbing:length:max":"25","climbing:length:min":"8","climbing:orientation":"SE","climbing:sport":"25","fee":"no","int_name":"Anatoli","name":"Ανατολή","natural":"cliff","outdoor":"yes","sport":"climbing","url":"http://www.vrahomania.gr/%CE%B1%CE%BD%CE%B1%CF%84%CE%BF%CE%BB%CE%AE-%CE%BD%CE%B1%CF%8D%CF%80%CE%BB%CE%B9%CE%BF/"}},"377538917":{"location":[37.5406854,22.8299374],"ts":"2015-11-04T14:31:49Z","tz":2,"tags":{"climbing:bolted":"yes","climbing:sport":"yes","int_name":"Karathona Sector B","name":"Καραθώνα τομέας Β","natural":"cliff","sport":"climbing","url":"http://www.vrahomania.gr/%CE%BD%CE%B1%CF%8D%CF%80%CE%BB%CE%B9%CE%BF-%CE%BA%CE%B1%CF%81%CE%B1%CE%B8%CF%8E%CE%BD%CE%B1/"}},"378320329":{"location":[37.5408987,22.8298698],"ts":"2015-11-04T14:31:44Z","tz":2,"tags":{"climbing:bolted":"yes","climbing:sport":"yes","int_name":"Karathona Sector A","name":"Καραθώνα τομέας Α","natural":"cliff","sport":"climbing","url":"http://www.vrahomania.gr/%CE%BD%CE%B1%CF%8D%CF%80%CE%BB%CE%B9%CE%BF-%CE%BA%CE%B1%CF%81%CE%B1%CE%B8%CF%8E%CE%BD%CE%B1/"}},"425162032":{"location":[37.5525289,22.8091465],"ts":"2016-06-15T16:39:52Z","tz":2,"tags":{"climbing:orientation":"s","climbing:rock":"limestone","climbing:sport":"8","name":"Μυθολογία","name:el":"Μυθολογία","name:en":"Mythology","natural":"cliff","sport":"climbing","url":"http://www.vrahomania.gr/nafplio/"}},"425162663":{"location":[37.5527754,22.80662],"ts":"2016-06-15T16:46:38Z","tz":2,"tags":{"climbing:orientation":"s","climbing:rock":"limestone","climbing:sport":"1","climbing:trad":"1","name":"Κόρη","name:el":"Κόρη","name:en":"Kori","natural":"cliff","sport":"climbing"}}}