{"42758329":{"location":[59.2807132,18.1840694],"ts":"2010-02-21T14:29:58Z","tz":1,"tags":{"leisure":"pitch","sport":"climbing"}},"42758330":{"location":[59.2796368,18.1839449],"ts":"2010-02-21T14:30:00Z","tz":1,"tags":{"leisure":"pitch","sport":"climbing"}},"108316805":{"location":[59.3214429,18.0174718],"ts":"2020-05-07T22:45:41Z","tz":1,"tags":{"climbing":"boulder","natural":"boulder"}},"108316806":{"location":[59.3214821,18.017415],"ts":"2022-05-17T10:02:31Z","tz":1,"tags":{"climbing":"boulder","climbing:grade:french":"7b+","name":"Houdini","natural":"boulder","sport":"climbing"}},"108316808":{"location":[59.3215247,18.0174282],"ts":"2020-05-22T09:19:28Z","tz":1,"tags":{"climbing":"boulder","natural":"boulder"}},"108333173":{"location":[59.2894339,18.0173448],"ts":"2022-03-09T22:36:04Z","tz":1,"tags":{"building":"yes","building:colour":"firebrick","building:material":"brick","leisure":"sports_centre","name":"Karbin","opening_hours":"Mo-Fr 09:00-22:00; Sa,Su 09:00-21:00","roof:colour":"black","sport":"climbing","website":"https://karbin.com/","wheelchair":"limited"}},"217437175":{"location":[59.3433852,18.0103624],"ts":"2019-12-19T22:17:48Z","tz":1,"tags":{"description":"Rock climbing, natural rock","name":"Pampasklippan","natural":"cliff","sport":"climbing","url":"http://www.sverigeforaren.se/index.php/Pampasklippan"}},"332300622":{"location":[59.2586502,18.1543926],"ts":"2019-10-16T19:01:53Z","tz":1,"tags":{"natural":"cliff","sport":"climbing"}},"804687577":{"location":[59.2990654,17.9911878],"ts":"2015-03-18T19:19:04Z","tz":1,"tags":{"addr:country":"SE","addr:housenumber":"24","addr:street":"Tellusgången","leisure":"sports_centre","name":"Klättercentret","sport":"climbing"}},"1706342834":{"location":[59.3125062,18.1035005],"ts":"2020-11-06T20:11:41Z","tz":1,"tags":{"natural":"boulder","sport":"climbing","website":"http://www.sverigeforaren.se/listing/kanalklippan/"}},"2512772264":{"location":[59.3091986,18.0488244],"ts":"2020-11-05T22:38:13Z","tz":1,"tags":{"description:en":"3 meter high artificial climbing rock with placed handles","leisure":"fitness_station","sport":"climbing"}},"5263391133":{"location":[59.3055679,18.1211641],"ts":"2024-10-16T10:57:59Z","tz":1,"tags":{"addr:city":"Nacka","addr:country":"SE","addr:housenumber":"17","addr:postcode":"131 34","addr:street":"Marcusplatsen","email":"info@klatterverket.se","fee":"yes","leisure":"sports_centre","name":"Klätterverket - Sickla","opening_hours":"Mo-Fr 10:00-22:00; Sa, Su 10:00-20:00","phone":"+46 8-641 10 48","sport":"climbing","website":"https://www.klatterverket.se"}},"7196887997":{"location":[59.2896483,18.0821129],"ts":"2023-10-29T16:44:02Z","tz":1,"tags":{"addr:country":"SE","addr:housenumber":"26","addr:street":"Slakthusgatan","charge":"120 SEK","climbing:boulder":"yes","fee":"yes","leisure":"sports_centre","name":"Bouldering Stockholm","opening_hours":"Mo 10:00-22:00; Tu-Fr 12:00-22:00; Sa-Su 10:00-20:00","opening_hours:covid19":"Mo-Fr 13:00-21:00; Sa-Su 10:00-18:00","payment:cash":"yes","payment:credit_cards":"yes","sport":"climbing","website":"https://boulderingstockholm.se/"}},"9788137258":{"location":[59.3279659,18.0232885],"ts":"2022-11-14T23:25:54Z","tz":1,"tags":{"access":"yes","climbing:boulder":"yes","sport":"climbing"}},"9989177861":{"location":[59.3272671,18.1974666],"ts":"2022-08-30T19:55:48Z","tz":1,"tags":{"sport":"climbing"}},"11101686073":{"location":[59.3119428,18.0738235],"ts":"2023-08-09T12:48:01Z","tz":1,"tags":{"fee":"yes","leisure":"sports_centre","name":"Moumo","opening_hours":"Mo-Fr 06:30-23:00; Sa,Su 09:00-23:00","sport":"climbing","website":"https://www.moumo.se/"}}}