{"18147548":{"lat":43.8596312,"lon":18.4480217,"ts":"2024-10-10T14:43:15Z","tz":1,"tags":{"climbing":"crag","name":"Dariva (crag placeholder)","sport":"climbing","type":"site"}},"18147572":{"lat":43.9485775,"lon":18.4431066,"ts":"2024-10-10T14:54:13Z","tz":1,"tags":{"climbing":"crag","name":"Klupa","sport":"climbing","type":"site"}},"18233015":{"lat":43.907102,"lon":18.420644,"ts":"2024-10-31T11:34:56Z","tz":1,"tags":{"climbing":"crag","name":"Nahorevo","site":"climbing","sport":"climbing","type":"site"}},"18501838":{"lat":43.9317367,"lon":18.4322339,"ts":"2025-01-04T16:00:13Z","tz":1,"tags":{"climbing":"crag","name":"Čardaklija","site":"climbing","sport":"climbing","type":"site"}},"480502715":{"lat":43.8597898,"lon":18.4480579,"ts":"2023-01-02T23:18:24Z","tz":1,"tags":{"climbing:bolted":"yes","climbing:sport":"yes","name":"Dariva","name:sr":"Дарива","natural":"cliff","sport":"climbing"}},"482069682":{"lat":43.8430142,"lon":18.4129886,"ts":"2024-09-28T13:32:08Z","tz":1,"tags":{"natural":"cliff","sport":"climbing"}},"670059113":{"lat":43.8588678,"lon":18.4427193,"ts":"2019-12-31T19:58:01Z","tz":1,"tags":{"climbing":"crag","climbing:multipitch":"yes","name":"Babin zub","natural":"rock","sport":"climbing"}},"751713167":{"lat":43.8429534,"lon":18.4130746,"ts":"2024-12-22T14:14:00Z","tz":1,"tags":{"climbing":"crag","climbing:rock":"quartzite","natural":"bare_rock"}},"758955817":{"lat":43.8797721,"lon":18.43622,"ts":"2019-12-27T14:30:49Z","tz":1,"tags":{"climbing":"crag","climbing:bolted":"yes","climbing:grade:french:max":"8a","climbing:grade:french:min":"6a","climbing:sport":"12","name":"Špicasta stijena","natural":"cliff","sport":"climbing"}},"760053872":{"lat":43.8592541,"lon":18.4478071,"ts":"2023-01-02T23:18:24Z","tz":1,"tags":{"climbing:bolted":"yes","climbing:sport":"yes","name":"Dariva","name:sr":"Дарива","natural":"cliff","sport":"climbing"}},"846704209":{"lat":43.9485775,"lon":18.4431066,"ts":"2024-10-10T14:54:13Z","tz":1,"tags":{"natural":"cliff","sport":"climbing"}},"1318336399":{"lat":43.8487233,"lon":18.3363763,"ts":"2024-09-26T09:08:50Z","tz":1,"tags":{"sport":"climbing","type":"outdoor"}},"5114979473":{"lat":43.8552575,"lon":18.4149131,"ts":"2019-12-27T16:06:35Z","tz":1,"tags":{"addr:city":"Sarajevo","addr:housenumber":"bb","addr:postcode":"71000","addr:street":"Terezija","climbing:boulder":"yes","contact:website":"https://penjanje.ba","fee":"yes","indoor":"yes","leisure":"sports_centre","name":"Penjačka dvorana No Comment","opening_hours":"Mo-Fr 18:00-22:00","outdoor":"no","sport":"climbing"}},"10018994124":{"lat":43.9442912,"lon":18.4386953,"ts":"2024-10-07T10:37:51Z","tz":1,"tags":{"climbing":"crag","sport":"climbing"}},"12231488877":{"lat":43.9473244,"lon":18.4424555,"ts":"2024-10-07T10:37:51Z","tz":1,"tags":{"climbing":"crag","name":"Penjalište Skakavac"}},"12301487652":{"lat":43.907102,"lon":18.420644,"ts":"2024-10-31T11:34:56Z","tz":1,"tags":{"name":"Nahorevo","sport":"climbing"}}}