{"146808691":{"lat":-33.9525287,"lon":18.410292,"ts":"2012-05-09T18:10:59Z","tz":2,"tags":{"climbing":"boulder","natural":"stone","sport":"climbing","tourism":"attraction"}},"146808692":{"lat":-33.9524231,"lon":18.4101291,"ts":"2012-05-09T18:10:59Z","tz":2,"tags":{"climbing":"boulder","natural":"stone","sport":"climbing","tourism":"attraction"}},"146808694":{"lat":-33.9495486,"lon":18.4088111,"ts":"2016-11-05T18:29:40Z","tz":2,"tags":{"climbing":"bouldering","natural":"rock","sport":"climbing"}},"146808695":{"lat":-33.9519551,"lon":18.4097327,"ts":"2016-06-23T20:12:37Z","tz":2,"tags":{"climbing":"boulder","natural":"stone","sport":"climbing","tourism":"attraction"}},"147177256":{"lat":-33.9520553,"lon":18.4102622,"ts":"2012-05-09T18:10:59Z","tz":2,"tags":{"climbing":"boulder","natural":"stone","sport":"climbing","tourism":"attraction"}},"147177258":{"lat":-33.9522689,"lon":18.4100328,"ts":"2013-02-08T13:37:51Z","tz":2,"tags":{"natural":"stone","sport":"climbing","tourism":"attraction"}},"147177260":{"lat":-33.9521223,"lon":18.4102804,"ts":"2012-05-09T18:11:00Z","tz":2,"tags":{"climbing":"boulder","natural":"stone","sport":"climbing","tourism":"attraction"}},"1433291789":{"lat":-33.9670053,"lon":18.440407,"ts":"2012-02-01T05:50:41Z","tz":2,"tags":{"name":"Classroom Boulder","natural":"stone","sport":"climbing"}},"1603201298":{"lat":-33.9522775,"lon":18.4102049,"ts":"2012-01-24T08:06:52Z","tz":2,"tags":{"climbing":"bouldering","name":"Bright Lights Bouldering","sport":"climbing","tourism":"attraction"}},"1604910115":{"lat":-33.9495985,"lon":18.4088438,"ts":"2016-11-05T18:29:43Z","tz":2,"tags":{"climbing":"bouldering","name":"Roysten Vasey Boulder","sport":"climbing","tourism":"attraction"}},"1608532561":{"lat":-33.9792592,"lon":18.4378778,"ts":"2012-01-28T11:25:38Z","tz":2,"tags":{"climbing":"bouldering","name":"Deadwood Boulder","sport":"climbing","tourism":"attraction"}},"1608543116":{"lat":-33.9971099,"lon":18.4207584,"ts":"2012-01-28T11:32:51Z","tz":2,"tags":{"climbing":"bouldering","name":"Cecilia Boulder","sport":"climbing","tourism":"attraction"}},"1685899586":{"lat":-33.9523044,"lon":18.4073301,"ts":"2012-03-22T13:26:07Z","tz":2,"tags":{"climbing":"bouldering","name":"Terrace Bouldering","sport":"climbing","tourism":"attraction"}},"2248778988":{"lat":-33.8988511,"lon":18.4815242,"ts":"2021-10-04T09:01:51Z","tz":2,"tags":{"addr:district":"Paarden Eiland","addr:housenumber":"9","addr:street":"Milner Street","fee":"yes","leisure":"sports_centre","name":"CityROCK","opening_hours":"Mo-Th 11:00-21:00; Fr-Su 09:00-18:00","phone":"+27 21 447 1326","sport":"climbing","website":"https://cityrock.co.za/capetown/"}},"4260122369":{"lat":-33.9487386,"lon":18.409647,"ts":"2018-10-19T18:29:09Z","tz":2,"tags":{"climbing":"crag","climbing:boulder":"yes","climbing:rock":"sandstone","description":"F7a Lats Traverse from the ramp on Lions Head side to the diagonal opposite corner staying low under the roof and to the undercut finish to TO. FA S Shuman Other easier problems. Kid friendly grass base","name":"Training Boulder","natural":"stone","sport":"climbing"}},"4260126317":{"lat":-33.9497472,"lon":18.412778,"ts":"2016-06-23T16:25:57Z","tz":2,"tags":{"climbing":"bouldering","climbing:rock":"sandstone","description":"7b Schadenfreude FA Serle Shuman the steep undercut central line with heel hugs in centre","name":"Schadenfreude Boulder","sport":"climbing","tourism":"attraction"}},"4260126514":{"lat":-33.9501677,"lon":18.4124374,"ts":"2016-06-23T16:27:04Z","tz":2,"tags":{"climbing":"bouldering","climbing:rock":"quartzite","description":"World Cup 6c FA S. Koehorst the bold picturesque line on the Table Mountain side finishing up the exposed wall ? M Smigelski 7a+ FA Serle Shuman the SD start seam finishing up right on the city side","name":"World Cup Boulder","tourism":"attraction"}},"4260133213":{"lat":-33.9509472,"lon":18.4207432,"ts":"2016-06-23T16:36:37Z","tz":2,"tags":{"climbing":"bouldering","climbing:rock":"sandstone","description":"Tree Traverse F7b FA M Janata SD start Devils Peak corner, traverse low under first roof, around hard corner, to finish by TO on far corner Tree Travesty F7a FA Steve Koehorst start as above finish up the hard corner Treat F6a FA S Koehorst SDS CBD side","name":"Tree Traverse Boulder","tourism":"attraction"}},"4260140295":{"lat":-33.9514924,"lon":18.420829,"ts":"2017-08-26T14:32:59Z","tz":2,"tags":{"climbing":"bouldering","climbing:rock":"sandstone","description":"Various problems FA S Koehorst F7b FA Adrian Kohler up the steep Table Mtn side face; 7b now after a hold broke off it exits up left","name":"Triangle Boulder","tourism":"attraction"}},"4260140998":{"lat":-33.951281,"lon":18.4209658,"ts":"2016-06-23T16:36:23Z","tz":2,"tags":{"climbing":"bouldering","climbing:rock":"sandstone","description":"2x F6b SDS problems FA Steve Koehorst","name":"Hamstrung Boulder","tourism":"attraction"}},"4260143353":{"lat":-33.9529125,"lon":18.4197066,"ts":"2016-06-23T16:36:10Z","tz":2,"tags":{"climbing":"bouldering","climbing:rock":"quartzite","description":"F6c+ FA M Janata follow low seam from left to exit up right","name":"Low Seam Boulder","tourism":"attraction"}},"4260144902":{"lat":-33.9543638,"lon":18.4197098,"ts":"2016-06-23T16:37:09Z","tz":2,"tags":{"climbing":"bouldering","climbing:rock":"sandstone","description":"4 or five problems. The best is F6c+ FA Steve Koehorst climb the steep corner through the undercut roof with a powerful Left Gaston ****","name":"Big Block Boulder","tourism":"attraction"}},"4260146414":{"lat":-33.9555535,"lon":18.4183553,"ts":"2016-06-23T16:37:20Z","tz":2,"tags":{"climbing":"bouldering","climbing:rock":"sandstone","description":"3 or 4 bold problems by S Koehorst F7a FA Adrian Kohler climb the steep corner onto mantle on Table Mtn corner","name":"River Boulder","tourism":"attraction"}},"4260147965":{"lat":-33.9542762,"lon":18.4188285,"ts":"2016-11-26T13:54:18Z","tz":2,"tags":{"climbing":"bouldering","climbing:rock":"quartzite","description":"3 or 4 problems, best is the obvious steep long corner F6c+ (bold) finishing at apex FA a visiting german","name":"Yosemite Boulder","tourism":"attraction"}},"6579974268":{"lat":-33.9103499,"lon":18.4726229,"ts":"2019-06-30T14:51:10Z","tz":2,"tags":{"addr:city":"Cape Town","addr:housenumber":"18","addr:postcode":"7405","addr:street":"Auckland Street","addr:unit":"11","fee":"yes","leisure":"sports_centre","name":"Bloc 11","opening_hours":"Mo-Th 10:00-22:00; Fr 12:00-21:00; PH,Sa,Su 09:00-19:00","payment:cash":"yes","payment:credit_cards":"yes","phone":"+27 21 510 2454","sport":"climbing","website":"https://bloc11.co.za/"}}}