{"14312590":{"lat":50.6214867,"lon":16.1287228,"ts":"2022-07-01T12:32:28Z","tz":1,"tags":{"climbing":"crag","name":"Křížový vrch","type":"site"}},"17814052":{"lat":50.5613441,"lon":15.9805547,"ts":"2024-07-07T20:13:54Z","tz":1,"tags":{"climbing":"crag","name":"Jižní Čížkovy kameny","site":"climbing","sport":"climbing","type":"site","website":"https://www.horosvaz.cz/skaly-skala-8392/"}},"510129687":{"lat":50.7226117,"lon":15.9078159,"ts":"2019-09-02T14:51:22Z","tz":1,"tags":{"height":"18","leisure":"climbing","name":"Pierwsza","natural":"cliff","rock":"conglomerate","source":"knowledge","sport":"climbing"}},"510129688":{"lat":50.7225572,"lon":15.9079194,"ts":"2019-09-02T14:51:22Z","tz":1,"tags":{"height":"18","leisure":"climbing","name":"Wspinka","natural":"cliff","rock":"conglomerate","source":"knowledge","sport":"climbing"}},"510129689":{"lat":50.7224357,"lon":15.9080895,"ts":"2019-09-02T14:51:22Z","tz":1,"tags":{"height":"25","leisure":"climbing","name":"Widoczna","natural":"cliff","rock":"conglomerate","source":"knowledge","sport":"climbing"}},"510129691":{"lat":50.7222792,"lon":15.9084965,"ts":"2019-09-02T14:51:22Z","tz":1,"tags":{"height":"18","leisure":"climbing","name":"Kamienna","natural":"cliff","rock":"conglomerate","source":"knowledge","sport":"climbing"}},"510129692":{"lat":50.7222259,"lon":15.9086418,"ts":"2019-09-02T14:51:22Z","tz":1,"tags":{"height":"20","leisure":"climbing","name":"Wysoka","natural":"cliff","rock":"conglomerate","source":"knowledge","sport":"climbing"}},"510129693":{"lat":50.7221587,"lon":15.9088111,"ts":"2019-09-02T14:51:22Z","tz":1,"tags":{"height":"18","leisure":"climbing","name":"Okruchy","natural":"cliff","rock":"conglomerate","source":"knowledge","sport":"climbing"}},"510129694":{"lat":50.7220964,"lon":15.9090617,"ts":"2019-09-02T14:51:22Z","tz":1,"tags":{"height":"16","leisure":"climbing","name":"Zrośnieta","natural":"cliff","rock":"conglomerate","source":"knowledge","sport":"climbing"}},"510129695":{"lat":50.7220404,"lon":15.9092626,"ts":"2019-09-02T14:51:22Z","tz":1,"tags":{"height":"16","leisure":"climbing","name":"Pęknieta","natural":"cliff","rock":"conglomerate","source":"knowledge","sport":"climbing"}},"510129696":{"lat":50.7220362,"lon":15.9094103,"ts":"2019-09-02T14:51:22Z","tz":1,"tags":{"height":"15","leisure":"climbing","name":"Skała 10","natural":"cliff","rock":"conglomerate","source":"knowledge","sport":"climbing"}},"510129697":{"lat":50.722003,"lon":15.9096,"ts":"2019-09-02T14:51:22Z","tz":1,"tags":{"height":"16","leisure":"climbing","name":"Zacięta","natural":"cliff","rock":"conglomerate","source":"knowledge","sport":"climbing"}},"510129700":{"lat":50.7221774,"lon":15.9089543,"ts":"2019-09-03T05:49:17Z","tz":1,"tags":{"climbing:bolted":"yes","climbing:grade:polish:max":"VI.1","climbing:grade:polish:min":"II","climbing:length":"18","climbing:quality":"solid","climbing:rock":"conglomerate","climbing:routes":"38","climbing:sport":"yes","height":"22","natural":"bare_rock","rock":"conglomerate","source":"knowledge","sport":"climbing"}},"510129701":{"lat":50.7225014,"lon":15.9080509,"ts":"2019-09-02T14:51:22Z","tz":1,"tags":{"climbing:bolted":"yes","climbing:grade:polish:max":"VI.1","climbing:grade:polish:min":"II","climbing:length":"20","climbing:quality":"solid","climbing:rock":"conglomerate","climbing:routes":"14","climbing:sport":"yes","height":"22","name":"Spękane Skały","natural":"bare_rock","rock":"conglomerate","source":"knowledge","sport":"climbing"}},"719431617":{"lat":50.7223451,"lon":15.9586482,"ts":"2019-08-28T16:30:55Z","tz":1,"tags":{"height":"22","leisure":"climbing","name":"Zadzierna","natural":"cliff","rock":"conglomerate","source":"knowledge","sport":"climbing"}},"719431618":{"lat":50.722342,"lon":15.958685,"ts":"2021-02-23T19:41:28Z","tz":1,"tags":{"climbing:bolted":"yes","climbing:grade:polish:max":"VI.1","climbing:grade:polish:min":"III","climbing:length":"22","climbing:quality":"solid","climbing:rock":"conglomerate","climbing:routes":"9","climbing:sport":"yes","height":"23","name":"Zadzierna","natural":"bare_rock","rock":"conglomerate","source":"knowledge","sport":"climbing"}},"719431621":{"lat":50.7242512,"lon":16.0035447,"ts":"2019-08-28T16:30:55Z","tz":1,"tags":{"height":"30","leisure":"climbing","name":"Pustelnia","natural":"cliff","rock":"porphyry","source":"knowledge","sport":"climbing"}},"719431622":{"lat":50.7245037,"lon":16.0036938,"ts":"2019-08-28T16:30:55Z","tz":1,"tags":{"climbing:bolted":"yes","climbing:grade:polish:max":"VI.1","climbing:grade:polish:min":"V","climbing:length":"30","climbing:quality":"fragile","climbing:rock":"porphyry","climbing:routes":"6","climbing:sport":"yes","height":"40","name":"Kamieniołom Pod Pustelnią","natural":"bare_rock","rock":"porphyry","source":"knowledge","sport":"climbing"}},"719431627":{"lat":50.6897855,"lon":16.0380739,"ts":"2019-08-28T16:30:55Z","tz":1,"tags":{"height":"18","leisure":"climbing","name":"3 Kawałki","natural":"cliff","rock":"porphyry","source":"knowledge","sport":"climbing"}},"719431628":{"lat":50.6899315,"lon":16.0380629,"ts":"2019-08-28T16:30:55Z","tz":1,"tags":{"climbing:bolted":"yes","climbing:grade:polish:max":"VI+","climbing:grade:polish:min":"IV","climbing:length":"18","climbing:quality":"fragile","climbing:rock":"porphyry","climbing:routes":"5","climbing:sport":"yes","height":"30","name":"Kamieniołom Trzy Kawałki","natural":"bare_rock","rock":"porphyry","source":"knowledge","sport":"climbing"}},"721198876":{"lat":50.7218478,"lon":15.910108,"ts":"2019-09-21T16:28:01Z","tz":1,"tags":{"height":"12","leisure":"climbing","name":"Sklejka","natural":"cliff","rock":"conglomerate","source":"knowledge","sport":"climbing"}},"721198877":{"lat":50.7217438,"lon":15.9104005,"ts":"2019-09-02T14:51:22Z","tz":1,"tags":{"height":"14","leisure":"climbing","name":"Ostatnia","natural":"cliff","rock":"conglomerate","source":"knowledge","sport":"climbing"}},"721198878":{"lat":50.7218422,"lon":15.9102091,"ts":"2019-09-03T05:49:17Z","tz":1,"tags":{"climbing:bolted":"yes","climbing:quality":"fragile","climbing:rock":"limestone","climbing:sport":"yes","height":"14","natural":"bare_rock","rock":"conglomerate","source":"knowledge","sport":"climbing"}},"721198879":{"lat":50.7220386,"lon":15.9094453,"ts":"2019-09-02T14:51:22Z","tz":1,"tags":{"height":"8","leisure":"climbing","name":"Dach","natural":"cliff","rock":"conglomerate","source":"knowledge","sport":"climbing"}},"721198882":{"lat":50.7225146,"lon":15.9081618,"ts":"2019-09-02T14:51:22Z","tz":1,"tags":{"height":"8","leisure":"climbing","name":"Widoczna","natural":"cliff","rock":"conglomerate","source":"knowledge","sport":"climbing"}},"721198883":{"lat":50.7234218,"lon":15.9073224,"ts":"2019-09-02T14:51:22Z","tz":1,"tags":{"height":"11","leisure":"climbing","name":"Mała","natural":"cliff","rock":"conglomerate","source":"knowledge","sport":"climbing"}},"721198884":{"lat":50.7234342,"lon":15.9073224,"ts":"2019-09-02T14:51:22Z","tz":1,"tags":{"climbing:bolted":"yes","climbing:length":"11","climbing:quality":"fragile","climbing:rock":"conglomerate","climbing:routes":"4","climbing:sport":"yes","height":"12","name":"Mała","natural":"bare_rock","rock":"conglomerate","source":"knowledge","sport":"climbing"}},"721505607":{"lat":50.7220155,"lon":15.9096196,"ts":"2019-09-03T05:49:17Z","tz":1,"tags":{"climbing:bolted":"yes","climbing:grade:polish:max":"VI.1","climbing:grade:polish:min":"II","climbing:length":"18","climbing:quality":"solid","climbing:rock":"conglomerate","climbing:routes":"38","climbing:sport":"yes","height":"22","natural":"bare_rock","rock":"conglomerate","source":"knowledge","sport":"climbing"}},"910126585":{"lat":50.7166454,"lon":15.9596019,"ts":"2021-02-23T19:41:28Z","tz":1,"tags":{"climbing:quality":"fragile","climbing:rock":"conglomerate","height":"18","name":"Tama","natural":"bare_rock","rock":"conglomerate","source":"knowledge","sport":"climbing"}},"910126586":{"lat":50.7164479,"lon":15.9597611,"ts":"2021-02-23T19:41:28Z","tz":1,"tags":{"height":"23","leisure":"climbing","name":"Strzelista","natural":"cliff","rock":"conglomerate","source":"knowledge","sport":"climbing"}},"910126587":{"lat":50.71639,"lon":15.9598407,"ts":"2021-02-23T19:41:28Z","tz":1,"tags":{"climbing:length":"23","climbing:quality":"solid","climbing:rock":"conglomerate","climbing:routes":"2","height":"24","name":"Strzelista","natural":"bare_rock","rock":"conglomerate","source":"knowledge","sport":"climbing"}},"910126588":{"lat":50.7211125,"lon":15.9583975,"ts":"2022-08-21T12:09:18Z","tz":1,"tags":{"climbing:quality":"fragile","climbing:rock":"conglomerate","height":"14","name":"Palec","natural":"bare_rock","rock":"conglomerate","source":"knowledge","sport":"climbing"}},"910126589":{"lat":50.7216425,"lon":15.9584866,"ts":"2021-02-23T19:41:28Z","tz":1,"tags":{"height":"14","leisure":"climbing","name":"Dziupla","natural":"cliff","rock":"conglomerate","source":"knowledge","sport":"climbing"}},"910126590":{"lat":50.7216376,"lon":15.9585068,"ts":"2021-02-23T19:41:28Z","tz":1,"tags":{"climbing:bolted":"yes","climbing:grade:polish:max":"VI.1","climbing:grade:polish:min":"IV","climbing:length":"14","climbing:quality":"fragile","climbing:rock":"conglomerate","climbing:routes":"2","climbing:sport":"yes","height":"16","name":"Dziupla","natural":"bare_rock","rock":"conglomerate","source":"knowledge","sport":"climbing"}},"910126591":{"lat":50.7214265,"lon":15.9584524,"ts":"2022-08-21T12:09:18Z","tz":1,"tags":{"height":"15","leisure":"climbing","name":"Wcięta","natural":"cliff","rock":"conglomerate","source":"knowledge","sport":"climbing"}},"910126592":{"lat":50.7214063,"lon":15.9584806,"ts":"2022-08-21T12:09:18Z","tz":1,"tags":{"climbing:bolted":"yes","climbing:grade:polish:max":"VI.2","climbing:grade:polish:min":"V","climbing:length":"15","climbing:quality":"solid","climbing:rock":"conglomerate","climbing:routes":"2","climbing:sport":"yes","height":"16","name":"Wcięta","natural":"bare_rock","rock":"conglomerate","source":"knowledge","sport":"climbing"}},"910126593":{"lat":50.7218629,"lon":15.9585585,"ts":"2021-02-23T19:41:28Z","tz":1,"tags":{"height":"18","leisure":"climbing","name":"Nos","natural":"cliff","rock":"conglomerate","source":"knowledge","sport":"climbing"}},"910126594":{"lat":50.7218453,"lon":15.9585944,"ts":"2021-02-23T19:41:28Z","tz":1,"tags":{"climbing:bolted":"yes","climbing:grade:polish:max":"VI.1+","climbing:grade:polish:min":"V+","climbing:length":"18","climbing:quality":"solid","climbing:rock":"conglomerate","climbing:routes":"2","climbing:sport":"yes","height":"18","name":"Nos","natural":"bare_rock","rock":"conglomerate","source":"knowledge","sport":"climbing"}},"910126595":{"lat":50.7222759,"lon":15.9586581,"ts":"2021-02-23T19:41:28Z","tz":1,"tags":{"height":"20","leisure":"climbing","name":"Pomurki","natural":"cliff","rock":"conglomerate","source":"knowledge","sport":"climbing"}},"910126596":{"lat":50.7221951,"lon":15.9587128,"ts":"2021-02-25T09:48:05Z","tz":1,"tags":{"climbing:bolted":"yes","climbing:grade:polish:max":"IV","climbing:grade:polish:min":"III","climbing:length":"20","climbing:quality":"solid","climbing:rock":"conglomerate","climbing:routes":"6","climbing:sport":"yes","height":"20","name":"Pomurki","natural":"bare_rock","rock":"conglomerate","source":"knowledge","sport":"climbing"}},"910767267":{"lat":50.7224954,"lon":15.958804,"ts":"2021-02-25T09:48:05Z","tz":1,"tags":{"climbing:quality":"solid","climbing:rock":"conglomerate","height":"10","name":"Zadzierne Skały","natural":"bare_rock","rock":"conglomerate","source":"knowledge","sport":"climbing"}},"1087907063":{"lat":50.7212076,"lon":15.9583784,"ts":"2022-08-21T12:09:18Z","tz":1,"tags":{"height":"12","leisure":"climbing","name":"Bulwa","natural":"cliff","rock":"conglomerate","source":"knowledge","sport":"climbing"}},"1087907064":{"lat":50.7212163,"lon":15.9584016,"ts":"2022-08-21T12:09:18Z","tz":1,"tags":{"climbing:bolted":"yes","climbing:grade:polish:max":"IV","climbing:grade:polish:min":"IV","climbing:length":"12","climbing:quality":"solid","climbing:rock":"conglomerate","climbing:routes":"1","climbing:sport":"yes","height":"12","name":"Bulwa","natural":"bare_rock","rock":"conglomerate","source":"knowledge","sport":"climbing"}},"1087907065":{"lat":50.7211516,"lon":15.9583905,"ts":"2022-08-21T12:09:18Z","tz":1,"tags":{"height":"14","leisure":"climbing","name":"Palec","natural":"cliff","rock":"conglomerate","source":"knowledge","sport":"climbing"}},"1864064493":{"lat":50.6158401,"lon":16.1059317,"ts":"2013-05-21T11:20:36Z","tz":1,"tags":{"name":"Sluha","name:de":"Diener","natural":"peak","ref":"93","source":"gps","sport":"climbing"}},"1864064494":{"lat":50.6153237,"lon":16.1090866,"ts":"2016-11-20T19:27:45Z","tz":1,"tags":{"name":"Hroch","name:de":"Flusspferd","natural":"peak","ref":"35","source":"gps","sport":"climbing"}},"1864064499":{"lat":50.6090575,"lon":16.1180131,"ts":"2013-05-21T11:20:36Z","tz":1,"tags":{"name":"Polední","name:de":"Mittagsfels","natural":"peak","ref":"49","source":"gps","sport":"climbing"}},"1864064504":{"lat":50.6153391,"lon":16.109319,"ts":"2013-05-21T11:20:36Z","tz":1,"tags":{"name":"Páže","name:de":"Page","natural":"peak","ref":"36","source":"gps","sport":"climbing"}},"1864064507":{"lat":50.6157109,"lon":16.1060245,"ts":"2013-05-21T11:20:36Z","tz":1,"tags":{"name":"Král","name:de":"Pfingstturm (König)","natural":"peak","ref":"94","source":"gps","sport":"climbing"}},"1864064517":{"lat":50.6158494,"lon":16.1060907,"ts":"2013-05-21T11:20:37Z","tz":1,"tags":{"name":"Princ","name:de":"Prinz","natural":"peak","ref":"92","source":"gps","sport":"climbing"}},"1864064850":{"lat":50.6153265,"lon":16.10735,"ts":"2013-05-21T11:20:37Z","tz":1,"tags":{"name":"Zámek","name:de":"Schloß","natural":"peak","ref":"64","source":"gps","sport":"climbing"}},"1864064851":{"lat":50.6152949,"lon":16.1205026,"ts":"2024-05-25T14:09:45Z","tz":1,"tags":{"name":"Španělská stěna","name:de":"Spanische Wand","natural":"peak","ref":"7","source":"gps","sport":"climbing"}},"1864064852":{"lat":50.6117603,"lon":16.1124381,"ts":"2016-11-20T00:22:36Z","tz":1,"tags":{"name":"Tomahawk","natural":"rock","source":"gps","sport":"climbing"}},"1864064853":{"lat":50.6159163,"lon":16.1052894,"ts":"2013-05-21T11:20:37Z","tz":1,"tags":{"name":"Věž tří Meltů","natural":"peak","ref":"107","source":"gps","sport":"climbing"}},"2314297867":{"lat":50.6120378,"lon":16.1114289,"ts":"2015-08-17T22:57:11Z","tz":1,"tags":{"name":"Rozcestník","name:de":"Wegweiser","name:pl":"Drogowskaz","natural":"peak","ref":"95","source":"gps","sport":"climbing"}},"2314351387":{"lat":50.6118199,"lon":16.1091115,"ts":"2013-05-21T11:20:35Z","tz":1,"tags":{"name":"Bražecká","name:de":"Bražecer Turm","natural":"peak","ref":"108","source":"gps","sport":"climbing"}},"2314351389":{"lat":50.6126883,"lon":16.1093032,"ts":"2013-05-21T11:20:35Z","tz":1,"tags":{"name":"Vousatá","name:de":"Bärtiger","natural":"peak","ref":"119","source":"gps","sport":"climbing"}},"2314351392":{"lat":50.611761,"lon":16.1088754,"ts":"2016-11-20T00:22:37Z","tz":1,"tags":{"name":"Efendr","name:de":"Effendi","natural":"peak","ref":"109","source":"gps","sport":"climbing"}},"2314351397":{"lat":50.6126088,"lon":16.1086943,"ts":"2013-05-21T11:20:35Z","tz":1,"tags":{"name":"Geniální Horác","name:de":"Genialer Horaz","natural":"peak","ref":"128","source":"gps","sport":"climbing"}},"2314351401":{"lat":50.612722,"lon":16.1091004,"ts":"2013-05-21T11:20:35Z","tz":1,"tags":{"name":"Pidižena","name:de":"Heinzelfrau","natural":"peak","ref":"119.5","source":"gps","sport":"climbing"}},"2314351403":{"lat":50.6207832,"lon":16.1280796,"ts":"2022-06-27T20:04:27Z","tz":1,"tags":{"climbing:trad":"13","name":"Kruhová","natural":"peak","source":"gps","sport":"climbing"}},"2314351404":{"lat":50.6213217,"lon":16.1279505,"ts":"2022-06-27T20:04:27Z","tz":1,"tags":{"climbing:trad":"13","name":"Mušketýr","name:de":"Musketier","natural":"peak","source":"gps","sport":"climbing"}},"2314351432":{"lat":50.6121181,"lon":16.1095113,"ts":"2015-08-17T22:57:10Z","tz":1,"tags":{"name":"Pomněnka","name:de":"Vergissmeinnicht","name:pl":"Niezapominajka","natural":"peak","ref":"113","source":"gps","sport":"climbing"}},"2314351433":{"lat":50.6126632,"lon":16.1074363,"ts":"2013-05-21T11:20:36Z","tz":1,"tags":{"name":"Jeti","name:de":"Yeti","natural":"peak","ref":"4","source":"gps","sport":"climbing"}},"2314351434":{"lat":50.6212197,"lon":16.1283888,"ts":"2022-06-28T21:17:58Z","tz":1,"tags":{"climbing:trad":"13","name":"Očko","natural":"peak","source":"gps","sport":"climbing"}},"2807679079":{"lat":50.5771728,"lon":16.1431872,"ts":"2021-04-12T07:32:52Z","tz":1,"tags":{"name":"Biskup","natural":"rock","sport":"climbing"}},"2980725601":{"lat":50.6130936,"lon":16.1149406,"ts":"2014-07-26T08:56:12Z","tz":1,"tags":{"name":"Bounty","natural":"peak","source":"gps","sport":"climbing"}},"2980725608":{"lat":50.6130855,"lon":16.1151615,"ts":"2014-07-26T08:56:13Z","tz":1,"tags":{"name":"Mnik","name:de":"Quappe","natural":"peak","source":"gps","sport":"climbing"}},"3597175869":{"lat":50.5895255,"lon":16.1254166,"ts":"2021-04-12T07:32:52Z","tz":1,"tags":{"name":"Skalní koruna","name:de":"Felsenkrone","natural":"rock","source":"gps","sport":"climbing"}},"3597178524":{"lat":50.5859639,"lon":16.1199237,"ts":"2021-04-12T07:32:52Z","tz":1,"tags":{"name":"Kanec","natural":"rock","source":"gps","sport":"climbing"}},"4162059389":{"lat":50.5878066,"lon":16.1219731,"ts":"2021-04-12T07:32:52Z","tz":1,"tags":{"name":"Hladomorna","natural":"rock","sport":"climbing"}},"4431752034":{"lat":50.6127803,"lon":16.1125385,"ts":"2021-10-03T18:58:34Z","tz":1,"tags":{"name":"Starosta","name:pl":"Starosta","natural":"peak","sport":"climbing"}},"4431752035":{"lat":50.612884,"lon":16.1129904,"ts":"2021-10-03T18:58:34Z","tz":1,"tags":{"name":"Starostová","name:pl":"Starościna","natural":"peak","sport":"climbing"}},"4511355284":{"lat":50.6101719,"lon":16.1098851,"ts":"2016-11-20T00:22:34Z","tz":1,"tags":{"name":"Satan","natural":"rock","source":"gps","sport":"climbing"}},"4884166152":{"lat":50.6136337,"lon":16.1096451,"ts":"2017-05-29T19:36:40Z","tz":1,"tags":{"name":"Klubová","name:de":"Klubturm","natural":"peak","ref":"154","source":"gps","sport":"climbing"}},"6019189127":{"lat":50.616139,"lon":16.105806,"ts":"2018-10-28T11:29:37Z","tz":1,"tags":{"name":"Královna","name:de":"Königin","natural":"peak","sport":"climbing","website":"http://db-sandsteinklettern.gipfelbuch.de/weg.php?gipfelid=140"}},"6076309044":{"lat":50.6154722,"lon":16.1081944,"ts":"2018-11-20T13:28:15Z","tz":1,"tags":{"name":"Saská hlava","name:de":"Sachsenstein","natural":"peak","sport":"climbing","website":"http://db-sandsteinklettern.gipfelbuch.de/weg.php?gipfelid=230"}},"6083743839":{"lat":50.6155278,"lon":16.108,"ts":"2018-11-22T23:37:57Z","tz":1,"tags":{"name":"Česnek","name:de":"Knoblauch","natural":"peak","sport":"climbing","website":"http://db-sandsteinklettern.gipfelbuch.de/weg.php?gipfelid=3269"}},"6083744025":{"lat":50.6156111,"lon":16.1078889,"ts":"2018-11-22T23:40:57Z","tz":1,"tags":{"name":"Cibulová věž","name:de":"Zwiebelturm","natural":"peak","sport":"climbing","website":"http://db-sandsteinklettern.gipfelbuch.de/weg.php?gipfelid=175"}},"6083755651":{"lat":50.6151111,"lon":16.1062778,"ts":"2018-11-22T23:50:03Z","tz":1,"tags":{"name":"Járková","name:de":"Rillenturm","natural":"peak","sport":"climbing","website":"http://db-sandsteinklettern.gipfelbuch.de/weg.php?gipfelid=1082"}},"6083762775":{"lat":50.6156389,"lon":16.1059167,"ts":"2018-11-22T23:58:45Z","tz":1,"tags":{"name":"Místokrálík","name:de":"Vizekönig","natural":"peak","sport":"climbing","website":"http://db-sandsteinklettern.gipfelbuch.de/weg.php?gipfelid=3288"}},"6083776756":{"lat":50.6155556,"lon":16.1057778,"ts":"2018-11-23T00:01:16Z","tz":1,"tags":{"name":"Štolba","name:de":"Rittmeister","natural":"peak","sport":"climbing","website":"http://db-sandsteinklettern.gipfelbuch.de/weg.php?gipfelid=3291"}},"6083787309":{"lat":50.615446,"lon":16.109057,"ts":"2018-11-23T00:11:43Z","tz":1,"tags":{"name":"Vztyčená věž (Komunist)","name:de":"Emporturm (Kommunist)","natural":"peak","sport":"climbing","website":"http://db-sandsteinklettern.gipfelbuch.de/weg.php?gipfelid=3261"}},"6083792984":{"lat":50.5868333,"lon":16.1225833,"ts":"2021-04-12T07:32:52Z","tz":1,"tags":{"contact:website":"http://db-sandsteinklettern.gipfelbuch.de/weg.php?gipfelid=442","name":"Herinek","name:cs":"Herinek","name:de":"Hering","natural":"rock","sport":"climbing"}},"6085678296":{"lat":50.6243095,"lon":16.1261044,"ts":"2022-06-27T20:04:27Z","tz":1,"tags":{"climbing:trad":"9","name":"Páter","name:de":"Pater","natural":"peak","sport":"climbing","website":"http://db-sandsteinklettern.gipfelbuch.de/weg.php?gipfelid=5523"}},"6085683020":{"lat":50.6243889,"lon":16.1259167,"ts":"2022-06-27T20:04:27Z","tz":1,"tags":{"climbing:trad":"14","name":"Maják","name:de":"Waldblößenturm","natural":"peak","sport":"climbing","website":"http://db-sandsteinklettern.gipfelbuch.de/weg.php?gipfelid=482"}},"6086166138":{"lat":50.6155815,"lon":16.105917,"ts":"2018-11-23T17:58:52Z","tz":1,"tags":{"name":"Pumprdlík","name:de":"Knirps","natural":"peak","sport":"climbing","website":"http://db-sandsteinklettern.gipfelbuch.de/weg.php?gipfelid=3289"}},"6086173453":{"lat":50.6154709,"lon":16.1060276,"ts":"2018-11-23T18:01:50Z","tz":1,"tags":{"name":"Princátko","name:de":"Prinzchen","natural":"peak","sport":"climbing","website":"http://db-sandsteinklettern.gipfelbuch.de/weg.php?gipfelid=3290"}},"7900506647":{"lat":50.6225379,"lon":16.0327775,"ts":"2025-01-29T17:14:21Z","tz":1,"tags":{"name":"Skała Śmierci","natural":"rock","sport":"climbing"}},"8098203672":{"lat":50.571811,"lon":16.1405707,"ts":"2021-04-12T07:32:52Z","tz":1,"tags":{"name":"Barokní","natural":"rock","sport":"climbing"}},"8428033603":{"lat":50.5831066,"lon":16.1374882,"ts":"2021-04-12T07:32:52Z","tz":1,"tags":{"name":"Athos","natural":"rock","sport":"climbing"}},"8428033604":{"lat":50.5828123,"lon":16.1374638,"ts":"2021-04-12T07:32:52Z","tz":1,"tags":{"name":"Dartagnan","natural":"rock","sport":"climbing"}},"8428033605":{"lat":50.5826058,"lon":16.1373987,"ts":"2021-04-12T07:32:52Z","tz":1,"tags":{"name":"Portos","natural":"rock","sport":"climbing"}},"8428033606":{"lat":50.5818882,"lon":16.1371711,"ts":"2021-04-12T07:32:52Z","tz":1,"tags":{"name":"Aramis","natural":"rock","sport":"climbing"}},"8428038320":{"lat":50.5779565,"lon":16.1334444,"ts":"2021-04-12T07:32:52Z","tz":1,"tags":{"name":"Krásná vyhlídka","natural":"rock","sport":"climbing"}},"8428038322":{"lat":50.579195,"lon":16.1358068,"ts":"2021-04-12T07:32:52Z","tz":1,"tags":{"name":"Supí hnízdo","natural":"rock","sport":"climbing"}},"8428038323":{"lat":50.5723885,"lon":16.1487831,"ts":"2021-04-12T07:32:52Z","tz":1,"tags":{"name":"Kanovník","natural":"rock","sport":"climbing"}},"8437219715":{"lat":50.5763434,"lon":16.1281412,"ts":"2021-04-12T07:32:52Z","tz":1,"tags":{"name":"Holubice","natural":"rock","sport":"climbing"}},"8437219716":{"lat":50.5752018,"lon":16.1251317,"ts":"2021-04-12T07:32:52Z","tz":1,"tags":{"name":"Čapí hřebenáč","natural":"rock","sport":"climbing"}},"8437219817":{"lat":50.5713302,"lon":16.1431676,"ts":"2021-04-12T07:32:52Z","tz":1,"tags":{"name":"Strážce","natural":"rock","sport":"climbing"}},"8437219818":{"lat":50.5718672,"lon":16.141639,"ts":"2021-04-12T07:32:52Z","tz":1,"tags":{"name":"Humambo","natural":"rock","sport":"climbing"}},"8437219819":{"lat":50.5713818,"lon":16.1409479,"ts":"2021-04-12T07:32:52Z","tz":1,"tags":{"name":"Skaut","natural":"rock","sport":"climbing"}},"8437219820":{"lat":50.5724715,"lon":16.1413752,"ts":"2021-04-12T07:32:52Z","tz":1,"tags":{"name":"Jezerní","natural":"rock","sport":"climbing"}},"8437219821":{"lat":50.5720583,"lon":16.1422448,"ts":"2021-04-12T07:32:52Z","tz":1,"tags":{"name":"Růže","natural":"rock","sport":"climbing"}},"8437219822":{"lat":50.5720247,"lon":16.1421106,"ts":"2021-04-12T07:32:52Z","tz":1,"tags":{"name":"Trn","natural":"rock","sport":"climbing"}},"8437219823":{"lat":50.5712166,"lon":16.1424277,"ts":"2021-04-12T07:32:52Z","tz":1,"tags":{"name":"Beata","natural":"rock","sport":"climbing"}},"8437219824":{"lat":50.5714825,"lon":16.1426554,"ts":"2021-04-12T07:32:52Z","tz":1,"tags":{"name":"Kuchyň","natural":"rock","sport":"climbing"}},"8437219825":{"lat":50.5718156,"lon":16.141765,"ts":"2021-04-12T07:32:52Z","tz":1,"tags":{"name":"Kobra","natural":"rock","sport":"climbing"}},"8437219826":{"lat":50.5721487,"lon":16.1421228,"ts":"2021-04-12T07:32:52Z","tz":1,"tags":{"name":"Lump","natural":"rock","sport":"climbing"}},"8437219827":{"lat":50.5725586,"lon":16.1416045,"ts":"2021-04-12T07:32:52Z","tz":1,"tags":{"name":"Rákosníček","natural":"rock","sport":"climbing"}},"8437219828":{"lat":50.5735561,"lon":16.1439539,"ts":"2021-04-12T07:32:52Z","tz":1,"tags":{"name":"Hlídač Váhy","natural":"rock","sport":"climbing"}},"8437219829":{"lat":50.5728195,"lon":16.1424168,"ts":"2021-04-12T07:32:52Z","tz":1,"tags":{"name":"Kukačka","natural":"rock","sport":"climbing"}},"8437219830":{"lat":50.5729297,"lon":16.1427884,"ts":"2021-04-12T07:32:52Z","tz":1,"tags":{"name":"Spirálová","natural":"rock","sport":"climbing"}},"8437219831":{"lat":50.5721151,"lon":16.1405145,"ts":"2021-04-12T07:32:52Z","tz":1,"tags":{"name":"Páže","natural":"rock","sport":"climbing"}},"8437219832":{"lat":50.5721875,"lon":16.1406963,"ts":"2021-04-12T07:32:52Z","tz":1,"tags":{"name":"Srna","natural":"rock","sport":"climbing"}},"8437219833":{"lat":50.5720466,"lon":16.1406254,"ts":"2021-04-12T07:32:52Z","tz":1,"tags":{"name":"Šikmá","natural":"rock","sport":"climbing"}},"8437219834":{"lat":50.5716611,"lon":16.1410629,"ts":"2021-04-12T07:32:52Z","tz":1,"tags":{"name":"Velká Bašta","natural":"rock","sport":"climbing"}},"8437219835":{"lat":50.5719276,"lon":16.1473466,"ts":"2021-04-12T07:32:52Z","tz":1,"tags":{"name":"Latrínová","natural":"rock","sport":"climbing"}},"8437219836":{"lat":50.5720579,"lon":16.1417954,"ts":"2021-04-12T07:32:52Z","tz":1,"tags":{"name":"Blecha","natural":"rock","sport":"climbing"}},"8437219837":{"lat":50.5721773,"lon":16.1416444,"ts":"2021-04-12T07:32:52Z","tz":1,"tags":{"name":"Rusalka","natural":"rock","sport":"climbing"}},"8437219838":{"lat":50.5720735,"lon":16.1414565,"ts":"2021-04-12T07:32:52Z","tz":1,"tags":{"name":"Vodník","natural":"rock","sport":"climbing"}},"8437219839":{"lat":50.5720775,"lon":16.1424671,"ts":"2021-04-12T07:32:52Z","tz":1,"tags":{"name":"Větrná","natural":"rock","sport":"climbing"}},"8437219840":{"lat":50.5717233,"lon":16.1430771,"ts":"2021-04-12T07:32:52Z","tz":1,"tags":{"name":"Biskupská stolice","natural":"rock","sport":"climbing"}},"8437219841":{"lat":50.5718935,"lon":16.1425102,"ts":"2021-04-12T07:32:52Z","tz":1,"tags":{"name":"Babka","natural":"rock","sport":"climbing"}},"8437219842":{"lat":50.5713163,"lon":16.1423315,"ts":"2021-04-12T07:32:52Z","tz":1,"tags":{"name":"Kuchtík","natural":"rock","sport":"climbing"}},"11232628711":{"lat":50.6083685,"lon":16.1167121,"ts":"2023-10-01T21:34:15Z","tz":1,"tags":{"name":"Karp","natural":"peak","ref":"49","source":"gps","sport":"climbing"}},"12040545508":{"lat":50.5604793,"lon":15.9800681,"ts":"2024-07-07T20:13:54Z","tz":1,"tags":{"author":"D. Horák, 2010","climbing":"route_bottom","climbing:grade:saxon":"VI","name":"Cesta do pravěku","sport":"climbing","website":"https://www.horosvaz.cz/skaly-cesta-113868/"}},"12040545509":{"lat":50.5604944,"lon":15.9800821,"ts":"2024-07-07T20:13:54Z","tz":1,"tags":{"author":"D. Horák, D. Petrák, 2009","climbing":"route_bottom","climbing:grade:saxon":"VIIb","name":"Držgrešle","sport":"climbing","website":"https://www.horosvaz.cz/skaly-cesta-113867/"}},"12040545510":{"lat":50.5605094,"lon":15.9800961,"ts":"2024-07-07T20:13:54Z","tz":1,"tags":{"author":"Autoři neznámí","climbing":"route_bottom","climbing:grade:saxon":"VIIIa","name":"Titánská hrana","sport":"climbing","website":"https://www.horosvaz.cz/skaly-cesta-113866/"}},"12040545511":{"lat":50.5605245,"lon":15.98011,"ts":"2024-07-07T20:13:54Z","tz":1,"tags":{"author":"D. Horák, D. Petrák, 2007","climbing":"route_bottom","climbing:grade:saxon":"IXc","name":"Dvě mince pro Chárona","sport":"climbing","website":"https://www.horosvaz.cz/skaly-cesta-113865/"}},"12040545512":{"lat":50.5605395,"lon":15.980124,"ts":"2024-07-07T20:13:54Z","tz":1,"tags":{"author":"D. Horák, D. Petrák, 2010","climbing":"route_bottom","climbing:grade:saxon":"VIIIa","name":"Kvádro","sport":"climbing","website":"https://www.horosvaz.cz/skaly-cesta-113864/"}},"12040545513":{"lat":50.5605546,"lon":15.980138,"ts":"2024-07-07T20:13:54Z","tz":1,"tags":{"author":"M. Votoček, D. Horák, 2010","climbing":"route_bottom","climbing:grade:saxon":"VIIIa","name":"Z lesa - var. Lišejem","sport":"climbing","website":"https://www.horosvaz.cz/skaly-cesta-113863/"}},"12040545514":{"lat":50.5605696,"lon":15.980152,"ts":"2024-07-07T20:13:54Z","tz":1,"tags":{"author":"Autoři neznámí","climbing":"route_bottom","climbing:grade:saxon":"VIIIa","name":"Z lesa","sport":"climbing","website":"https://www.horosvaz.cz/skaly-cesta-113862/"}},"12040545515":{"lat":50.5605846,"lon":15.980166,"ts":"2024-07-07T20:13:54Z","tz":1,"tags":{"author":"Autoři neznámí","climbing":"route_bottom","climbing:grade:saxon":"VIIb","name":"Rider","sport":"climbing","website":"https://www.horosvaz.cz/skaly-cesta-113860/"}},"12040545516":{"lat":50.5605997,"lon":15.9801799,"ts":"2024-07-07T20:13:54Z","tz":1,"tags":{"author":"Autoři neznámí","climbing":"route_bottom","climbing:grade:saxon":"VIIa","name":"Easy Rider","sport":"climbing","website":"https://www.horosvaz.cz/skaly-cesta-113859/"}},"12040545517":{"lat":50.5606147,"lon":15.9801939,"ts":"2024-07-07T20:13:54Z","tz":1,"tags":{"author":"Autoři neznámí","climbing":"route_bottom","climbing:grade:saxon":"VIIIa","name":"Hlavolam","sport":"climbing","website":"https://www.horosvaz.cz/skaly-cesta-113858/"}},"12040545518":{"lat":50.5606298,"lon":15.9802079,"ts":"2024-07-07T20:13:54Z","tz":1,"tags":{"author":"Jiří Pleskač, 1987","climbing":"route_bottom","climbing:grade:saxon":"VIIb","name":"Noc tuleních pásů","sport":"climbing","website":"https://www.horosvaz.cz/skaly-cesta-113804/"}},"12040545519":{"lat":50.5606449,"lon":15.9802218,"ts":"2024-07-07T20:13:54Z","tz":1,"tags":{"author":"D. Horák a D. Petrák, 2010","climbing":"route_bottom","climbing:grade:saxon":"VIIb","name":"Krucifix","sport":"climbing","website":"https://www.horosvaz.cz/skaly-cesta-113803/"}},"12040545520":{"lat":50.56066,"lon":15.9802357,"ts":"2024-07-07T20:13:54Z","tz":1,"tags":{"author":"D. Horák, D. Petrák a M. Votoček, 2009","climbing":"route_bottom","climbing:grade:saxon":"VIIb","name":"Mešinec","sport":"climbing","website":"https://www.horosvaz.cz/skaly-cesta-113802/"}},"12040545521":{"lat":50.5606752,"lon":15.9802496,"ts":"2024-07-07T20:13:54Z","tz":1,"tags":{"author":"D. Horák, D. Petrák, 2008","climbing":"route_bottom","climbing:grade:saxon":"VIIIa","name":"Zmijovka","sport":"climbing","website":"https://www.horosvaz.cz/skaly-cesta-113801/"}},"12040545522":{"lat":50.5606903,"lon":15.9802634,"ts":"2024-07-07T20:13:54Z","tz":1,"tags":{"author":"D. Horák, D. Petrák, 2008","climbing":"route_bottom","climbing:grade:saxon":"VIIIc","name":"Mít pod čepicí","sport":"climbing","website":"https://www.horosvaz.cz/skaly-cesta-113800/"}},"12040545523":{"lat":50.5607055,"lon":15.9802773,"ts":"2024-07-07T20:13:54Z","tz":1,"tags":{"author":"D. Horák, D. Petrák, 2009","climbing":"route_bottom","climbing:grade:saxon":"VIIIc","name":"Čtyři zlatý","sport":"climbing","website":"https://www.horosvaz.cz/skaly-cesta-113799/"}},"12040545524":{"lat":50.5607206,"lon":15.9802912,"ts":"2024-07-07T20:13:54Z","tz":1,"tags":{"author":"D. Horák, D. Petrák, 2009","climbing":"route_bottom","climbing:grade:saxon":"VIIIa","name":"Ty vole, nevím","sport":"climbing","website":"https://www.horosvaz.cz/skaly-cesta-113012/"}},"12040545525":{"lat":50.5607357,"lon":15.9803051,"ts":"2024-07-07T20:13:54Z","tz":1,"tags":{"author":"D. Horák, D. Petrák, 2008","climbing":"route_bottom","climbing:grade:saxon":"IXa","name":"Na prasáka do negace","sport":"climbing","website":"https://www.horosvaz.cz/skaly-cesta-113011/"}},"12040545526":{"lat":50.5607509,"lon":15.980319,"ts":"2024-07-07T20:13:54Z","tz":1,"tags":{"author":"D. Horák, D. Petrák, 2006","climbing":"route_bottom","climbing:grade:saxon":"VIIb","name":"Zánět spojivek","sport":"climbing","website":"https://www.horosvaz.cz/skaly-cesta-113010/"}},"12040545527":{"lat":50.560766,"lon":15.9803329,"ts":"2024-07-07T20:13:54Z","tz":1,"tags":{"author":"Čestmír Teichman, 1996","climbing":"route_bottom","climbing:grade:saxon":"VIIa","name":"Pink Floyd","sport":"climbing","website":"https://www.horosvaz.cz/skaly-cesta-109628/"}},"12040545528":{"lat":50.5607811,"lon":15.9803467,"ts":"2024-07-07T20:13:54Z","tz":1,"tags":{"author":"Autoři neznámí","climbing":"route_bottom","climbing:grade:saxon":"VIIIb","name":"Dilema","sport":"climbing","website":"https://www.horosvaz.cz/skaly-cesta-109627/"}},"12040545529":{"lat":50.5607963,"lon":15.9803606,"ts":"2024-07-07T20:13:54Z","tz":1,"tags":{"author":"Ján Smoleň a Pavel Wondráček, 26.08.2010","climbing":"route_bottom","climbing:grade:saxon":"VIIIc","name":"Rot punkt","sport":"climbing","website":"https://www.horosvaz.cz/skaly-cesta-109626/"}},"12040545530":{"lat":50.5608118,"lon":15.9803739,"ts":"2024-07-07T20:13:54Z","tz":1,"tags":{"author":"Autoři neznámí","climbing":"route_bottom","climbing:grade:saxon":"VIIIc","name":"Titanic","sport":"climbing","website":"https://www.horosvaz.cz/skaly-cesta-109625/"}},"12040545531":{"lat":50.5608309,"lon":15.9803813,"ts":"2024-07-07T20:13:54Z","tz":1,"tags":{"author":"Čestmír Teichman","climbing":"route_bottom","climbing:grade:saxon":"IXb","name":"Přízemní obtíže","sport":"climbing","website":"https://www.horosvaz.cz/skaly-cesta-109624/"}},"12040545532":{"lat":50.5608501,"lon":15.9803887,"ts":"2024-07-07T20:13:54Z","tz":1,"tags":{"author":"Čestmír Teichman","climbing":"route_bottom","climbing:grade:saxon":"IXc/Xa","name":"Dračí tanec","sport":"climbing","website":"https://www.horosvaz.cz/skaly-cesta-109623/"}},"12040545533":{"lat":50.5608693,"lon":15.9803961,"ts":"2024-07-07T20:13:54Z","tz":1,"tags":{"author":"Autoři neznámí","climbing":"route_bottom","climbing:grade:saxon":"IXa","name":"Klekání","sport":"climbing","website":"https://www.horosvaz.cz/skaly-cesta-109622/"}},"12040545534":{"lat":50.5608884,"lon":15.9804035,"ts":"2024-07-07T20:13:54Z","tz":1,"tags":{"author":"Autoři neznámí","climbing":"route_bottom","climbing:grade:saxon":"VIIa","name":"Stěnou","sport":"climbing","website":"https://www.horosvaz.cz/skaly-cesta-109621/"}},"12040545535":{"lat":50.5609076,"lon":15.9804109,"ts":"2024-07-07T20:13:54Z","tz":1,"tags":{"author":"Autoři neznámí","climbing":"route_bottom","climbing:grade:saxon":"VI","name":"Mozajka","sport":"climbing","website":"https://www.horosvaz.cz/skaly-cesta-109620/"}},"12040545536":{"lat":50.5609267,"lon":15.9804183,"ts":"2024-07-07T20:13:54Z","tz":1,"tags":{"author":"D. Petrák, D. Horák, M. Votoček, 2015","climbing":"route_bottom","climbing:grade:saxon":"VIIIa","name":"Diretka","sport":"climbing","website":"https://www.horosvaz.cz/skaly-cesta-109619/"}},"12040545537":{"lat":50.5609459,"lon":15.9804257,"ts":"2024-07-07T20:13:54Z","tz":1,"tags":{"author":"Autoři neznámí","climbing":"route_bottom","climbing:grade:saxon":"VIIa","name":"CIRKUS - variant","sport":"climbing","website":"https://www.horosvaz.cz/skaly-cesta-109618/"}},"12040545538":{"lat":50.5609651,"lon":15.9804331,"ts":"2024-07-07T20:13:54Z","tz":1,"tags":{"author":"Autoři neznámí","climbing":"route_bottom","climbing:grade:saxon":"VIIIc","name":"Cirkus","sport":"climbing","website":"https://www.horosvaz.cz/skaly-cesta-109617/"}},"12040545539":{"lat":50.5609842,"lon":15.9804405,"ts":"2024-07-07T20:13:54Z","tz":1,"tags":{"author":"D. Horák, M. Votoček, 2015","climbing":"route_bottom","climbing:grade:saxon":"IV","name":"Tréninková","sport":"climbing","website":"https://www.horosvaz.cz/skaly-cesta-109616/"}},"12040545540":{"lat":50.5610034,"lon":15.9804479,"ts":"2024-07-07T20:13:54Z","tz":1,"tags":{"author":"D. Petrák, T. Racek, 2015","climbing":"route_bottom","climbing:grade:saxon":"VIIIc","name":"Sportovka","sport":"climbing","website":"https://www.horosvaz.cz/skaly-cesta-109615/"}},"12040545541":{"lat":50.5610226,"lon":15.9804552,"ts":"2024-07-07T20:13:54Z","tz":1,"tags":{"author":"D. Petrák, T. Racek, 2015","climbing":"route_bottom","climbing:grade:saxon":"VI","name":"Kuchařská","sport":"climbing","website":"https://www.horosvaz.cz/skaly-cesta-109614/"}},"12040545542":{"lat":50.5610417,"lon":15.9804626,"ts":"2024-07-07T20:13:54Z","tz":1,"tags":{"author":"D. Horák, D. Petrák, 2016","climbing":"route_bottom","climbing:grade:saxon":"VIIIb","name":"Michelinská hvězda","sport":"climbing","website":"https://www.horosvaz.cz/skaly-cesta-109613/"}},"12040545543":{"lat":50.5610609,"lon":15.98047,"ts":"2024-07-07T20:13:54Z","tz":1,"tags":{"author":"Autoři neznámí","climbing":"route_bottom","climbing:grade:saxon":"VIIIb","name":"A je to!","sport":"climbing","website":"https://www.horosvaz.cz/skaly-cesta-109612/"}},"12040545544":{"lat":50.56108,"lon":15.9804774,"ts":"2024-07-07T20:13:54Z","tz":1,"tags":{"author":"D. Petrák, T. Racek, 2016","climbing":"route_bottom","climbing:grade:saxon":"VIIa","name":"Spárka","sport":"climbing","website":"https://www.horosvaz.cz/skaly-cesta-109611/"}},"12040545545":{"lat":50.5610992,"lon":15.9804848,"ts":"2024-07-07T20:13:54Z","tz":1,"tags":{"author":"D. Horák, D. Petrák, 2010","climbing":"route_bottom","climbing:grade:saxon":"VIIc","name":"Při hraně","sport":"climbing","website":"https://www.horosvaz.cz/skaly-cesta-109610/"}},"12040545546":{"lat":50.5611184,"lon":15.9804922,"ts":"2024-07-07T20:13:54Z","tz":1,"tags":{"author":"D. Petrák, D. Horák, 2015","climbing":"route_bottom","climbing:grade:saxon":"VI","name":"Jekor","sport":"climbing","website":"https://www.horosvaz.cz/skaly-cesta-109609/"}},"12040545547":{"lat":50.5611375,"lon":15.9804996,"ts":"2024-07-07T20:13:54Z","tz":1,"tags":{"author":"D. Horák, D. Petrák, 2015","climbing":"route_bottom","climbing:grade:saxon":"VIIa","name":"Peršan","sport":"climbing","website":"https://www.horosvaz.cz/skaly-cesta-109608/"}},"12040545548":{"lat":50.5611569,"lon":15.9805063,"ts":"2024-07-07T20:13:54Z","tz":1,"tags":{"author":"D. Horák, D. Petrák, 2006","climbing":"route_bottom","climbing:grade:saxon":"VIIIc","name":"Kořínková","sport":"climbing","website":"https://www.horosvaz.cz/skaly-cesta-109607/"}},"12040545549":{"lat":50.5611768,"lon":15.9805114,"ts":"2024-07-07T20:13:54Z","tz":1,"tags":{"author":"D. Horák, D. Petrák, 2006","climbing":"route_bottom","climbing:grade:saxon":"IXa","name":"Kořenová","sport":"climbing","website":"https://www.horosvaz.cz/skaly-cesta-109606/"}},"12040545550":{"lat":50.5611967,"lon":15.9805165,"ts":"2024-07-07T20:13:54Z","tz":1,"tags":{"author":"Petr Najman, 1972","climbing":"route_bottom","climbing:grade:saxon":"IV","name":"Čelní","sport":"climbing","website":"https://www.horosvaz.cz/skaly-cesta-58415/"}},"12040545551":{"lat":50.5612166,"lon":15.9805215,"ts":"2024-07-07T20:13:54Z","tz":1,"tags":{"author":"Josef Voděracký, J. Osif, 1969","climbing":"route_bottom","climbing:grade:saxon":"II","name":"Poslední","sport":"climbing","website":"https://www.horosvaz.cz/skaly-cesta-109605/"}},"12040545552":{"lat":50.5612365,"lon":15.9805266,"ts":"2024-07-07T20:13:54Z","tz":1,"tags":{"author":"Jiří Fiala, O. Nývlt, 1967","climbing":"route_bottom","climbing:grade:saxon":"II","name":"Oltář","sport":"climbing","website":"https://www.horosvaz.cz/skaly-cesta-109604/"}},"12040545553":{"lat":50.5612564,"lon":15.9805317,"ts":"2024-07-07T20:13:54Z","tz":1,"tags":{"author":"Otakar Hála, J. Osif, 1971","climbing":"route_bottom","climbing:grade:saxon":"VI","name":"Obrovský převis","sport":"climbing","website":"https://www.horosvaz.cz/skaly-cesta-109603/"}},"12040545554":{"lat":50.5612763,"lon":15.9805368,"ts":"2024-07-07T20:13:54Z","tz":1,"tags":{"author":"Josef Osif, 1967","climbing":"route_bottom","climbing:grade:saxon":"II","name":"Spára 47","sport":"climbing","website":"https://www.horosvaz.cz/skaly-cesta-109602/"}},"12040545555":{"lat":50.5612962,"lon":15.9805419,"ts":"2024-07-07T20:13:54Z","tz":1,"tags":{"author":"Josef Osif, 1970","climbing":"route_bottom","climbing:grade:saxon":"V","name":"Dědkova hrana","sport":"climbing","website":"https://www.horosvaz.cz/skaly-cesta-109601/"}},"12040545556":{"lat":50.5613161,"lon":15.980547,"ts":"2024-07-07T20:13:54Z","tz":1,"tags":{"author":"Josef Voděracký, J. Osif, 1970","climbing":"route_bottom","climbing:grade:saxon":"III","name":"Autostráda","sport":"climbing","website":"https://www.horosvaz.cz/skaly-cesta-109600/"}},"12040545557":{"lat":50.561336,"lon":15.980552,"ts":"2024-07-07T20:13:54Z","tz":1,"tags":{"author":"Josef Voděracký, 1970","climbing":"route_bottom","climbing:grade:saxon":"V","name":"Transport","sport":"climbing","website":"https://www.horosvaz.cz/skaly-cesta-109599/"}},"12040545558":{"lat":50.5613559,"lon":15.9805571,"ts":"2024-07-07T20:13:54Z","tz":1,"tags":{"author":"Josef Voděracký, J. Osif, 1970","climbing":"route_bottom","climbing:grade:saxon":"V","name":"Tatranský pilíř","sport":"climbing","website":"https://www.horosvaz.cz/skaly-cesta-109598/"}},"12040545559":{"lat":50.5613758,"lon":15.9805622,"ts":"2024-07-07T20:13:54Z","tz":1,"tags":{"author":"Josef Osif, 1969","climbing":"route_bottom","climbing:grade:saxon":"III","name":"Spára 42","sport":"climbing","website":"https://www.horosvaz.cz/skaly-cesta-109597/"}},"12040545560":{"lat":50.5613957,"lon":15.9805673,"ts":"2024-07-07T20:13:54Z","tz":1,"tags":{"author":"Jan Kuril, J. Osif, 1970","climbing":"route_bottom","climbing:grade:saxon":"III","name":"Spára 41","sport":"climbing","website":"https://www.horosvaz.cz/skaly-cesta-109596/"}},"12040545561":{"lat":50.5614156,"lon":15.9805724,"ts":"2024-07-07T20:13:54Z","tz":1,"tags":{"author":"úpičtí lezci, 1969","climbing":"route_bottom","climbing:grade:saxon":"V-VI","name":"Hrana","sport":"climbing","website":"https://www.horosvaz.cz/skaly-cesta-109595/"}},"12040545562":{"lat":50.5614355,"lon":15.9805775,"ts":"2024-07-07T20:13:54Z","tz":1,"tags":{"author":"Otakar Hála, J. Osif, 1972","climbing":"route_bottom","climbing:grade:saxon":"VIIIb","name":"Supr stěna","sport":"climbing","website":"https://www.horosvaz.cz/skaly-cesta-109594/"}},"12040545563":{"lat":50.5614554,"lon":15.9805825,"ts":"2024-07-07T20:13:54Z","tz":1,"tags":{"author":"František Otradovský, 1967","climbing":"route_bottom","climbing:grade:saxon":"III","name":"Komín 38","sport":"climbing","website":"https://www.horosvaz.cz/skaly-cesta-109566/"}},"12040545564":{"lat":50.5614753,"lon":15.9805876,"ts":"2024-07-07T20:13:54Z","tz":1,"tags":{"author":"Jiří Fiala, O. Nývlt, 1967","climbing":"route_bottom","climbing:grade:saxon":"V","name":"Dieta","sport":"climbing","website":"https://www.horosvaz.cz/skaly-cesta-109565/"}},"12040545565":{"lat":50.5614929,"lon":15.9805981,"ts":"2024-07-07T20:13:54Z","tz":1,"tags":{"author":"Josef Osif, J. Lokvenc, 1969","climbing":"route_bottom","climbing:grade:saxon":"III","name":"Komín 36","sport":"climbing","website":"https://www.horosvaz.cz/skaly-cesta-109564/"}},"12040545566":{"lat":50.5615104,"lon":15.9806089,"ts":"2024-07-07T20:13:54Z","tz":1,"tags":{"author":"Josef Voděracký, 1970","climbing":"route_bottom","climbing:grade:saxon":"V","name":"TAJNÁ - variant","sport":"climbing","website":"https://www.horosvaz.cz/skaly-cesta-109563/"}},"12040545567":{"lat":50.5615278,"lon":15.9806197,"ts":"2024-07-07T20:13:54Z","tz":1,"tags":{"author":"úpičtí lezci, 1969","climbing":"route_bottom","climbing:grade:saxon":"VIIa","name":"Tajná","sport":"climbing","website":"https://www.horosvaz.cz/skaly-cesta-109549/"}},"12040545568":{"lat":50.5615453,"lon":15.9806306,"ts":"2024-07-07T20:13:54Z","tz":1,"tags":{"author":"Libor Voděracký, J. Osif, 1970","climbing":"route_bottom","climbing:grade:saxon":"VIIa","name":"PALACHOVKA - variant","sport":"climbing","website":"https://www.horosvaz.cz/skaly-cesta-109548/"}},"12040549669":{"lat":50.5615628,"lon":15.9806414,"ts":"2024-07-07T20:13:54Z","tz":1,"tags":{"author":"Josef Voděracký, J. Osif, 1970","climbing":"route_bottom","climbing:grade:saxon":"VIIIc","name":"Palachovka","sport":"climbing","website":"https://www.horosvaz.cz/skaly-cesta-109547/"}},"12040549670":{"lat":50.5615802,"lon":15.9806522,"ts":"2024-07-07T20:13:54Z","tz":1,"tags":{"author":"Josef Osif, 1969","climbing":"route_bottom","climbing:grade:saxon":"II","name":"Komín 32","sport":"climbing","website":"https://www.horosvaz.cz/skaly-cesta-109546/"}},"12040549671":{"lat":50.5615977,"lon":15.980663,"ts":"2024-07-07T20:13:54Z","tz":1,"tags":{"author":"Josef Voděracký, 1969","climbing":"route_bottom","climbing:grade:saxon":"II","name":"Spáry","sport":"climbing","website":"https://www.horosvaz.cz/skaly-cesta-109545/"}},"12040549672":{"lat":50.5616152,"lon":15.9806738,"ts":"2024-07-07T20:13:54Z","tz":1,"tags":{"author":"Jiří Fiala, O. Nývlt, 1967","climbing":"route_bottom","climbing:grade:saxon":"III","name":"Koňadří","sport":"climbing","website":"https://www.horosvaz.cz/skaly-cesta-109544/"}},"12040549673":{"lat":50.5616326,"lon":15.9806846,"ts":"2024-07-07T20:13:54Z","tz":1,"tags":{"author":"Josef Osif, M. Zumr, 1968","climbing":"route_bottom","climbing:grade:saxon":"III","name":"Překrásná","sport":"climbing","website":"https://www.horosvaz.cz/skaly-cesta-109543/"}},"12040549674":{"lat":50.5616501,"lon":15.9806954,"ts":"2024-07-07T20:13:54Z","tz":1,"tags":{"author":"Josef Voděracký, J. Osif, 1970","climbing":"route_bottom","climbing:grade:saxon":"I","name":"Schody","sport":"climbing","website":"https://www.horosvaz.cz/skaly-cesta-109542/"}},"12040549675":{"lat":50.5616676,"lon":15.9807062,"ts":"2024-07-07T20:13:54Z","tz":1,"tags":{"author":"Josef Voděracký, J. Osif, 1969","climbing":"route_bottom","climbing:grade:saxon":"III","name":"Přechod","sport":"climbing","website":"https://www.horosvaz.cz/skaly-cesta-109541/"}},"12040549676":{"lat":50.561685,"lon":15.980717,"ts":"2024-07-07T20:13:54Z","tz":1,"tags":{"author":"Josef Osif, 1969","climbing":"route_bottom","climbing:grade:saxon":"II","name":"Snobská","sport":"climbing","website":"https://www.horosvaz.cz/skaly-cesta-109540/"}},"12040549677":{"lat":50.5617025,"lon":15.9807278,"ts":"2024-07-07T20:13:54Z","tz":1,"tags":{"author":"Josef Voděracký, 1969","climbing":"route_bottom","climbing:grade:saxon":"II","name":"Bludiště","sport":"climbing","website":"https://www.horosvaz.cz/skaly-cesta-109539/"}},"12040549678":{"lat":50.56172,"lon":15.9807386,"ts":"2024-07-07T20:13:54Z","tz":1,"tags":{"author":"Josef Osif, L. Voděracký, 1971","climbing":"route_bottom","climbing:grade:saxon":"V","name":"DÍVČÍ - variant","sport":"climbing","website":"https://www.horosvaz.cz/skaly-cesta-109538/"}},"12040549679":{"lat":50.5617374,"lon":15.9807494,"ts":"2024-07-07T20:13:54Z","tz":1,"tags":{"author":"Helena Žatečková, O. Nývlt, V. Janoušek, 1967","climbing":"route_bottom","climbing:grade:saxon":"III","name":"Dívčí","sport":"climbing","website":"https://www.horosvaz.cz/skaly-cesta-109537/"}},"12040549680":{"lat":50.5617549,"lon":15.9807602,"ts":"2024-07-07T20:13:54Z","tz":1,"tags":{"author":"Josef Voděracký, J. Osif, 1969","climbing":"route_bottom","climbing:grade:saxon":"V","name":"Rebus","sport":"climbing","website":"https://www.horosvaz.cz/skaly-cesta-109536/"}},"12040549681":{"lat":50.5617724,"lon":15.980771,"ts":"2024-07-07T20:13:54Z","tz":1,"tags":{"author":"Josef Voděracký, J. Osif, 1969","climbing":"route_bottom","climbing:grade:saxon":"III","name":"Dík","sport":"climbing","website":"https://www.horosvaz.cz/skaly-cesta-109535/"}},"12040549682":{"lat":50.5617898,"lon":15.9807818,"ts":"2024-07-07T20:13:54Z","tz":1,"tags":{"author":"Josef Voděracký, J. Osif, 1969","climbing":"route_bottom","climbing:grade:saxon":"IV","name":"KOUTOVÁ - variant","sport":"climbing","website":"https://www.horosvaz.cz/skaly-cesta-109534/"}},"12040549683":{"lat":50.5618073,"lon":15.9807926,"ts":"2024-07-07T20:13:54Z","tz":1,"tags":{"author":"Vladimír Janoušek, O. Nývlt, 1967","climbing":"route_bottom","climbing:grade:saxon":"V","name":"Koutová","sport":"climbing","website":"https://www.horosvaz.cz/skaly-cesta-109533/"}},"12040549684":{"lat":50.5618248,"lon":15.9808035,"ts":"2024-07-07T20:13:54Z","tz":1,"tags":{"author":"Josef Osif, P. Najman, 1971","climbing":"route_bottom","climbing:grade:saxon":"IV","name":"TUNELOVÁ - variant","sport":"climbing","website":"https://www.horosvaz.cz/skaly-cesta-109531/"}},"12040549685":{"lat":50.5618422,"lon":15.9808143,"ts":"2024-07-07T20:13:54Z","tz":1,"tags":{"author":"Josef Voděracký, J. Osif, 1968","climbing":"route_bottom","climbing:grade:saxon":"II","name":"Tunelová","sport":"climbing","website":"https://www.horosvaz.cz/skaly-cesta-109530/"}},"12040549686":{"lat":50.5618597,"lon":15.9808251,"ts":"2024-07-07T20:13:54Z","tz":1,"tags":{"author":"František Otradovský, P. Najman, 1970","climbing":"route_bottom","climbing:grade:saxon":"III","name":"Převislý komín","sport":"climbing","website":"https://www.horosvaz.cz/skaly-cesta-109529/"}},"12040549687":{"lat":50.5618772,"lon":15.9808359,"ts":"2024-07-07T20:13:54Z","tz":1,"tags":{"author":"Josef Osif, 1970","climbing":"route_bottom","climbing:grade:saxon":"III","name":"Motiv","sport":"climbing","website":"https://www.horosvaz.cz/skaly-cesta-109528/"}},"12040549688":{"lat":50.5618946,"lon":15.9808467,"ts":"2024-07-07T20:13:54Z","tz":1,"tags":{"author":"Oldřich Nývlt, 1969","climbing":"route_bottom","climbing:grade:saxon":"II","name":"Variace","sport":"climbing","website":"https://www.horosvaz.cz/skaly-cesta-109527/"}},"12040549689":{"lat":50.5619121,"lon":15.9808575,"ts":"2024-07-07T20:13:54Z","tz":1,"tags":{"author":"František Otradovský, 1969","climbing":"route_bottom","climbing:grade:saxon":"II","name":"Xantipa","sport":"climbing","website":"https://www.horosvaz.cz/skaly-cesta-109526/"}},"12040549690":{"lat":50.5619296,"lon":15.9808683,"ts":"2024-07-07T20:13:54Z","tz":1,"tags":{"author":"Josef Voděracký, J. Osif, 1969","climbing":"route_bottom","climbing:grade:saxon":"V","name":"Spára 15","sport":"climbing","website":"https://www.horosvaz.cz/skaly-cesta-109525/"}},"12040549691":{"lat":50.561947,"lon":15.9808791,"ts":"2024-07-07T20:13:54Z","tz":1,"tags":{"author":"Josef Voděracký, J. Osif, 1969","climbing":"route_bottom","climbing:grade:saxon":"V","name":"ZIMNÍ PĚTKA - variant","sport":"climbing","website":"https://www.horosvaz.cz/skaly-cesta-109532/"}},"12040549692":{"lat":50.5619645,"lon":15.9808899,"ts":"2024-07-07T20:13:54Z","tz":1,"tags":{"author":"Oldřich Nývlt, J. Fiala, 1967","climbing":"route_bottom","climbing:grade:saxon":"V","name":"Zimní pětka","sport":"climbing","website":"https://www.horosvaz.cz/skaly-cesta-109524/"}},"12040549693":{"lat":50.561982,"lon":15.9809007,"ts":"2024-07-07T20:13:54Z","tz":1,"tags":{"author":"Josef Osif, 1970","climbing":"route_bottom","climbing:grade:saxon":"V","name":"Hokejka","sport":"climbing","website":"https://www.horosvaz.cz/skaly-cesta-109523/"}},"12040549694":{"lat":50.5619994,"lon":15.9809115,"ts":"2024-07-07T20:13:54Z","tz":1,"tags":{"author":"Josef Voděracký, J. Osif, 1968","climbing":"route_bottom","climbing:grade:saxon":"V","name":"Veselá hrana","sport":"climbing","website":"https://www.horosvaz.cz/skaly-cesta-109522/"}},"12040549695":{"lat":50.5620169,"lon":15.9809223,"ts":"2024-07-07T20:13:54Z","tz":1,"tags":{"author":"Josef Voděracký, 1968","climbing":"route_bottom","climbing:grade:saxon":"II","name":"Komín 11","sport":"climbing","website":"https://www.horosvaz.cz/skaly-cesta-109521/"}},"12040549696":{"lat":50.5620344,"lon":15.9809331,"ts":"2024-07-07T20:13:54Z","tz":1,"tags":{"author":"Oldřich Nývlt, 1965","climbing":"route_bottom","climbing:grade:saxon":"II","name":"Lišejníkův komín","sport":"climbing","website":"https://www.horosvaz.cz/skaly-cesta-109520/"}},"12040549697":{"lat":50.5620518,"lon":15.9809439,"ts":"2024-07-07T20:13:54Z","tz":1,"tags":{"author":"Josef Voděracký, J. Osif, 1969","climbing":"route_bottom","climbing:grade:saxon":"VIIIb","name":"Upíří spár","sport":"climbing","website":"https://www.horosvaz.cz/skaly-cesta-109519/"}},"12040549698":{"lat":50.5620693,"lon":15.9809547,"ts":"2024-07-07T20:13:54Z","tz":1,"tags":{"climbing":"route_bottom","climbing:grade:saxon":"III","name":"Kout \"x\"","sport":"climbing","website":"https://www.horosvaz.cz/skaly-cesta-109518/"}},"12040549699":{"lat":50.5620868,"lon":15.9809655,"ts":"2024-07-07T20:13:54Z","tz":1,"tags":{"author":"Josef Osif, J. Voděracký, 1969","climbing":"route_bottom","climbing:grade:saxon":"V-VI","name":"Telegraf","sport":"climbing","website":"https://www.horosvaz.cz/skaly-cesta-109517/"}},"12040549700":{"lat":50.5621042,"lon":15.9809764,"ts":"2024-07-07T20:13:54Z","tz":1,"tags":{"author":"Josef Osif, 1970","climbing":"route_bottom","climbing:grade:saxon":"II","name":"Převislá","sport":"climbing","website":"https://www.horosvaz.cz/skaly-cesta-109516/"}},"12040549701":{"lat":50.5621217,"lon":15.9809872,"ts":"2024-07-07T20:13:54Z","tz":1,"tags":{"author":"Josef Osif, 1967","climbing":"route_bottom","climbing:grade:saxon":"II","name":"Průchodová","sport":"climbing","website":"https://www.horosvaz.cz/skaly-cesta-58416/"}},"12040549702":{"lat":50.5621392,"lon":15.980998,"ts":"2024-07-07T20:13:54Z","tz":1,"tags":{"author":"Josef Osif, J. Voděracký, 1969","climbing":"route_bottom","climbing:grade:saxon":"III","name":"Nečekaná","sport":"climbing","website":"https://www.horosvaz.cz/skaly-cesta-58417/"}},"12040549703":{"lat":50.5621566,"lon":15.9810088,"ts":"2024-07-07T20:13:54Z","tz":1,"tags":{"author":"František Otradovský, P. Najman, 1970","climbing":"route_bottom","climbing:grade:saxon":"III","name":"Komín 3","sport":"climbing","website":"https://www.horosvaz.cz/skaly-cesta-58418/"}},"12040549704":{"lat":50.5621741,"lon":15.9810196,"ts":"2024-07-07T20:13:54Z","tz":1,"tags":{"author":"František Otradovský, P. Najman, 1970","climbing":"route_bottom","climbing:grade:saxon":"V","name":"Cesta posledního kroku","sport":"climbing","website":"https://www.horosvaz.cz/skaly-cesta-58420/"}},"12040549705":{"lat":50.5621916,"lon":15.9810304,"ts":"2024-07-07T20:13:54Z","tz":1,"tags":{"author":"Autoři neznámí, 1963","climbing":"route_bottom","climbing:grade:saxon":"II","name":"Stará cesta","sport":"climbing","website":"https://www.horosvaz.cz/skaly-cesta-58419/"}},"12040549706":{"lat":50.562209,"lon":15.9810412,"ts":"2024-07-07T20:13:54Z","tz":1,"tags":{"author":"Michal Rohlík, D. Landgraf","climbing":"route_bottom","climbing:grade:saxon":"VIIIa","name":"Old boys","sport":"climbing","website":"https://www.horosvaz.cz/skaly-cesta-113009/"}}}