{"154210445":{"lat":45.8019075,"lon":15.9448397,"ts":"2024-09-04T15:08:15Z","tz":1,"tags":{"addr:city":"Zagreb","addr:housenumber":"6","addr:postcode":"10000","addr:street":"Zorkovaƒçka ulica","building":"yes","leisure":"sports_centre","name":"MoFit fitness studio","phone":"+385 1/3012-152","sport":"climbing"}},"237011161":{"lat":45.7801721,"lon":15.9685279,"ts":"2023-11-08T09:17:42Z","tz":1,"tags":{"alt_name":"Fothia 1","description":"umjetne stjene penjanje","email":"fothia@gmail.com","indoor":"yes","leisure":"sports_centre","name":"Fothia Velesajam","sport":"climbing","website":"https://www.fothia.hr/velesajam/"}},"1221118221":{"lat":45.7959714,"lon":16.023592,"ts":"2023-11-04T21:51:35Z","tz":1,"tags":{"addr:city":"Zagreb","addr:housenumber":"16","addr:street":"Slavonska avenija","building":"yes","climbing:boulder":"yes","email":"hive@hivebouldering.com","fee":"yes","indoor":"yes","leisure":"sports_centre","name":"The Hive","opening_hours":"Mo-Su 10:00-22:00","phone":"+385977494455","sport":"climbing","website":"https://hivebouldering.com/"}},"2016371535":{"lat":45.8103215,"lon":15.9648488,"ts":"2020-05-19T18:37:41Z","tz":1,"tags":{"name":"Vihor","sport":"climbing"}}}