{"32076945":{"location":[35.8110071,-78.8211505],"ts":"2023-02-03T20:43:10Z","tz":-5,"tags":{"addr:city":"Morrisville","addr:housenumber":"102","addr:postcode":"27560","addr:state":"NC","addr:street":"Pheasant Wood Court","building":"yes","leisure":"sports_centre","name":"Triangle Rock Club - Morrisville","operator":"Triangle Rock Club","operator:type":"business","sport":"climbing","website":"https://www.trianglerockclub.com/morrisville/"}},"44323505":{"location":[35.9373348,-79.0197041],"ts":"2023-10-21T21:10:07Z","tz":-5,"tags":{"addr:city":"Chapel Hill","addr:country":"US","addr:housenumber":"1713","addr:postcode":"27517","addr:state":"NC","addr:street":"Legion Road","attribution":"City of Chapel Hill (http://gis.townofchapelhill.org/disclaimer.asp?/download_data/)","building":"yes","charge":"$15","fee":"yes","leisure":"sports_centre","name":"Progression","source":"CCH","source:addr":"Chapel Hill Open Data","sport":"climbing"}},"2376693794":{"location":[35.8219051,-78.787459],"ts":"2018-10-19T15:14:18Z","tz":-5,"tags":{"climbing:boulder":"yes","climbing:rock":"artificial","leisure":"sports_centre","man_made":"tower","sport":"climbing","tower:type":"climbing"}},"10604904232":{"location":[35.9507087,-78.9245465],"ts":"2023-02-03T20:43:52Z","tz":-5,"tags":{"addr:city":"Durham","addr:housenumber":"1010","addr:postcode":"27713","addr:state":"NC","addr:street":"Martin Luther King Junior Parkway","addr:unit":"400","brand:wikipedia":"en:Planet Fitness","leisure":"sports_centre","name":"Triangle Rock Club - Durham","operator":"Triangle Rock Club","operator:type":"business","source:addr":"Durham Open Data","sport":"climbing","website":"https://www.trianglerockclub.com/durham/"}}}