{"322452801":{"location":[-33.7688257,151.1787726],"ts":"2021-09-27T00:50:01Z","tz":10,"tags":{"climbing":"crag","climbing:bolted":"yes","climbing:boulder":"yes","climbing:toprope":"yes","name":"Lindfield Rocks","natural":"cliff","source":"Survey","sport":"climbing"}},"618252132":{"location":[-33.8850891,151.1748793],"ts":"2023-05-28T09:05:12Z","tz":10,"tags":{"addr:housenumber":"12","addr:street":"Chester Street","addr:unit":"7","building":"warehouse","building:levels":"3","building:material":"brick","fee":"yes","leisure":"sports_centre","name":"NOMAD Bouldering Gym","opening_hours":"Mo-Fr 06:00-22:00; Sa-Su 08:00-21:30; PH 08:00-22:00","phone":"+61 402 670 784","sport":"climbing","website":"https://www.nomadbouldering.com.au/"}},"3275261798":{"location":[-33.9103195,151.1741698],"ts":"2025-03-03T21:44:53Z","tz":10,"tags":{"addr:housenumber":"1-7","addr:postcode":"2044","addr:street":"Unwins Bridge Road","addr:suburb":"St Peters","climbing:boulder":"yes","climbing:length:max":"25","climbing:routes":"420","climbing:sport":"120","climbing:toprope":"yes","email":"sicg2@hotmail.com","fax":"+61 2 9516 3894","fee":"yes","indoor":"yes","leisure":"sports_centre","name":"Sydney Indoor Climbing Gym St Peterâ€™s","opening_hours":"Mo-Fr 09:30-22:00; We 06:00-22:00; Th 09:30-23:00; Sa,Su 09:30-21:00; Dec 25 off; PH 09:30-19:00","phone":"+61 2 9519 3325","source":"knowledge","sport":"climbing","website":"https://indoorclimbing.com.au/stpeters/"}},"4115291422":{"location":[-33.8910382,151.1919507],"ts":"2025-03-03T21:46:53Z","tz":10,"tags":{"addr:country":"AU","addr:housenumber":"A30","addr:place":"The Arena Sports Centre","addr:postcode":"2008","addr:state":"NSW","addr:street":"Western Drive","addr:suburb":"Darlington","climbing:boulder":"yes","climbing:toprope":"yes","fee":"yes","indoor":"yes","leisure":"sports_centre","name":"SUSF The Ledge","opening_hours":"Mo-Fr 12:00-22:00; Sa 11:00-17:00","phone":"+61 2 9351 4960","sport":"climbing","website":"https://www.susf.com.au/the-ledge.html"}},"4115333570":{"location":[-33.818605,151.1896832],"ts":"2025-03-03T22:37:56Z","tz":10,"tags":{"addr:country":"AU","addr:housenumber":"12","addr:postcode":"2065","addr:state":"NSW","addr:street":"Frederick Street","addr:suburb":"St Leonards","addr:unit":"4","branch":"St Leonards","brand":"Climb Fit","climbing:boulder":"yes","climbing:sport":"yes","climbing:toprope":"yes","email":"info@climbfit.com.au","fee":"yes","indoor":"yes","leisure":"sports_centre","name":"Climb Fit","note:wheelchair":"wheelchair access is limited, can access the climbing area, but not gym or boldering","opening_hours":"Mo,Fr 06:00-22:00; Tu-Th 06:00-23:00; Sa,Su 08:00-20:00","personal_trainer":"yes","phone":"+61 2 9436 4600","shoes:rental":"yes","sport":"climbing","website":"https://www.climbfit.com.au/","wheelchair":"limited"}},"4127353279":{"location":[-33.7646244,151.2777125],"ts":"2025-03-03T22:40:33Z","tz":10,"tags":{"addr:country":"AU","addr:housenumber":"Unit 4E, 9-13","addr:place":"Winbourne Estate","addr:postcode":"2100","addr:state":"NSW","addr:street":"Winbourne Road","addr:suburb":"Brookvale","climbing:boulder":"yes","climbing:toprope":"yes","email":"info@rockhouse.com.au","fax":"+61 2 9905 2419","fee":"yes","indoor":"yes","leisure":"sports_centre","name":"Northern Beaches RockHouse Rock Climbing Centre","opening_hours":"Mo 16:00-22:00; Tu-Fr 12:00-22:00; Sa,Su 10:00-21:00","phone":"+61 2 9905 6202","sport":"climbing","website":"https://www.rockhouse.com.au/"}},"5624657599":{"location":[-33.887411,151.1861626],"ts":"2022-12-24T03:15:39Z","tz":10,"tags":{"leisure":"sports_centre","name":"The Ledge","sport":"climbing"}},"6960938256":{"location":[-33.7646188,151.2776804],"ts":"2023-11-10T23:28:12Z","tz":10,"tags":{"addr:housenumber":"9-13","addr:street":"Winbourne Road","addr:unit":"Unit 4E","name":"Northern Beaches Rockhouse","opening_hours":"Mo 16:00-22:00; Tu-Fr 12:00-22:00; Sa, Su 10:00-21:00","phone":"+61 2 9905 6202","sport":"climbing","website":"https://www.rockhouse.com.au/"}},"12085003611":{"location":[-33.8732969,151.2037755],"ts":"2024-07-31T11:35:35Z","tz":10,"tags":{"leisure":"sports_centre","sport":"climbing"}}}