{"360996538":{"lat":51.1758405,"lon":-115.5531528,"ts":"2022-11-21T13:58:20Z","tz":-7,"tags":{"name":"Tunnel Mountain","natural":"cliff","sport":"climbing"}},"362080642":{"lat":51.0819877,"lon":-115.3398441,"ts":"2022-02-25T07:35:16Z","tz":-7,"tags":{"addr:city":"Canmore","addr:housenumber":"50","addr:postcode":"T1W3E9","addr:province":"AB","addr:street":"Lincoln Park","addr:unit":"#200","building":"yes","fee":"yes","leisure":"sports_centre","name":"Yamnuska Mountain Adventures","sport":"climbing"}},"524538130":{"lat":51.1707487,"lon":-115.5545776,"ts":"2017-09-14T03:25:19Z","tz":-7,"tags":{"climbing":"route","highway":"path","name":"Dancing Sasquatch","source":"Brendan Clark"}},"558676433":{"lat":51.0641816,"lon":-115.3977547,"ts":"2024-10-28T02:45:48Z","tz":-7,"tags":{"climbing":"route","name":"Ha Ling NE Face Climbing Route","source":"Brendan Clark","sport":"climbing"}},"744757921":{"lat":51.0724596,"lon":-115.4073247,"ts":"2022-12-24T15:17:22Z","tz":-7,"tags":{"climbing":"crag","name":"Meathooks wall","sport":"climbing"}},"11410739144":{"lat":51.0887259,"lon":-115.350667,"ts":"2023-12-11T21:05:35Z","tz":-7,"tags":{"leisure":"sports_centre","sport":"climbing"}}}