{"1033805007":{"location":[53.6996396,-1.7817689],"ts":"2022-02-21T11:55:25Z","tz":0,"tags":{"addr:city":"Brighouse","addr:housename":"Old Flour Mill","addr:postcode":"HD6 1EY","addr:street":"Mill Royd Street","building":"yes","fee":"yes","leisure":"sports_centre","name":"Rokt Climbing Gym","phone":"+44 1484 717444","sport":"climbing","website":"https://www.rokt.co.uk/"}},"3103940233":{"location":[53.5890423,-1.9457198],"ts":"2014-11-09T20:57:35Z","tz":0,"tags":{"climbing:rock":"gritstone","climbing:trad":"yes","name":"Worlow Quarry","sport":"climbing"}},"3103940299":{"location":[53.5928603,-1.9535281],"ts":"2014-09-30T15:12:04Z","tz":0,"tags":{"climbing:rock":"gritstone","name":"Pule Hill","sport":"climbing"}},"10276815509":{"location":[53.5439472,-2.109317],"ts":"2022-12-20T22:19:36Z","tz":0,"tags":{"addr:city":"Oldham","addr:housename":"Summit Up","addr:postcode":"OL1 3SE","addr:street":"Egerton Street","leisure":"sports_centre","name":"Summit Up","sport":"climbing"}},"12725294441":{"location":[53.6470972,-1.7725283],"ts":"2025-04-03T10:32:08Z","tz":0,"tags":{"climbing:boulder":"yes","climbing:sport":"no","climbing:toprope":"no","email":"info@freeklime.co.uk","fee":"yes","leisure":"sports_centre","name":"Freeklime","opening_hours":"Mo-Fr 10:00-22:00; Sa-Su 10:00-20:00","payment:cards":"yes","payment:cash":"yes","payment:qr_code":"no","phone":"+44 1484 907026","sport":"climbing","website":"https://www.freeklime.co.uk/"}}}