{"76223324":{"lat":52.489329,"lon":-1.8958095,"ts":"2023-04-04T19:37:42Z","tz":0,"tags":{"addr:city":"Birmingham","addr:housenumber":"77","addr:postcode":"B19 3SU","addr:street":"Cecil Street","building":"yes","fhrs:id":"603166","leisure":"sports_centre","name":"Redpoint Climbing Centre","opening_hours":"Mo-Fr 10:00-22:00; Sa-Su 10:00-06:00","phone":"+44 121 359 1777","source":"cities_revealed_aerial_imagery","sport":"climbing","website":"https://www.redpointbirmingham.co.uk/"}},"1349625637":{"lat":52.5299521,"lon":-2.0246128,"ts":"2025-01-10T17:24:03Z","tz":0,"tags":{"access":"customers","addr:street":"Richmond Street South","building":"industrial","climbing:boulder":"yes","climbing:sport":"no","climbing:toprope":"no","climbing:trad":"no","fee":"yes","indoor":"yes","leisure":"sports_centre","name":"Boulder Central","sport":"climbing","website":"https://www.bouldercentral.co.uk/"}},"1607781163":{"lat":52.5080763,"lon":-1.8214461,"ts":"2019-06-19T23:02:25Z","tz":0,"tags":{"leisure":"sports_centre","name":"Scallywags","sport":"climbing"}},"2429373152":{"lat":52.5136591,"lon":-1.9366265,"ts":"2013-08-23T18:05:25Z","tz":0,"tags":{"amenity":"climbing_wall","source":"visual survey;bing","sport":"climbing"}},"3166867541":{"lat":52.489281,"lon":-1.895995,"ts":"2023-04-04T19:37:42Z","tz":0,"tags":{"addr:city":"Birmingham","addr:housenumber":"77","addr:postcode":"B19 3SU","addr:street":"Cecil Street","leisure":"climbing_hall","name":"Rock On","opening_hours":"Mo-Fr 12:00-21:00; Sa-Su 10:00-18:00","phone":"+44 121 369 8709","shop":"sports","sport":"climbing","website":"https://rockonclimbing.co.uk/shops/redpoint-shop/"}},"3177898078":{"lat":52.4860575,"lon":-1.902225,"ts":"2021-07-16T15:43:24Z","tz":0,"tags":{"addr:city":"Birmingham","addr:street":"Water Street","climbing":"boulder","leisure":"sports_centre","name":"Birmingham Bouldering Centre","opening_hours":"Mo-Fr 12:00-22:00; Sa, Su 11:00-18:00","phone":"+44 121 236 0533","sport":"climbing","website":"https://www.birminghamboulderingcentre.com/"}}}