{"525992639":{"lat":44.7464312,"lon":33.9026631,"ts":"2024-12-23T22:05:18Z","tz":2,"tags":{"climbing":"crag","leisure":"pitch","name":"Сестрички","name:en":"Sisters","name:ru":"Сестрички","name:uk":"Сестрички","sport":"climbing"}},"7426738859":{"lat":44.748301,"lon":33.9021617,"ts":"2023-05-02T23:08:00Z","tz":2,"tags":{"leisure":"pitch","name":"Башня","name:uk":"Вежа","sport":"climbing"}},"7426738860":{"lat":44.7481538,"lon":33.9018213,"ts":"2023-05-02T23:08:00Z","tz":2,"tags":{"leisure":"pitch","name":"Кит","name:uk":"Кіт","sport":"climbing"}},"7426738862":{"lat":44.74859,"lon":33.9021673,"ts":"2023-05-02T23:08:00Z","tz":2,"tags":{"leisure":"pitch","name":"Баллон","name:uk":"Балон","sport":"climbing"}},"7426738863":{"lat":44.7486738,"lon":33.9027628,"ts":"2023-05-02T23:08:00Z","tz":2,"tags":{"leisure":"pitch","name":"Линза","name:uk":"Лінза","sport":"climbing"}},"7426738864":{"lat":44.7484769,"lon":33.903035,"ts":"2023-05-02T23:08:00Z","tz":2,"tags":{"leisure":"pitch","name":"Завиток","name:uk":"Завиток","sport":"climbing"}},"7426738866":{"lat":44.7465704,"lon":33.9036875,"ts":"2023-05-02T23:08:00Z","tz":2,"tags":{"leisure":"pitch","name":"Альпинистов","name:uk":"Альпіністів","sport":"climbing"}},"7426738867":{"lat":44.7473204,"lon":33.8993619,"ts":"2023-05-02T23:08:00Z","tz":2,"tags":{"leisure":"pitch","name":"Стадион","name:uk":"Стадіон","sport":"climbing"}},"7426738868":{"lat":44.7464077,"lon":33.9013324,"ts":"2023-05-02T23:08:00Z","tz":2,"tags":{"leisure":"pitch","name":"Братишки","name:uk":"Братці","sport":"climbing"}},"7426738869":{"lat":44.7468476,"lon":33.8906374,"ts":"2023-05-02T23:08:00Z","tz":2,"tags":{"leisure":"sports_centre","name":"Мир","name:uk":"Мир","sport":"climbing"}},"9251198739":{"lat":44.7467447,"lon":33.9025815,"ts":"2023-05-02T23:08:00Z","tz":2,"tags":{"leisure":"pitch","name":"Сёстры","name:uk":"Сестри","sport":"climbing"}},"10287695210":{"lat":44.6843846,"lon":33.874512,"ts":"2023-05-02T23:08:00Z","tz":2,"tags":{"leisure":"sports_centre","name":"Алимова Балка","name:uk":"Алімова Балка","sport":"climbing"}}}