{"485298396":{"location":[44.3978485,33.7695615],"ts":"2023-05-02T21:10:56Z","tz":2,"tags":{"climbing":"crag","climbing:rock":"limestone","name":"Парус","name:en":"Parus","name:uk":"Вітрило","natural":"bare_rock"}},"485300405":{"location":[44.3989982,33.7687177],"ts":"2023-05-02T21:10:56Z","tz":2,"tags":{"climbing":"crag","climbing:rock":"limestone","name":"Малый Парус","name:en":"Maliy Parus","name:uk":"Малий Вітрило","natural":"bare_rock"}},"797616304":{"location":[44.4061782,33.7939356],"ts":"2020-04-28T17:31:11Z","tz":2,"tags":{"climbing":"route"}},"2360822489":{"location":[44.4167767,33.9111054],"ts":"2023-05-02T21:10:56Z","tz":2,"tags":{"climbing":"crag","leisure":"pitch","name":"Узун-Таш","name:en":"Zub Morcheki","name:ru":"Зуб Морчеки","name:uk":"Узун-Таш","natural":"rock","sport":"climbing","wikidata":"Q15981401","wikipedia":"ru:Узун-Таш"}},"2581423552":{"location":[44.4208846,33.8677699],"ts":"2023-05-02T23:08:00Z","tz":2,"tags":{"leisure":"sports_centre","name":"Горная школа \"Категория трудности\"","name:uk":"Гірська школа \"Категорія проблеми\"","sport":"climbing"}},"7459747491":{"location":[44.4063029,33.7939719],"ts":"2020-04-28T17:31:11Z","tz":2,"tags":{"climbing":"route_top"}},"7459747493":{"location":[44.4060536,33.7938993],"ts":"2020-04-28T17:31:11Z","tz":2,"tags":{"climbing":"route_bottom"}},"9286487262":{"location":[44.4800437,33.8812083],"ts":"2021-11-26T17:28:27Z","tz":2,"tags":{"natural":"cliff","sport":"climbing"}},"10287695209":{"location":[44.4170346,33.911309],"ts":"2022-12-26T14:57:42Z","tz":2,"tags":{"leisure":"sports_centre","sport":"climbing"}},"10289252625":{"location":[44.4007776,33.9943616],"ts":"2022-12-27T10:10:41Z","tz":2,"tags":{"leisure":"sports_centre","sport":"climbing"}},"10289252626":{"location":[44.4004213,33.9945334],"ts":"2023-05-02T23:08:00Z","tz":2,"tags":{"leisure":"sports_centre","name":"Крыло лебедя","name:uk":"Крило лебедя","sport":"climbing"}},"10289252627":{"location":[44.4019756,33.9947832],"ts":"2023-05-02T23:08:00Z","tz":2,"tags":{"leisure":"sports_centre","name":"Голова кошки","name:uk":"Голова кішки","sport":"climbing"}}}