{"536950881":{"location":[43.1745183,77.0244309],"ts":"2024-03-25T18:15:01Z","tz":6,"tags":{"landuse":"recreation_ground","name":"Скалы на Лесничестве","name:ru":"Скалы на Лесничестве","sport":"climbing"}},"1318132874":{"location":[43.0838209,77.0977425],"ts":"2025-08-02T16:51:02Z","tz":6,"tags":{"climbing":"route","climbing:grade:uiaa":"1","climbing:length":"15 m","climbing:rock":"granite","climbing:trad":"yes","name":"Амангельды 1Б с запада","name:ru":"Амангельды 1Б с запада","sport":"climbing"}},"1319956318":{"location":[43.0839565,77.0978907],"ts":"2025-08-02T16:51:02Z","tz":6,"tags":{"climbing":"route","climbing:grade:uiaa":"1","climbing:length":"80 m","climbing:rock":"granite","climbing:trad":"yes","sport":"climbing"}},"1319963070":{"location":[43.083984,77.0976942],"ts":"2025-08-02T16:51:02Z","tz":6,"tags":{"climbing":"route","climbing:grade:mixed":"M2+","climbing:grade:uiaa":"2","climbing:length":"50 m","climbing:rock":"granite","climbing:trad":"yes","name":"Амангельды 1Б с запада","name:ru":"Амангельды 1Б с запада","sport":"climbing","surface":"rock"}},"1327816539":{"location":[43.0832528,77.1042969],"ts":"2025-08-02T16:51:02Z","tz":6,"tags":{"climbing":"route","climbing:rock":"granite","climbing:trad":"yes","name":"1Б на пик Пионер","name:ru":"1Б на пик Пионер","sport":"climbing","surface":"rock"}},"1394161285":{"location":[43.0854651,77.1201611],"ts":"2025-08-02T16:51:02Z","tz":6,"tags":{"climbing":"route","climbing:rock":"granite","climbing:trad":"yes","name":"2А на пик Алматы","name:ru":"2А на пик Алматы","sport":"climbing","surface":"rock"}},"1419409480":{"location":[43.0973867,77.0853755],"ts":"2025-08-02T16:48:34Z","tz":6,"tags":{"climbing":"route","climbing:rock":"granite","climbing:trad":"yes","name":"1Б на Октябрёнок","name:en":"1B climbing route to Oktyabryonok","name:ru":"1Б на Октябрёнок","sport":"climbing","surface":"rock"}},"1419413346":{"location":[43.1005995,77.0828674],"ts":"2025-08-02T16:48:34Z","tz":6,"tags":{"climbing":"route","climbing:rock":"granite","climbing:trad":"yes","name":"2Б на Октябрёнок","name:en":"2B climbing route to Oktyabryonok","name:ru":"2Б на Октябрёнок","sport":"climbing","surface":"rock"}},"1419415403":{"location":[43.087441,77.0955685],"ts":"2025-08-02T17:03:25Z","tz":6,"tags":{"climbing":"route","climbing:rock":"granite","climbing:trad":"yes","name":"1Б на Хрищатого","name:en":"1B climbing route to Khrishchaty","name:ru":"1Б на Хрищатого","sport":"climbing"}}}