{"615234452":{"location":[40.1160525,-88.2377967],"ts":"2025-04-06T22:08:56Z","tz":-6,"tags":{"addr:city":"Champaign","addr:housenumber":"119","addr:postcode":"61821","addr:state":"IL","addr:street":"East University Avenue","building":"yes","climbing:boulder":"yes","leisure":"sports_centre","name":"Boneyard Boulders","opening_hours":"closed","second_hand":"yes","sport":"climbing","website":"https://www.urbanaboulders.com/"}},"1111808524":{"location":[40.1003936,-88.2360016],"ts":"2025-07-04T04:38:07Z","tz":-6,"tags":{"access":"customers","building":"no","climbing:boulder":"yes","climbing:sport":"yes","climbing:toprope":"yes","indoor":"room","leisure":"sports_centre","level":"0-2","name":"Rock Climbing Wall","sport":"climbing"}},"12544934197":{"location":[40.141486,-88.2408454],"ts":"2025-03-29T15:30:47Z","tz":-6,"tags":{"leisure":"sports_centre","sport":"climbing"}},"12729159172":{"location":[40.1251012,-88.2097017],"ts":"2025-04-04T15:17:24Z","tz":-6,"tags":{"leisure":"sports_centre","name":"AquaClimb Sport","sport":"climbing"}}}