{"277553731":{"location":[52.1001322,5.0709156],"ts":"2018-01-15T09:31:36Z","tz":1,"tags":{"building":"commercial","ref:bag":"344100000000984","source":"BAG","source:date":"2014-03-24","sport":"climbing","start_date":"1990"}},"446345996":{"location":[52.112852,5.031372],"ts":"2023-08-25T07:59:22Z","tz":1,"tags":{"building":"commercial","leisure":"sports_centre","ref:bag":"0344100000140989","source":"BAG","source:date":"2016-10-07","sport":"climbing","start_date":"2017"}},"2684765812":{"location":[52.0762437,5.1083846],"ts":"2024-05-22T17:55:28Z","tz":1,"tags":{"addr:city":"Utrecht","addr:housenumber":"4","addr:postcode":"3527LD","addr:street":"Koningin Wilhelminalaan","climbing":"bouldering","climbing:boulder":"yes","climbing:sport":"no","climbing:toprope":"no","climbing:traditional":"no","email":"info@boulderhalsterk.nl","fee":"yes","indoor":"yes","leisure":"sports_centre","name":"Boulderhal Sterk","opening_hours":"Mo-Su 08:00-00:00","phone":"+31 30 737 0615","source":"BAG","source:date":"2014-02-11","sport":"climbing","website":"https://www.boulderhalsterk.nl/"}},"2820530911":{"location":[52.099977,5.0709044],"ts":"2025-07-12T10:26:30Z","tz":1,"tags":{"addr:city":"Utrecht","addr:housenumber":"10A","addr:postcode":"3542AC","addr:street":"Elektronweg","climbing:boulder":"yes","climbing:toprope":"no","email":"info@boulderhalenergiehaven.nl","indoor":"yes","leisure":"sports_centre","name":"Boulderhal Energiehaven","opening_hours":"Mo-Fr 08:30-23:00; Sa-Su 08:30-22:00","phone":"+31 30 307 5750","source":"BAG","source:date":"2014-03-24","sport":"climbing","website":"https://www.boulderhalenergiehaven.nl/"}},"3023164192":{"location":[52.064597,5.1044248],"ts":"2025-03-06T10:06:19Z","tz":1,"tags":{"addr:city":"Utrecht","addr:housenumber":"2","addr:postcode":"3526AA","addr:street":"Vrieslantlaan","climbing":"bouldering","climbing:boulder":"yes","climbing:toprope":"no","climbing:traditional":"no","email":"info@boulderhalzuidhaven.nl","indoor":"yes","leisure":"sports_centre","name":"Boulderhal Zuidhaven","phone":"+31 30 307 8440","source":"BAG;local knowledge","source:date":"2014-08-17","sport":"climbing","website":"https://www.boulderhalzuidhaven.nl/"}},"4151770161":{"location":[52.0914021,5.1771337],"ts":"2024-04-02T20:02:51Z","tz":1,"tags":{"climbing:sport":"yes","fee":"yes","indoor":"no","leisure":"sports_centre","name":"Kalymnos","sport":"climbing","wheelchair":"limited"}},"4436352707":{"location":[52.1128319,5.0314177],"ts":"2021-03-22T22:06:58Z","tz":1,"tags":{"addr:city":"Vleuten","addr:housenumber":"6","addr:postcode":"3451SX","addr:street":"Componistenlaan","climbing:boulder":"yes","indoor":"yes","leisure":"sports_centre","name":"Neoliet Utrecht","opening_hours":"Mo-Tu 13:00-22:30, We 12:00-22:30, Th-Fr 13:00-22:30, Sa-Su 10:00-21:00","source":"BAG","source:date":"2016-10-07","sport":"climbing","website":"https://www.neoliet.nl/utrecht/"}},"5879742549":{"location":[52.1051887,5.0827563],"ts":"2023-05-10T07:48:32Z","tz":1,"tags":{"addr:city":"Utrecht","addr:housenumber":"52","addr:postcode":"3534AS","addr:street":"Schaverijstraat","email":"info@boulderhalsterk.nl","leisure":"sports_centre","name":"Boulderhal Sterk Spoor","opening_hours":"Mo-Fr 09:00-23:00; Sa, Su 09:00-19:00","phone":"+31 30 737 0196","source":"BAG","source:date":"2018-09-03","sport":"climbing","website":"https://www.boulderhalsterk.nl"}},"8213953489":{"location":[52.1047122,5.0849112],"ts":"2020-12-10T14:49:47Z","tz":1,"tags":{"indoor":"yes","leisure":"sports_centre","name":"Klimmuur Utrecht","opening_hours":"Mo-Tu 19:00-23:30, We 12:00-23:30, Th-Fr 10:00-23:30, Sa 13:00-18:00, Su 10:00-21:00","sport":"climbing","website":"https://klimmuur-utrecht.nl/"}}}