{"268791755":{"location":[51.3321887,4.9467205],"ts":"2023-10-05T13:16:50Z","tz":1,"tags":{"access":"yes","alt_name":"Gustaaf","charge":"13 EUR; 120 EUR/10 times; 220 EUR/3 months; 330 EUR/6 months; 550 EUR/12 months","charge:child":"9 EUR; 220 EUR/12 months","charge:student":"11 EUR; 440 EUR/12 months","charge:youth":"10 EUR; 310 EUR/12 months","climbing:boulder":"yes","climbing:sport":"no","climbing:toprope":"no","climbing:trad":"no","email":"hallo@gustaafklimt.be","fee":"yes","indoor":"yes","leisure":"sports_centre","max_age:child":"12","max_age:youth":"18","name":"Gustaaf Klimt","opening_hours":"Mo 16:00-23:30; Tu-Fr 13:00-23:30; Sa 10:00-20:00; Su 10:00-22:00","outdoor":"yes","phone":"+32 14 94 67 40","service:climbing_shoes:rental":"yes","service:climbing_shoes:rental:fee":"yes","sport":"climbing","website":"https://gustaafklimt.be/"}},"6757157336":{"location":[51.3086332,4.9477318],"ts":"2025-04-09T14:32:12Z","tz":1,"tags":{"addr:city":"Turnhout","addr:country":"BE","addr:housenumber":"18/2","addr:postcode":"2300","addr:province":"Antwerpen","addr:street":"Steenweg op Zevendonk","climbing:height:max":"13","climbing:height:min":"8","climbing:length:max":"16","climbing:length:min":"8","climbing:toprope":"yes","leisure":"sports_centre","name":"Klim.T.","opening_hours":"Mo 18:30-20:30; We 20:30-23:00; Th 19:00-22:00; Su 14:00-17:00 \"once a month\"; PH off","opening_hours:url":"http://www.klimt.be/joomla3/info/openingsuren","sport":"climbing","website":"http://www.klimt.be/"}}}