{"58266307":{"location":[47.3513646,5.0655367],"ts":"2025-01-12T23:35:52Z","tz":1,"tags":{"addr:city":"Dijon","addr:housenumber":"14","addr:postcode":"21000","addr:street":"Impasse Boirac","building":"yes","climbing:boulder":"yes","climbing:sport":"yes","description":"Salle de blocs et voies","fee":"yes","leisure":"sports_centre","name":"Climb Up Dijon","opening_hours":"Mo-Fr 09:00-23:00; Sa, Su 09:00-21:00","phone":"+33 3 55 33 38 66","sport":"climbing","website":"https://dijon.climb-up.fr/"}},"131987459":{"location":[47.3361631,5.064676],"ts":"2025-01-13T00:08:13Z","tz":1,"tags":{"addr:city":"Dijon","addr:housenumber":"14","addr:postcode":"21000","addr:street":"Rue Marius Chanteur","building":"yes","check_date":"2024-10-07","climbing:sport":"yes","fee":"yes","indoor":"yes","leisure":"sports_centre","name":"Cime Altitude 245","opening_hours":"Mo-Fr 12:00-22:30; Sa-Su 10:00-19:00","operator":"UCPA","payment:cash":"yes","payment:credit_cards":"yes","phone":"+33 3 80 31 91 35","sport":"climbing","website":"https://nager-grimper.metropole-dijon.fr/accueil.html","wheelchair":"yes","wikidata":"Q2972408"}},"953602368":{"location":[47.3325245,5.0367719],"ts":"2021-06-11T23:27:30Z","tz":1,"tags":{"indoor":"wall","source":"Le ministère de la ville, de la jeunesse et des sports - 01/2018","sport":"climbing"}},"1208600553":{"location":[47.2945532,5.0227173],"ts":"2025-01-12T23:35:52Z","tz":1,"tags":{"addr:city":"Chenôve","addr:housenumber":"17","addr:postcode":"21300","addr:street":"Rue Nicolas Cugnot","building":"yes","climbing:boulder":"yes","climbing:sport":"no","fee":"yes","leisure":"sports_centre","membership":"yes","name":"Vertical'Art Dijon","opening_hours":"Mo-Fr 11:00-23:00; Sa-Su 09:00-21:00","phone":"+33380273689","sport":"climbing","website":"https://dijon.vertical-art.fr/","wheelchair":"yes"}},"2469517111":{"location":[47.3367291,4.9965346],"ts":"2013-09-24T01:04:40Z","tz":1,"tags":{"name":"Combe Valton","sport":"climbing"}},"2948096903":{"location":[47.3049653,5.0511324],"ts":"2023-02-16T00:32:05Z","tz":1,"tags":{"indoor":"yes","leisure":"sport_centre","man_made":"yes","source":"data.gouv.fr:Le ministère des droits des femmes, de la ville, de la jeunesse et des sports - 2014","sport":"climbing"}},"2948096929":{"location":[47.3097931,5.1163158],"ts":"2023-02-16T00:32:05Z","tz":1,"tags":{"indoor":"yes","leisure":"sport_centre","man_made":"yes","source":"data.gouv.fr:Le ministère des droits des femmes, de la ville, de la jeunesse et des sports - 2014","sport":"climbing"}},"2948117028":{"location":[47.3014521,5.1279429],"ts":"2023-02-16T00:32:05Z","tz":1,"tags":{"indoor":"yes","leisure":"sport_centre","man_made":"yes","source":"data.gouv.fr:Le ministère des droits des femmes, de la ville, de la jeunesse et des sports - 2014","sport":"climbing"}},"3359388463":{"location":[47.297979,5.0046305],"ts":"2023-02-16T00:32:05Z","tz":1,"tags":{"indoor":"yes","leisure":"sport_centre","man_made":"yes","source":"data.gouv.fr:Le ministère des droits des femmes, de la ville, de la jeunesse et des sports - 2014","sport":"climbing","surface":"asphalt"}},"3359437319":{"location":[47.3082451,5.0125008],"ts":"2023-02-16T00:32:05Z","tz":1,"tags":{"indoor":"yes","leisure":"sport_centre","man_made":"yes","source":"data.gouv.fr:Le ministère des droits des femmes, de la ville, de la jeunesse et des sports - 2014","sport":"climbing","surface":"concrete"}},"3359437321":{"location":[47.3085991,5.0152068],"ts":"2023-02-16T00:32:05Z","tz":1,"tags":{"indoor":"yes","leisure":"sport_centre","man_made":"yes","source":"data.gouv.fr:Le ministère des droits des femmes, de la ville, de la jeunesse et des sports - 2014","sport":"climbing"}},"3359437887":{"location":[47.3237376,4.9966169],"ts":"2023-02-16T00:32:05Z","tz":1,"tags":{"indoor":"yes","leisure":"sport_centre","man_made":"yes","source":"data.gouv.fr:Le ministère des droits des femmes, de la ville, de la jeunesse et des sports - 2014","sport":"climbing"}},"5676385397":{"location":[47.3704673,5.0130376],"ts":"2018-06-08T20:49:21Z","tz":1,"tags":{"name":"Ahuy","sport":"climbing"}}}