{"460117658":{"location":[43.3519257,5.2375014],"ts":"2016-12-17T00:48:33Z","tz":1,"tags":{"name":"La Boule","natural":"cliff","sport":"climbing"}},"460120627":{"location":[43.3330025,5.1849137],"ts":"2016-12-17T01:37:38Z","tz":1,"tags":{"name":"Falaise des Eaux Salées","natural":"cliff","sport":"climbing"}},"585247850":{"location":[43.5545206,5.1419412],"ts":"2023-03-27T16:49:20Z","tz":1,"tags":{"natural":"cliff","sport":"climbing"}},"1343526842":{"location":[43.3871122,5.1344322],"ts":"2024-12-18T16:49:57Z","tz":1,"tags":{"name":"Site d'escalade du Vallon du Grand Guargo","natural":"cliff","source":"Le ministère de la ville, de la jeunesse et des sports - 2024-11","sport":"climbing"}},"1343526844":{"location":[43.385991,5.1382925],"ts":"2024-12-18T16:49:57Z","tz":1,"tags":{"name":"Site d'escalade du Vallon du Milieu","natural":"cliff","source":"Le ministère de la ville, de la jeunesse et des sports - 2024-11","sport":"climbing"}},"2835707756":{"location":[43.4369057,5.046154],"ts":"2014-05-04T12:51:24Z","tz":1,"tags":{"leisure":"pitch","name":"Acrobranches","sport":"climbing"}},"4522319958":{"location":[43.3823613,5.1476582],"ts":"2016-11-26T14:02:52Z","tz":1,"tags":{"name":"Vallon du Saut","place":"locality","sport":"climbing"}},"9789082327":{"location":[43.3456115,5.2711968],"ts":"2022-06-01T20:35:08Z","tz":1,"tags":{"leisure":"sports_centre","name":"Figuerolles","sport":"climbing"}},"11078547417":{"location":[43.4282878,5.2649186],"ts":"2024-08-21T12:48:52Z","tz":1,"tags":{"addr:city":"Vitrolles","addr:housenumber":"Bâtiment F","addr:postcode":"13127","addr:street":"Chemin de la Bastide Blanche","climbing:boulder":"yes","contact:facebook":"https://www.facebook.com/blockoutvitrolles","contact:instagram":"https://www.instagram.com/blockoutvitrolles/","email":"contact.vitrolles@blockout.fr","leisure":"sports_centre","name":"Block'Out Vitrolles","opening_hours":"Mo-Fr 11:00-23:00; Sa-Su 09:00-21:00; ","operator":"Block'Out","operator:type":"private","payment:cash":"yes","payment:contactless":"yes","payment:credit_cards":"yes","payment:debit_cards":"yes","payment:notes":"yes","phone":"04 42 88 08 16","sport":"climbing","website":"https://www.blockout.fr/bo-vitrolles/","wheelchair":"yes"}},"12248281340":{"location":[43.3961984,5.2362395],"ts":"2024-10-13T13:30:03Z","tz":1,"tags":{"leisure":"sports_centre","source":"Le ministère de la ville, de la jeunesse et des sports - 2024-09","sport":"climbing"}}}