{"429945420":{"location":[54.603967,-3.0946388],"ts":"2025-08-04T21:51:01Z","tz":0,"tags":{"addr:city":"Keswick","addr:country":"GB","addr:county":"Cumbria","addr:place":"Goosewell Farm","addr:postcode":"CA12 4RN","building":"yes","check_date":"2025-08-04","fee":"yes","leisure":"sports_centre","name":"Keswick Climbing Wall & Activity Centre","opening_hours":"09:00-17:00","phone":"+44 17687 72000","sport":"climbing","website":"https://www.activity-centre.com/keswick-climbing-wall/"}},"8610376522":{"location":[54.6903978,-3.0059838],"ts":"2021-04-09T09:29:32Z","tz":0,"tags":{"natural":"stone","sport":"climbing"}},"8610376523":{"location":[54.6906396,-3.0030173],"ts":"2021-04-09T09:29:32Z","tz":0,"tags":{"natural":"stone","sport":"climbing"}},"8610376524":{"location":[54.6907791,-3.0027115],"ts":"2021-04-09T09:29:32Z","tz":0,"tags":{"natural":"stone","sport":"climbing"}},"8844418909":{"location":[54.6015256,-3.1397721],"ts":"2025-06-17T15:09:10Z","tz":0,"tags":{"addr:city":"Keswick","addr:postcode":"CA12 5EZ","addr:street":"Heads Road","check_date":"2025-06-17","climbing:boulder":"yes","climbing:sport":"yes","climbing:toprope":"yes","fee":"yes","indoor":"yes","leisure":"sports_centre","name":"Kong Adventure","phone":"+44 17687 75907","sport":"climbing","website":"https://www.kongadventure.com/"}}}