{"307104852":{"lat":41.8739302,"lon":0.8437112,"ts":"2022-11-26T03:01:29Z","tz":1,"tags":{"name":"Paret de l'Os","name:ca":"Paret de l'Os","natural":"cliff","sport":"climbing"}},"500949051":{"lat":41.8989553,"lon":0.8871255,"ts":"2022-11-27T04:42:11Z","tz":1,"tags":{"height":"35","name":"La Selva","name:ca":"La Selva","natural":"cliff","sport":"climbing"}},"536457969":{"lat":41.8734477,"lon":0.985833,"ts":"2017-10-28T18:42:40Z","tz":1,"tags":{"natural":"cliff","sport":"climbing"}},"831356869":{"lat":41.9312663,"lon":0.710807,"ts":"2020-07-28T18:00:07Z","tz":1,"tags":{"height":"20","name":"Jet Lag & Guacamole","natural":"cliff","sport":"climbing"}},"831367020":{"lat":41.9286174,"lon":0.7116049,"ts":"2020-07-28T18:54:43Z","tz":1,"tags":{"height":"25","name":"L'Obsessió de Tibar","natural":"cliff","sport":"climbing"}},"831367022":{"lat":41.9265924,"lon":0.7130501,"ts":"2020-07-28T18:54:43Z","tz":1,"tags":{"height":"25","name":"Bombó Suis","natural":"cliff","sport":"climbing"}},"831367023":{"lat":41.9272628,"lon":0.7125593,"ts":"2022-11-26T05:22:30Z","tz":1,"tags":{"height":"25","name":"Ànima Negra","name:ca":"Ànima Negra","natural":"cliff","sport":"climbing"}},"914442924":{"lat":41.8673208,"lon":0.9562816,"ts":"2021-03-08T08:11:04Z","tz":1,"tags":{"climbing:bolts":"yes","climbing:grade:french:max":"6b+","climbing:grade:french:min":"4b","climbing:length:max":"20","climbing:length:min":"10","climbing:orientation":"S","climbing:quality":"solid","climbing:rock":"limestone","climbing:sport":"18","indoor":"no","natural":"cliff","source":"survey;local knowledge","sport":"climbing"}},"922969314":{"lat":42.0212415,"lon":0.9799898,"ts":"2022-12-06T20:57:55Z","tz":1,"tags":{"climbing:bolted":"yes","climbing:grade:french:max":"7b","climbing:grade:french:min":"5a","climbing:length:max":"33","climbing:length:min":"12","climbing:orientation":"s","climbing:quality":"very good","climbing:rock":"limestone","climbing:sport":"73","natural":"cliff","source":"survey","sport":"climbing"}},"965435257":{"lat":41.9000181,"lon":0.8882055,"ts":"2021-07-18T20:09:53Z","tz":1,"tags":{"height":"22","name":"Sector Dexter","natural":"cliff","sport":"climbing"}},"965435258":{"lat":41.8995454,"lon":0.8879943,"ts":"2021-07-18T20:09:53Z","tz":1,"tags":{"height":"20","name":"Sector Fashion","natural":"cliff","sport":"climbing"}},"965435259":{"lat":41.9008277,"lon":0.8888841,"ts":"2021-07-18T20:09:53Z","tz":1,"tags":{"height":"25","name":"Capricho de Vicho","natural":"cliff","sport":"climbing"}},"965435261":{"lat":41.9027291,"lon":0.8897609,"ts":"2021-07-18T20:09:53Z","tz":1,"tags":{"height":"32","name":"Cingle de la Llum","natural":"cliff","sport":"climbing"}},"965435262":{"lat":41.9048124,"lon":0.8902306,"ts":"2021-07-18T20:09:53Z","tz":1,"tags":{"height":"8","name":"El Perrancot","natural":"cliff","sport":"climbing"}},"965435263":{"lat":41.9042792,"lon":0.8905914,"ts":"2022-11-26T03:01:32Z","tz":1,"tags":{"height":"40","name":"Paret dels Heretges","name:ca":"Paret dels Heretges","natural":"cliff","sport":"climbing"}},"965435265":{"lat":41.9052035,"lon":0.8912997,"ts":"2022-12-24T22:39:13Z","tz":1,"tags":{"height":"90","name":"El Puro","name:ca":"El Puro","natural":"cliff","sport":"climbing"}},"965435266":{"lat":41.904646,"lon":0.8908258,"ts":"2022-11-26T03:01:31Z","tz":1,"tags":{"height":"40","name":"Paret dels Heretges","name:ca":"Paret dels Heretges","natural":"cliff","sport":"climbing"}},"965435267":{"lat":41.9040137,"lon":0.8903774,"ts":"2023-01-22T22:02:40Z","tz":1,"tags":{"height":"35","name":"La Pera","name:ca":"La Pera","natural":"cliff","sport":"climbing"}},"965435269":{"lat":41.9040397,"lon":0.8902432,"ts":"2023-01-22T22:02:41Z","tz":1,"tags":{"height":"35","name":"La Pera","name:ca":"La Pera","natural":"cliff","sport":"climbing"}},"965435272":{"lat":41.9030835,"lon":0.8887668,"ts":"2022-11-26T03:01:21Z","tz":1,"tags":{"height":"25","name":"Marcant Estil","name:ca":"Marcant Estil","natural":"cliff","sport":"climbing"}},"965435273":{"lat":41.9010363,"lon":0.8874216,"ts":"2021-07-18T20:09:53Z","tz":1,"tags":{"height":"10","name":"San Juan","natural":"cliff","sport":"climbing"}},"965435274":{"lat":41.9007019,"lon":0.887826,"ts":"2023-04-01T10:08:45Z","tz":1,"tags":{"height":"30","name":"la Font","name:ca":"la Font","natural":"cliff","sport":"climbing"}},"965435275":{"lat":41.9003296,"lon":0.8873766,"ts":"2022-12-24T22:39:14Z","tz":1,"tags":{"height":"30","name":"La Blanca","name:ca":"La Blanca","natural":"cliff","sport":"climbing"}},"965435276":{"lat":41.8998395,"lon":0.8867383,"ts":"2021-07-18T20:09:53Z","tz":1,"tags":{"height":"25","name":"Sector Emotion","natural":"cliff","sport":"climbing"}},"965435277":{"lat":41.8996178,"lon":0.8856761,"ts":"2021-07-18T20:09:53Z","tz":1,"tags":{"height":"30","name":"Kuestelon la France","natural":"cliff","sport":"climbing"}},"6233576330":{"lat":42.0299807,"lon":0.7558883,"ts":"2019-01-24T16:40:05Z","tz":1,"tags":{"name":"Climbing site","sport":"climbing"}},"9515022464":{"lat":41.8671985,"lon":0.9558002,"ts":"2022-11-28T01:02:50Z","tz":1,"tags":{"climbing":"crag","name":"L'Indret","name:ca":"L'Indret","sport":"climbing"}},"9515022465":{"lat":41.8730069,"lon":0.9854534,"ts":"2022-11-26T03:50:17Z","tz":1,"tags":{"climbing":"crag","name":"Penyes de Mania","name:ca":"Penyes de Mania","sport":"climbing"}},"10856004907":{"lat":41.7962914,"lon":0.8100862,"ts":"2024-02-05T00:21:36Z","tz":1,"tags":{"addr:city":"Balaguer","addr:housenumber":"28","addr:postcode":"25600","addr:street":"Avinguda del Comte Jaume d'Urgell","leisure":"sports_centre","name":"Rocòdrom Boulder Balaguer","sport":"climbing"}}}