{"18940644":{"location":[41.2621592,0.9415437],"ts":"2025-04-04T08:05:53Z","tz":1,"tags":{"climbing":"area","name":"Siurana","type":"site"}},"182992398":{"location":[41.2608691,0.9432683],"ts":"2022-11-19T02:13:24Z","tz":1,"tags":{"name":"Can Marges","name:ca":"Can Marges","natural":"cliff","sport":"climbing"}},"238215851":{"location":[41.2657501,1.016078],"ts":"2023-02-18T09:39:49Z","tz":1,"tags":{"highway":"via_ferrata","natural":"cliff","sport":"climbing"}},"294870070":{"location":[41.2605719,0.9436648],"ts":"2022-11-19T02:13:23Z","tz":1,"tags":{"name":"Can Marges","name:ca":"Can Marges","natural":"cliff","sport":"climbing"}},"834234471":{"location":[41.2748253,0.7696668],"ts":"2024-06-07T06:28:33Z","tz":1,"tags":{"name":"Cingle dels Torroners","natural":"cliff","sport":"climbing"}},"1044163293":{"location":[41.2980705,0.7705088],"ts":"2022-03-26T09:18:51Z","tz":1,"tags":{"natural":"cliff","sport":"climbing"}},"1044163296":{"location":[41.2975929,0.777504],"ts":"2022-03-26T09:18:51Z","tz":1,"tags":{"natural":"cliff","sport":"climbing"}},"1132113661":{"location":[41.2585724,0.9364213],"ts":"2023-01-22T22:51:52Z","tz":1,"tags":{"material":"limestone","name":"Siurana","name:ca":"Siurana","sport":"climbing","type":"cliff"}},"1225394196":{"location":[41.2642471,0.9388531],"ts":"2023-11-20T09:52:36Z","tz":1,"tags":{"name":"Espero Primavera","natural":"cliff","sport":"climbing"}},"1290597872":{"location":[41.2949937,0.7747042],"ts":"2024-06-09T07:17:48Z","tz":1,"tags":{"natural":"cliff","sport":"climbing"}},"1290597879":{"location":[41.2966004,0.7723444],"ts":"2024-06-09T07:17:48Z","tz":1,"tags":{"name":"Can Pesafigues","natural":"cliff","sport":"climbing"}},"1290597880":{"location":[41.2960632,0.7728272],"ts":"2024-06-09T07:17:48Z","tz":1,"tags":{"name":"Can Verdures","natural":"cliff","sport":"climbing"}},"1290597881":{"location":[41.2955513,0.7734933],"ts":"2024-06-09T07:17:48Z","tz":1,"tags":{"name":"Cova Soleiada","natural":"cliff","sport":"climbing"}},"1292564281":{"location":[41.295962,0.7820004],"ts":"2024-06-15T07:37:37Z","tz":1,"tags":{"name":"Can Gueli","natural":"cliff","sport":"climbing"}},"1933364128":{"location":[41.2643096,0.9291228],"ts":"2020-12-09T09:33:47Z","tz":1,"tags":{"name":"L'Herbolari","natural":"cliff","sport":"climbing"}},"2609200003":{"location":[41.2615385,0.9044543],"ts":"2022-11-01T21:10:31Z","tz":1,"tags":{"addr:city":"Cornudella de Montsant","addr:housenumber":"41","addr:postcode":"43360","addr:street":"Avinguda del Priorat","name":"Goma2","opening_hours":"Tu-Sa 09:30-13:00,17:30-20:00; PH closed","phone":"+34 977 82 12 32","shop":"sports","sport":"climbing","website":"https://goma2.net","wheelchair":"limited"}},"3170888736":{"location":[41.2626951,0.9319262],"ts":"2021-12-06T06:41:37Z","tz":1,"tags":{"name":"Recingle del Tití","natural":"cliff","sport":"climbing"}},"4123999290":{"location":[41.2764351,0.7678741],"ts":"2023-11-30T20:05:47Z","tz":1,"tags":{"name":"4-Bloc del Pork","sport":"climbing","tourism":"attraction"}},"4131006207":{"location":[41.2901836,0.7800065],"ts":"2022-12-24T22:47:37Z","tz":1,"tags":{"addr:street":"Camí del Molí del Vilar","name":"La Catedral","name:ca":"La Catedral","sport":"climbing"}},"4131058211":{"location":[41.2931832,0.7797528],"ts":"2024-05-27T09:13:41Z","tz":1,"tags":{"addr:street":"Camí del Molí del Vilar","climbing:sport":"yes","name":"Can Regino","sport":"climbing"}},"4138939289":{"location":[41.2972168,0.7750501],"ts":"2023-11-30T20:00:42Z","tz":1,"tags":{"name":"10-Can Torxa","sport":"climbing","tourism":"attraction"}},"4144177338":{"location":[41.355072,0.9649112],"ts":"2022-11-26T09:44:26Z","tz":1,"tags":{"name":"Vilanova de Prades","name:ca":"Vilanova de Prades","sport":"climbing"}},"4144192708":{"location":[41.3494685,0.9456409],"ts":"2018-03-07T09:21:50Z","tz":1,"tags":{"name":"Sector Penya Alta","sport":"climbing"}},"6814184965":{"location":[41.2886276,0.7812553],"ts":"2019-09-21T14:54:51Z","tz":1,"tags":{"addr:street":"Camí del Molí del Vilar","climbing:sport":"yes","name":"La Visera","sport":"climbing"}},"6814184974":{"location":[41.2880328,0.7815345],"ts":"2022-11-26T05:55:10Z","tz":1,"tags":{"addr:street":"Camí del Molí del Vilar","climbing:sport":"yes","name":"Racó de la Coma Closa","name:ca":"Racó de la Coma Closa","sport":"climbing"}},"6827870826":{"location":[41.2959939,0.7862039],"ts":"2019-09-26T14:16:15Z","tz":1,"tags":{"climbing:sport":"yes","name":"Ca la Marta","sport":"climbing"}},"6827870839":{"location":[41.2947506,0.7887748],"ts":"2022-11-26T05:55:11Z","tz":1,"tags":{"climbing:sport":"yes","name":"Racó de la Taverna","name:ca":"Racó de la Taverna","sport":"climbing"}},"6827870841":{"location":[41.2917426,0.7789213],"ts":"2019-09-26T14:16:15Z","tz":1,"tags":{"addr:street":"Camí del Molí del Vilar","climbing:sport":"yes","name":"Neorural","sport":"climbing"}},"6827870874":{"location":[41.2937939,0.7898292],"ts":"2022-11-26T05:55:11Z","tz":1,"tags":{"climbing:sport":"yes","name":"Racó de la Taverna II","name:ca":"Racó de la Taverna II","sport":"climbing"}},"9337225066":{"location":[41.3018308,0.7743115],"ts":"2022-11-26T05:55:12Z","tz":1,"tags":{"name":"Racó de les Espadelles","name:ca":"Racó de les Espadelles","sport":"climbing"}},"9337249400":{"location":[41.3006863,0.782463],"ts":"2021-12-14T11:40:33Z","tz":1,"tags":{"name":"Bombo Taronja","sport":"climbing"}},"9337249401":{"location":[41.3003821,0.781823],"ts":"2022-11-26T05:55:01Z","tz":1,"tags":{"name":"Bona Vista","name:ca":"Bona Vista","sport":"climbing"}},"9337265048":{"location":[41.3008652,0.7794208],"ts":"2022-11-26T05:55:04Z","tz":1,"tags":{"name":"Cova del Cavall","name:ca":"Cova del Cavall","sport":"climbing"}},"9337269274":{"location":[41.3021147,0.7722525],"ts":"2021-12-14T11:30:21Z","tz":1,"tags":{"name":"Puntas Espadelles","sport":"climbing"}},"9337277051":{"location":[41.3007352,0.7783204],"ts":"2021-12-14T11:38:40Z","tz":1,"tags":{"name":"Soledad","sport":"climbing"}},"9337277052":{"location":[41.3010205,0.7767764],"ts":"2021-12-14T11:38:52Z","tz":1,"tags":{"name":"La Mainadera","sport":"climbing"}},"9568248610":{"location":[41.2507872,0.9449082],"ts":"2022-03-10T10:04:51Z","tz":1,"tags":{"name":"El Falcó","sport":"climbing"}},"10925756404":{"location":[41.2669438,0.9590217],"ts":"2023-05-25T08:02:12Z","tz":1,"tags":{"description":"Sports climbing","name":"El Didot","place":"locality","sport":"climbing"}},"11222864039":{"location":[41.3550655,0.9648318],"ts":"2024-05-26T13:31:34Z","tz":1,"tags":{"fee":"no","leisure":"sports_centre","name":"Vilanova de Prades","name:ca":"Vilanova de Prades","sport":"climbing"}}}