{"28899175":{"location":[52.0274117,1.2058998],"ts":"2024-01-04T13:18:29Z","tz":0,"tags":{"addr:city":"Ipswich","addr:housenumber":"8","addr:postcode":"IP3 9RU","addr:street":"Bermuda Road","building":"sports_centre","climbing:boulder":"yes","climbing:deepwater":"no","climbing:ice":"no","climbing:mixed":"no","climbing:multipitch":"no","climbing:sport":"no","climbing:toprope":"no","climbing:trad":"no","fee":"yes","fhrs:id":"1653024","leisure":"sports_centre","name":"Avid Climbing","opening_hours":"Mo-Fr 12:00-21:30; Sa-Su 10:00-18:00","phone":"+441473728675","sport":"climbing","website":"https://www.avidclimbing.co.uk/"}},"1126072859":{"location":[52.0278036,1.2188076],"ts":"2024-01-04T13:18:29Z","tz":0,"tags":{"addr:city":"Ipswich","addr:housenumber":"2","addr:postcode":"IP3 9ST","addr:street":"Berwick Road","building":"yes","fee":"yes","fhrs:id":"1653062","leisure":"sports_centre","name":"Clip n' Climb","phone":"+441473794530","sport":"climbing","website":"https://ipswich.clipnclimb.co.uk/"}},"11297977367":{"location":[51.9551468,1.3418757],"ts":"2023-10-29T14:30:42Z","tz":0,"tags":{"note":"Artifucial ricks for bouldering","sport":"climbing"}}}