{"84392839":{"location":[43.5356307,1.4057594],"ts":"2022-10-18T14:27:21Z","tz":1,"tags":{"addr:city":"Portet-sur-Garonne","addr:housenumber":"8","addr:postcode":"31120","addr:street":"Chemin des Genêts","building":"yes","email":"info@la-o-escalade.fr","fee":"yes","leisure":"sports_centre","name":"La Ô Escalade","opening_hours":"Mo-Fr 12:00-23:00; Sa 10:00-22:00; Su 10:00-20:00","phone":"+33 5 61 56 97 28","source":"cadastre-dgi-fr source : Direction Générale des Impôts - Cadastre. Mise à jour : 2010","sport":"climbing","website":"https://www.la-o-escalade.fr"}},"446557066":{"location":[43.5753277,1.3136146],"ts":"2022-10-02T20:07:05Z","tz":1,"tags":{"access":"members","building":"yes","leisure":"sports_centre","name":"Espace sportif Quéfets","source":"cadastre-dgi-fr source : Direction Générale des Impôts - Cadastre;mise à jour : 2022","sport":"climbing"}},"613555896":{"location":[43.56443,1.3891048],"ts":"2018-08-02T21:48:22Z","tz":1,"tags":{"leisure":"sports_centre","sport":"climbing"}},"9939293066":{"location":[43.4586509,1.3267496],"ts":"2023-03-10T04:50:17Z","tz":1,"tags":{"access":"yes","climbing":"crag","fee":"no","sport":"climbing"}},"10069338591":{"location":[43.5751076,1.3137808],"ts":"2022-10-02T20:12:09Z","tz":1,"tags":{"access":"members","club":"sport","email":"web@tag.asso.fr","name":"Tournefeuille Altitude Grimpe","phone":"+33 6 74 77 13 85","sport":"climbing"}},"10536841616":{"location":[43.4519143,1.3318286],"ts":"2023-01-10T12:35:13Z","tz":1,"tags":{"leisure":"sports_centre","sport":"climbing"}},"11076885868":{"location":[43.5733435,1.3770381],"ts":"2023-07-30T13:43:12Z","tz":1,"tags":{"leisure":"sports_centre","sport":"climbing"}}}