{"1175927718":{"location":[41.2399649,1.0623303],"ts":"2023-05-26T09:23:52Z","tz":1,"tags":{"name":"Can Pistola","natural":"cliff","sport":"climbing"}},"3505978608":{"location":[41.0796289,1.1286759],"ts":"2016-05-25T20:20:41Z","tz":1,"tags":{"leisure":"sports_centre","sport":"climbing"}},"5226991921":{"location":[41.1580129,1.1215946],"ts":"2023-11-10T21:58:13Z","tz":1,"tags":{"addr:city":"Reus","addr:housenumber":"24","addr:postcode":"43204","addr:province":"Tarragona","addr:street":"Carrer de Sabadell","climbing:boulder":"yes","email":"info@monobloc.es","leisure":"sports_centre","name":"Monobloc","name:ca":"Monobloc","phone":"+34 977 46 94 53","sport":"climbing","website":"https://www.monobloc.es/"}},"8111070795":{"location":[41.2342274,1.3454883],"ts":"2020-11-12T09:45:59Z","tz":1,"tags":{"sport":"climbing"}},"8111073139":{"location":[41.2378744,1.3406048],"ts":"2020-11-12T09:46:54Z","tz":1,"tags":{"sport":"climbing"}},"10137353834":{"location":[41.147016,1.1291169],"ts":"2023-05-08T13:52:43Z","tz":1,"tags":{"addr:city":"Reus","addr:housenumber":"37","addr:place":"Polígono Tecnoparc","addr:postcode":"43204","addr:province":"Tarragona","addr:street":"Calle Mèxic","climbing:sport":"yes","climbing:toprope":"yes","email":"info@rocodromslab.com","indoor":"yes","leisure":"sports_centre","name":"SLAB, SALA DE ESCALADA","phone":"+34 977 76 90 26","sport":"climbing","website":"https://rocodromslab.com/"}}}