{"16257435":{"location":[58.308066,11.4618153],"ts":"2023-08-30T13:14:30Z","tz":1,"tags":{"climbing":"area","name":"Trellebystrand Climbing","name:sv":"Trellebystrand Kl채ttring","type":"site"}},"1203313018":{"location":[58.3069929,11.4610011],"ts":"2023-08-29T21:54:56Z","tz":1,"tags":{"climbing":"crag","climbing:toprope":"yes","height":"4","name":"Lekplatsklippan","name:en":"Playground wall","natural":"cliff","sport":"climbing"}},"1203313019":{"location":[58.3079864,11.4620075],"ts":"2023-08-30T13:14:30Z","tz":1,"tags":{"climbing":"crag","climbing:sport":"yes","climbing:trad":"yes","fee":"yes","height":"13","name":"Camping Sydv채ggen","name:en":"Camping South Wall","natural":"cliff","opening_hours":"Mo-Su 10:00-21:00","sport":"climbing"}},"1203313020":{"location":[58.3086767,11.4628266],"ts":"2023-08-30T13:14:30Z","tz":1,"tags":{"climbing":"crag","climbing:sport":"yes","climbing:trad":"yes","fee":"yes","name":"Camping Nordv채ggen","name:en":"Camping North Wall","natural":"cliff","opening_hours":"Mo-Su 10:00-21:00","sport":"climbing"}},"1203313021":{"location":[58.3091096,11.4604422],"ts":"2023-08-29T21:22:16Z","tz":1,"tags":{"climbing":"crag","climbing:sport":"yes","climbing:trad":"yes","name":"Kalymnos","natural":"cliff","sport":"climbing"}},"1205959388":{"location":[58.3045328,11.4510287],"ts":"2023-09-07T19:41:26Z","tz":1,"tags":{"area":"yes","climbing":"crag","climbing:sport":"yes","climbing:trad":"yes","name":"Tr채leberget","sport":"climbing"}},"11157768889":{"location":[58.2977214,11.4434852],"ts":"2023-08-30T20:04:54Z","tz":1,"tags":{"climbing":"boulder","natural":"cliff"}}}