{"94522915":{"location":[48.0082965,11.5793406],"ts":"2016-02-21T16:38:44Z","tz":1,"tags":{"climbing:bolted":"no","climbing:length:max":"15","climbing:rock":"Nagelfluh","climbing:toprope":"yes","fee":"no","name":"Klettergarten Gleißental","natural":"cliff","note":"1 route gebohrt, sonst toprope","sport":"climbing"}},"121543439":{"location":[48.101213,11.3009173],"ts":"2025-02-24T19:56:26Z","tz":1,"tags":{"access":"yes","addr:city":"Gilching","addr:country":"DE","addr:housenumber":"18","addr:postcode":"82205","addr:street":"Frühlingstraße","building":"yes","climbing:boulder":"yes","climbing:length":"16","climbing:length:max":"16","climbing:sport":"yes","indoor":"yes","leisure":"sports_centre","name":"DAV Kletter- und Boulderzentrum","outdoor":"yes","sport":"climbing","website":"http://www.kletterzentrum-muenchen-west.de/"}},"167789487":{"location":[48.1070996,11.5458713],"ts":"2023-05-28T18:53:38Z","tz":1,"tags":{"alt_name":"Kletterhalle Thalkirchen","climbing:boulder":"yes","climbing:length:max":"25","climbing:sport":"yes","fee":"yes","leisure":"sports_centre","name":"DAV Kletter- und Boulderzentrum München-Süd","opening_hours":"Mo-Fr 07:00-23:00; PH,Sa,Su 08:00-23:00","operator":"DAV-Kletter- und Boulderzentren München e. V.","payment:cash":"yes","payment:credit_cards":"yes","sport":"climbing","website":"https://www.kbthalkirchen.de/","wheelchair":"no","wikimedia_commons":"Category:DAV Kletter- und Boulderzentrum München-Süd"}},"168904031":{"location":[48.1049017,11.4371132],"ts":"2020-09-11T22:41:11Z","tz":1,"tags":{"climbing:bolted":"yes","climbing:grade:uiaa:max":"9-","climbing:grade:uiaa:min":"4","climbing:length":"10","climbing:sport":"30","fee":"yes","leisure":"pitch","name":"Kletterturm","opening_hours":"Apr-Oct: Tu,We,Fr 16:00-20:00; Sa 15:00-18:00; Su 10:00-16:00; Nov-Mar: off","operator":"Naturfreunde Würmtal e.V.","outdoor":"yes","sport":"climbing","website":"https://www.nfwt.de/index.php?menuid=23"}},"240492971":{"location":[48.028597,11.4988111],"ts":"2024-12-24T12:04:19Z","tz":1,"tags":{"access":"no","climbing":"crag","description":"Wegen Felssturz im Mai 2023 gesperrt","geological":"palaeontological_site","name":"Klettergarten Baierbrunn","natural":"cliff","sport":"climbing","website":"https://www.baierbrunn.org/app/download/16720567522/Klettergartensperrverordnung.pdf?t=1726674198","wikidata":"Q42399912","wikipedia":"de:Klettergarten Baierbrunn"}},"342211042":{"location":[48.1405664,11.5227977],"ts":"2023-01-21T16:52:57Z","tz":1,"tags":{"addr:city":"München","addr:country":"DE","addr:housenumber":"185","addr:postcode":"80687","addr:street":"Landsberger Straße","climbing:boulder":"yes","climbing:sport":"no","climbing:toprope":"no","climbing:traditional":"no","email":"muenchen@einstein-boulder.com","leisure":"sports_centre","name":"Einstein Boulderhalle","name:en":"Einstein Bouldering Centre","opening_hours":"Mo-Fr 06:00-23:00; Sa-Su 09:00-23:00","phone":"+498930701750","sport":"climbing","website":"https://muenchen.einstein-boulder.com/"}},"363118184":{"location":[48.1456953,11.5086089],"ts":"2016-07-05T20:54:38Z","tz":1,"tags":{"barrier":"wall","climbing":"boulder","height":"4 m","sport":"climbing"}},"367800762":{"location":[48.1831043,11.3172135],"ts":"2025-04-26T07:39:12Z","tz":1,"tags":{"access":"yes","description":"Die Brücke wurde 1939 gebaut, als Überführung für die Straße über Gleise, die zum Münchner Nordring für den Güterverkehr gehörten.","historic":"ruins","historic:civilization":"modern","inscription":"Graffiti","leisure":"pitch","level":"1","lit":"no","man_made":"bridge","noname":"yes","note":"Die Bezeichnung \"Hitlerbrücke\" im Volksmund hat keine ideologische Bedeutung, sondern bezieht sich auf die Zeit, in der das Bauwerk entstand. Die Brücke ist nie offiziell getauft worden.","ruins":"building","sport":"climbing","start_date":"1939"}},"378868629":{"location":[48.2189896,11.5533647],"ts":"2025-01-12T17:13:37Z","tz":1,"tags":{"description":"mehrere kleine Kletterwände","opening_hours":"24/7","sport":"climbing","wheelchair":"no"}},"429377317":{"location":[48.1456974,11.5085891],"ts":"2022-10-30T14:59:00Z","tz":1,"tags":{"climbing":"boulder","leisure":"pitch","lit":"no","sport":"climbing","surface":"sand"}},"488094371":{"location":[48.1819166,11.5317454],"ts":"2024-11-29T11:12:17Z","tz":1,"tags":{"access":"yes","leisure":"pitch","name":"Kletterwand","sport":"climbing"}},"514302136":{"location":[48.1099023,11.5293647],"ts":"2023-09-25T19:45:53Z","tz":1,"tags":{"barrier":"wall","sport":"climbing"}},"556555702":{"location":[48.0163989,11.3541716],"ts":"2023-11-06T00:36:29Z","tz":1,"tags":{"leisure":"sports_centre","man_made":"tower","name":"Kletterturm DAV-Sektion Starnberg","operator":"DAV Starnberg","sport":"climbing","start_date":"2015","tower:type":"climbing","website":"https://dav-starnberg.de/index.php/klettern-bouldern/kletterturm"}},"589840354":{"location":[48.136788,11.4206625],"ts":"2024-11-05T12:35:53Z","tz":1,"tags":{"fitness_station":"horizontal_ladder","leisure":"fitness_station","lit":"yes","name":"Außengelände Boulderwelt München West","sport":"climbing","website":"https://www.boulderwelt-muenchen-west.de/","wheelchair":"limited"}},"654654241":{"location":[48.1393158,11.5942906],"ts":"2025-03-09T20:20:43Z","tz":1,"tags":{"access":"unknown","barrier":"stile","climbing":"yes","step_count":"17","stile":"ladder"}},"890767791":{"location":[48.1629811,11.5773865],"ts":"2010-08-31T17:55:25Z","tz":1,"tags":{"height":"4 m","sport":"climbing"}},"924510110":{"location":[48.0106917,11.5802158],"ts":"2021-03-31T19:20:14Z","tz":1,"tags":{"climbing":"no","height":"5","natural":"cliff"}},"1365331869":{"location":[48.1777235,11.5804843],"ts":"2025-03-07T16:13:27Z","tz":1,"tags":{"climbing":"boulder","climbing:boulder":"yes","sport":"climbing"}},"2514841193":{"location":[48.2144476,11.3491111],"ts":"2024-01-05T10:38:10Z","tz":1,"tags":{"name":"Kletterwand","playground":"climbingwall","sport":"climbing"}},"2832326069":{"location":[48.135248,11.589425],"ts":"2014-05-02T19:19:12Z","tz":1,"tags":{"climbing:rock":"granite","description":"herbeitransportierter Stein zum Bouldern","height":"3","natural":"stone","sport":"climbing"}},"3929291640":{"location":[48.1069927,11.5458093],"ts":"2023-01-21T16:53:06Z","tz":1,"tags":{"addr:city":"München","addr:country":"DE","addr:housenumber":"207","addr:postcode":"81371","addr:street":"Thalkirchner Straße","club":"yes","contact:fax":"+49 89189416329","contact:phone":"+49 8918941630","contact:website":"https://www.verbundklettern.de/","name":"Trägerverein der Münchner Sektionen für die DAV-Kletteranlage München-Thalkirchen e.V.","sport":"climbing"}},"5551485260":{"location":[48.1788937,11.5390588],"ts":"2018-04-13T23:05:55Z","tz":1,"tags":{"climbing:bolted":"yes","climbing:dry_tooling":"yes","layer":"1","name":"Dry Tooling Routen","outdoor":"yes","source":"survey","sport":"climbing"}},"5697131665":{"location":[48.1231146,11.5836707],"ts":"2018-06-17T18:19:15Z","tz":1,"tags":{"access":"private","leisure":"pitch","sport":"climbing"}},"9101887334":{"location":[48.1618326,11.4455508],"ts":"2022-07-24T10:16:55Z","tz":1,"tags":{"climbing":"boulder","description":"2 Boulderfelsen, Niveau 4-5","fee":"no","leisure":"sports_centre","name:signed":"no","sport":"climbing"}},"9696918138":{"location":[48.1022007,11.5325848],"ts":"2024-10-04T19:41:11Z","tz":1,"tags":{"addr:city":"München","addr:country":"DE","addr:housenumber":"23","addr:postcode":"81379","addr:street":"Zielstattstraße","climbing:boulder":"yes","climbing:sport":"no","climbing:toprope":"no","climbing:traditional":"no","contact:phone":"+49 89 201 794 620","contact:website":"https://muenchen.element-boulders.de/start.html","leisure":"sports_centre","name":"Element Boulders","opening_hours":"Mo 09:00-23:00, Tu-Th 07:00-23:00, Fr-Su 09:00-23:00","sport":"climbing"}},"9872932960":{"location":[48.1117984,11.5718772],"ts":"2024-03-16T12:37:12Z","tz":1,"tags":{"access":"yes","climbing:boulder":"yes","climbing:length":"3","fee":"no","name":"Dicker Hans","opening_hours":"24/7","operator":"Kraxlkollektiv - Alpenverein München & Oberland - DAV","outdoor":"yes","sport":"climbing","url":"https://www.kraxlkollektiv.de/mehr-oeffentliche-boulderwaende-wie-und-wo/kraxlkollektivs-boulderwaende.html"}},"11540042126":{"location":[48.1365179,11.4204128],"ts":"2024-11-05T12:36:24Z","tz":1,"tags":{"addr:city":"München","addr:country":"DE","addr:housenumber":"19","addr:postcode":"81249","addr:street":"Bertha-Kipfmüller-Straße","climbing:boulder":"yes","climbing:sport":"no","climbing:toprope":"no","climbing:traditional":"no","leisure":"sports_centre","name":"Boulderwelt München West","old_name":"Dreherei und Schlosserei","opening_hours":"Mo-Fr 07:00-23:00; PH,Sa,Su 08:00-23:00","phone":"+49 89 82073499","sport":"climbing","start_date":"1903","website":"https://www.boulderwelt-muenchen-west.de/","wheelchair":"limited"}}}