{"152523826":{"lat":44.4830168,"lon":11.2621259,"ts":"2025-03-30T14:53:10Z","tz":1,"tags":{"building":"industrial","email":"info@level24.it","leisure":"sports_centre","name":"Level 24","opening_hours":"Mo-Fr 10:00-22:30,Sa-Su 09:00-20:00","phone":"+39 051 1961 7500","sport":"climbing","website":"https://www.level24.it/"}},"209552183":{"lat":44.3664498,"lon":11.2733602,"ts":"2023-02-04T17:10:34Z","tz":1,"tags":{"name":"Settore Badolo Basso","natural":"cliff","sport":"climbing","website":"https://www.falesia.it/it/crag/176/badolo.html"}},"209552185":{"lat":44.3659299,"lon":11.2740759,"ts":"2023-02-04T16:58:44Z","tz":1,"tags":{"name":"Settore Badolo Alto","natural":"cliff","sport":"climbing"}},"859351525":{"lat":44.476792,"lon":11.4203567,"ts":"2020-10-15T15:37:12Z","tz":1,"tags":{"building:part":"yes","leisure":"sports_centre","sport":"climbing"}},"859351526":{"lat":44.4768834,"lon":11.4204149,"ts":"2025-03-30T13:54:13Z","tz":1,"tags":{"building:part":"yes","leisure":"sports_centre","name":"Monkeys' Planet","sport":"climbing"}},"1024945387":{"lat":44.5856535,"lon":11.2556214,"ts":"2025-03-30T14:39:49Z","tz":1,"tags":{"building":"yes","email":"climb@newpolsalabolognese.it","leisure":"sports_centre","name":"Newpol. Sala Bolognese - Kro Climb","operator":"A.s.d. Newpol. Sala Bolognese","operator:type":"private_non_profit","sport":"climbing","website":"https://www.newpolsalabolognese.it"}},"1137865238":{"lat":44.3647004,"lon":11.274232,"ts":"2023-02-04T17:10:34Z","tz":1,"tags":{"name":"Settore Badolo New","natural":"cliff","sport":"climbing","website":"https://www.falesia.it/it/crag/176/badolo.html"}},"2525606449":{"lat":44.5038973,"lon":11.4040502,"ts":"2025-03-25T14:57:14Z","tz":1,"tags":{"email":"info@upurbanclimbing.it","leisure":"sports_centre","name":"UP Urban Climbing","opening_hours":"Mo-Fr 12:00-23:00, Sa-Su 10:00-20:00","phone":"+39 0514122365","sport":"climbing","website":"https://www.upurbanclimbing.it/"}},"5982573216":{"lat":44.3660301,"lon":11.2733146,"ts":"2023-02-04T16:58:44Z","tz":1,"tags":{"name":"Falesia Rocca di Badolo Settori Bassi","natural":"cliff","sport":"climbing","website":"https://www.falesia.it/it/crag/176/badolo.html"}},"10866932886":{"lat":44.5856345,"lon":11.2556723,"ts":"2023-05-04T09:04:03Z","tz":1,"tags":{"addr:city":"Sala Bolognese","addr:housenumber":"20a","addr:postcode":"40010","addr:street":"Via dei Bersaglieri","leisure":"sports_centre","name":"Kro Climb","operator":"A.s.d. Newpol Sala Bolognese","operator:type":"private_non_profit","sport":"climbing"}}}