{"529825166":{"lat":25.0898713,"lon":102.5946779,"ts":"2024-09-08T18:25:54Z","tz":8,"tags":{"natural":"cliff","sport":"climbing"}},"765660885":{"lat":24.9602113,"lon":102.6373044,"ts":"2024-09-08T16:13:18Z","tz":8,"tags":{"name":"猫头鹰岩","name:en":"Low Area","natural":"cliff","sport":"climbing"}},"765660889":{"lat":24.9610592,"lon":102.6362613,"ts":"2024-09-08T16:13:18Z","tz":8,"tags":{"name":"观海阁岩","name:en":"High Area","natural":"cliff","sport":"climbing"}},"800042868":{"lat":25.1317195,"lon":102.5911193,"ts":"2024-09-08T18:25:54Z","tz":8,"tags":{"name":"林荫墙","name:en":"Shady Grove","natural":"cliff","sport":"climbing"}},"1314191820":{"lat":24.9637328,"lon":102.6359914,"ts":"2024-09-08T16:13:18Z","tz":8,"tags":{"name":"鸽子岩","name:en":"Dove Rock","natural":"cliff","sport":"climbing"}},"5146337769":{"lat":25.0780129,"lon":102.5970393,"ts":"2022-01-25T00:10:48Z","tz":8,"tags":{"name":"The Wind Tunnel","sport":"climbing"}},"5146337948":{"lat":25.0910355,"lon":102.6008453,"ts":"2017-10-04T01:40:01Z","tz":8,"tags":{"name":"TNT Wall","sport":"climbing"}},"7467631752":{"lat":25.0894418,"lon":102.5951778,"ts":"2024-09-08T18:49:51Z","tz":8,"tags":{"name":"小墨雨洞","name:en":"Xiao Mo Yu Cave","natural":"cave_entrance","sport":"climbing"}},"7482059918":{"lat":25.1317547,"lon":102.5906454,"ts":"2024-09-08T18:25:54Z","tz":8,"tags":{"name":"燕子洞","name:en":"Swallow Cave","natural":"cave_entrance","sport":"climbing"}},"12164202975":{"lat":25.0901624,"lon":102.5941753,"ts":"2024-09-08T18:49:51Z","tz":8,"tags":{"name":"奶爸墙","name:en":"Daddy's Wall","sport":"climbing"}},"12164202976":{"lat":25.0903956,"lon":102.5894764,"ts":"2024-09-08T18:49:51Z","tz":8,"tags":{"name":"孕期墙","name:en":"Pregnancy Wall","sport":"climbing"}},"12164202977":{"lat":25.0907693,"lon":102.5904719,"ts":"2024-09-08T18:49:51Z","tz":8,"tags":{"name":"甜蜜墙","name:en":"Honey Wall","sport":"climbing"}},"12164202978":{"lat":25.0994153,"lon":102.6044977,"ts":"2024-09-08T18:49:51Z","tz":8,"tags":{"name":"墓地","name:en":"The Graveyard","sport":"climbing"}}}