{"389739802":{"location":[18.9453475,102.4361504],"ts":"2023-10-31T03:55:30Z","tz":7,"tags":{"natural":"cliff","sport":"climbing"}},"389739803":{"location":[18.9455284,102.4358961],"ts":"2023-10-31T03:55:30Z","tz":7,"tags":{"natural":"cliff","sport":"climbing"}},"1204190039":{"location":[18.9455119,102.4360252],"ts":"2023-10-31T03:55:30Z","tz":7,"tags":{"climbing":"crag","climbing:grade:unknown_scale":"5aâ€”9","climbing:url:openbeta":"https://openbeta.io/crag/ec010645-7d47-5d22-aee3-1191d7ee1975","climbing:url:thecrag":"https://www.thecrag.com/12484171","name":"Sleeping Wall","name:de":"Sleeping Wall Klettern","name:en":"Sleeping Wall Climbing","natural":"cliff","sport":"climbing"}},"1219668851":{"location":[18.9455653,102.435901],"ts":"2023-10-31T03:55:30Z","tz":7,"tags":{"natural":"cliff","sport":"climbing"}},"2264649951":{"location":[18.9225752,102.4463931],"ts":"2023-06-10T11:46:25Z","tz":7,"tags":{"email":"stclimber@yahoo.com","name":"Adam's Climbing School","name:en":"Jackie Adventure Climbing","opening_hours":"Mo-Fr 08:00-20:00; Sa-Su 09:00-19:00","shop":"outdoor","sport":"climbing","website":"https://www.laos-climbing.com/"}},"5209357568":{"location":[18.9253454,102.4487453],"ts":"2017-11-04T00:08:48Z","tz":7,"tags":{"name":"Central Climbers School","sport":"climbing","tourism":"yes"}},"5464516561":{"location":[18.9449463,102.4338218],"ts":"2023-10-31T04:52:02Z","tz":7,"tags":{"climbing":"crag","climbing:url:thecrag":"https://www.thecrag.com/279331776","name:de":"Secret Canyon Klettern","name:en":"Secret Canyon Climbing","sport":"climbing"}}}