{"139056377":{"location":[3.092764,101.6467959],"ts":"2021-09-06T14:11:10Z","tz":8,"tags":{"building":"yes","leisure":"sports_centre","sport":"climbing"}},"291026150":{"location":[3.1374462,101.7267025],"ts":"2024-02-12T05:51:36Z","tz":8,"tags":{"disused:man_made":"tower","sport":"climbing"}},"4506377268":{"location":[3.1501164,101.6163919],"ts":"2023-11-04T20:41:08Z","tz":8,"tags":{"amenity":"cafe","climbing:boulder":"yes","climbing:toprope":"yes","facebook":"https://www.facebook.com/Camp5ClimbingGym","leisure":"sports_centre","level":"5","name":"Camp5 Climbing Gym","name:en":"Camp5 Climbing Gym","opening_hours":"Mo-Fr 14:00-23:00; Sa,Su,PH 10:00-20:00","phone":"+60 37726 0410","shop":"sports","sport":"climbing","website":"https://camp5.com/"}},"10701993373":{"location":[3.1192342,101.6739644],"ts":"2024-03-05T20:22:46Z","tz":8,"tags":{"fee":"yes","leisure":"sports_centre","name":"Camp5 Climbing Gym KL Eco City","name:en":"Camp5 Climbing Gym KL Eco City","opening_hours":"Mo-Fr 10:00-22:00; Sa-Su 10:00-20:00","phone":"+60322014360","sport":"climbing","website":"https://www.camp5.com"}},"11694943470":{"location":[3.1441346,101.7108582],"ts":"2024-03-14T13:18:40Z","tz":8,"tags":{"fee":"yes","leisure":"sports_centre","name":"Camp5 Climbing Gym Jumpa","opening_hours":"Mo-Fr 12:00-22:00; Sa-Su 10:00-20:00","phone":"+60327137128","sport":"climbing","website":"https://www.camp5.com/"}}}