{"435098630":{"location":[-28.0993753,153.4599769],"ts":"2016-08-01T07:10:25Z","tz":10,"tags":{"leisure":"pitch","name":"Ropes Course","sport":"climbing"}},"6175886191":{"location":[-28.1087318,153.4215123],"ts":"2019-01-01T02:36:16Z","tz":10,"tags":{"leisure":"sports_centre","name":"Paramount Adventure Centre","phone":"+61 7 5593 6919","sport":"climbing","website":"http://www.paramountadventures.com.au/indoor-rock-climbing"}},"10982895519":{"location":[-28.0798418,153.3890691],"ts":"2023-11-14T02:51:09Z","tz":10,"tags":{"addr:housenumber":"86","addr:street":"Robina Town Centre Drive","leisure":"sports_hall","name":"Alpine Indoor Climbing","phone":"+61 7 5689 0606","sport":"climbing","website":"https://alpineindoorclimbing.com/"}},"12790956559":{"location":[-28.0365583,153.3531875],"ts":"2025-04-28T06:00:27Z","tz":10,"tags":{"addr:housenumber":"122","addr:postcode":"4211","addr:street":"Eastlake Street","contact:instagram":"coreclimbaus","leisure":"sports_centre","name":"Core Climbing - Carrara","opening_hours":"Mo-Tu, Th 06:00-22:00; Sa 08:00-20:00; Su 10:00-20:00; We, Fr 12:00-22:00","sport":"climbing","website":"https://coreclimbing.com.au"}}}