{"35048037":{"location":[52.376618,4.9115412],"ts":"2023-07-24T19:24:01Z","tz":1,"tags":{"alt_name":"Klimmuur Amsterdam","building":"yes","climbing:boulder":"yes","climbing:sport":"yes","climbing:toprope":"yes","diet:vegetarian":"yes","email":"amsterdam@deklimmuur.nl","fee":"yes","indoor":"yes","leisure":"sports_centre","name":"Klimmuur Centraal","outdoor":"no","phone":"+31 20 427 5777","ref:bag":"363100012170819","source":"https://www.amsterdam.nl/projecten/oosterdok/dijksgracht/","source:date":"2014-03-24","sport":"climbing","start_date":"2005","website":"https://www.deklimmuur.nl/klimmen/klimmuur-centraal/"}},"38285681":{"location":[52.4479965,4.6773926],"ts":"2009-07-30T13:12:40Z","tz":1,"tags":{"leisure":"track","name":"Klimmuur Spaarnwoude","sport":"climbing","tourism":"artwork"}},"583933071":{"location":[52.3679615,4.8015605],"ts":"2018-11-21T00:15:18Z","tz":1,"tags":{"artwork_type":"mural","sport":"climbing","tourism":"artwork"}},"583933072":{"location":[52.3678706,4.8015564],"ts":"2018-11-21T00:15:18Z","tz":1,"tags":{"artwork_type":"mural","sport":"climbing","tourism":"artwork"}},"845136771":{"location":[52.460505,4.8139338],"ts":"2021-01-29T21:10:36Z","tz":1,"tags":{"addr:city":"Zaandam","addr:housenumber":"381","addr:postcode":"1508EP","addr:street":"Oostzijde","building":"yes","climbing:boulder":"yes","fee":"yes","indoor":"yes","leisure":"sports_centre","name":"BAZ Bouldergym","sport":"climbing","start_date":"2020","website":"https://www.bazbouldergym.nl/"}},"971400236":{"location":[52.4405337,4.889283],"ts":"2021-08-08T17:52:56Z","tz":1,"tags":{"leisure":"sports_centre","name":"Klimpark Twiske","sport":"climbing","website":"https://www.klimparktwiske.nl/"}},"1068798258":{"location":[52.4530429,4.828196],"ts":"2023-01-12T23:34:39Z","tz":1,"tags":{"climbing":"wood","material":"logs/wood","playground":"climbingframe","source":"local survey & PDOK 0.07 05 06-22"}},"2715834740":{"location":[52.3912893,4.6493244],"ts":"2023-10-11T17:47:19Z","tz":1,"tags":{"addr:city":"Haarlem","addr:housenumber":"120B","addr:postcode":"2021KA","addr:street":"Spaarndamseweg","brand":"De Klimmuur","brand:website":"https://www.deklimmuur.nl/","check_date":"2023-10-11","climbing:boulder":"yes","climbing:sport":"yes","email":"haarlem@deklimmuur.nl","fee":"yes","indoor":"yes","internet_access":"wlan","internet_access:fee":"customers","leisure":"sports_centre","name":"Klimmuur Haarlem","opening_hours":"Mo-Fr 13:00-23:00; Sa 09:00-18:00; Su 09:00-23:00","operator:website":"https://www.deklimmuur.nl/klimmen/klimmuur-haarlem/","phone":"+31 23 525 9997","source":"BAG","source:date":"2014-02-11","sport":"climbing","wheelchair":"no"}},"2732764877":{"location":[52.3134883,4.6915534],"ts":"2023-08-17T20:34:47Z","tz":1,"tags":{"addr:city":"Hoofddorp","addr:housenumber":"40","addr:postcode":"2131AC","addr:street":"Graftermeerstraat","climbing:boulder":"yes","leisure":"sports_centre","name":"Boulderhal de Fabriek","source":"BAG","source:date":"2014-02-11","sport":"climbing","website":"https://boulderhaldefabriek.nl/boulderen-3/de-fabriek-hoofddorp/"}},"2738247156":{"location":[52.3924398,4.8510914],"ts":"2020-09-18T05:35:11Z","tz":1,"tags":{"addr:city":"Amsterdam","addr:housenumber":"26","addr:postcode":"1014AS","addr:street":"Isolatorweg","climbing:boulder":"yes","leisure":"sports_centre","name":"Het Lab","opening_hours":"Mo-Fr 12:00-23:00, Sa-Su 10:00-23:00","source":"BAG","source:date":"2014-02-11","sport":"climbing","website":"http://www.hetlabamsterdam.nl/"}},"2814622048":{"location":[52.339894,4.8424523],"ts":"2020-09-27T09:27:03Z","tz":1,"tags":{"addr:city":"Amsterdam","addr:housenumber":"75","addr:postcode":"1059CP","addr:street":"Anthony Fokkerweg","climbing:boulder":"yes","leisure":"sports_centre","name":"Be Boulder","opening_hours":"Mo-Fr 11:00-23:00; Sa 09:00-23:00; Su 09:00-22:00","source":"BAG","source:date":"2014-03-24","sport":"climbing","website":"https://beboulder.nl/"}},"2815512499":{"location":[52.3441243,4.855954],"ts":"2024-10-20T23:30:30Z","tz":1,"tags":{"addr:city":"Amsterdam","addr:housenumber":"18","addr:postcode":"1076CM","addr:street":"Stadionplein","climbing:boulder":"yes","climbing:speed":"no","climbing:sport":"no","climbing:toprope":"no","fee":"yes","internet_access":"wlan","internet_access:fee":"no","leisure":"sports_centre","name":"Beta Boulders","opening_hours":"Mo-Fr 08:00-23:00; Sa-Su 09:00-21:00","service:climbing_shoes:rental":"yes","service:climbing_shoes:rental:fee":"yes","shower":"hot","source":"BAG","source:date":"2014-03-24","sport":"climbing","website":"https://betaboulders.nl/"}},"2907018767":{"location":[52.4803827,4.6653058],"ts":"2024-11-16T16:32:19Z","tz":1,"tags":{"addr:city":"Beverwijk","addr:housenumber":"120B","addr:postcode":"1948NN","addr:street":"Parallelweg","leisure":"sports_centre","name":"Boulderwijk","source":"BAG","source:date":"2014-06-09","sport":"climbing"}},"4804124848":{"location":[52.408481,4.7028996],"ts":"2022-03-05T13:09:32Z","tz":1,"tags":{"leisure":"sports_centre","sport":"climbing"}},"8805218642":{"location":[52.3816671,4.8593849],"ts":"2025-01-26T21:31:12Z","tz":1,"tags":{"addr:city":"Amsterdam","addr:housenumber":"338B","addr:postcode":"1055RD","addr:street":"Willem de Zwijgerlaan","check_date":"2025-01-25","climbing:boulder":"yes","email":"amsterdam@beestboulders.nl","fee":"yes","indoor":"yes","internet_access":"wlan","internet_access:fee":"customers","leisure":"sports_centre","name":"Beest Boulders Amsterdam","opening_hours":"Mo-Fr 07:00-23:00; Sa-Su 09:00-23:00","outdoor":"no","phone":"+31 20 226 9442","sport":"climbing","website":"https://beestboulders.com/beest-boulders-amsterdam/"}},"11065621726":{"location":[52.3923103,4.6478805],"ts":"2023-07-24T19:04:55Z","tz":1,"tags":{"addr:city":"Haarlem","addr:housenumber":"1","addr:postcode":"2021AA","addr:street":"Ben Viljoenstraat","climbing:boulder":"yes","email":"info@boulderhaldefabriek.nl","indoor":"yes","internet_access":"wlan","internet_access:fee":"customers","leisure":"sports_centre","name":"Boulderhal de Fabriek Haarlem","opening_hours":"Mo-Su 10:00-23:00","outdoor":"no","phone":"+31 23 576 5458","sport":"climbing","website":"https://boulderhaldefabriek.nl/boulderen-3/de-fabriek-haarlem/"}},"12516669536":{"location":[52.3764773,4.871393],"ts":"2025-01-26T21:31:12Z","tz":1,"tags":{"addr:housenumber":"62","addr:street":"Gillis van Ledenberchstraat","check_date":"2025-01-25","climbing:boulder":"yes","email":"amsterdam@boulderneoliet.nl","fee":"yes","indoor":"yes","internet_access":"wlan","internet_access:fee":"customers","leisure":"sports_centre","name":"Boulder Amsterdam","opening_hours":"Mo-Tu,Th 13:00-23:00; We,Fr 09:00-23:00; Sa 09:00-18:00; Su 09:00-21:00","operator":"Neoliet","outdoor":"no","phone":"+31 085 00 496 08","sport":"climbing","website":"https://boulderneoliet.nl/nl/amsterdam/"}}}