{"2728928169":{"location":[51.614487,4.7743619],"ts":"2025-07-02T22:07:14Z","tz":1,"tags":{"addr:city":"Breda","addr:housenumber":"498","addr:postcode":"4826AB","addr:street":"Terheijdenseweg","check_date":"2025-07-03","leisure":"sports_centre","name":"CrossFit Climbers Cabin","source":"BAG","source:date":"2014-02-11","sport":"climbing","website":"https://www.crossfitclimberscabin.nl/"}},"4454022866":{"location":[51.5927513,4.774412],"ts":"2018-06-10T18:09:34Z","tz":1,"tags":{"leisure":"sports_centre","man_made":"tower","source":"survey 2016","sport":"climbing","tower:type":"climbing"}},"4688377078":{"location":[51.5981713,4.755976],"ts":"2025-03-28T21:09:33Z","tz":1,"tags":{"addr:city":"Breda","addr:housenumber":"66-A1","addr:postcode":"4815HT","addr:street":"Spinveld","fee":"yes","leisure":"sports_centre","name":"Bruut","opening_hours":"Mo-Fr 09:00-00:00; Sa 09:00-22:00; Su 09:00-23:00","source":"BAG","source:date":"2017-02-16","sport":"climbing","website":"https://www.boulderhalbruut.nl/"}},"8017108627":{"location":[51.5801881,4.8369481],"ts":"2023-08-02T07:29:21Z","tz":1,"tags":{"addr:city":"Breda","addr:housenumber":"8","addr:postcode":"4817ZX","addr:street":"Bavelseparklaan","contact:phone":"+31 76 782 0567","contact:website":"https://www.kabonk.nl/","leisure":"sports_centre","name":"Kabonk","source":"BAG","source:date":"2017-07-23","sport":"climbing"}},"12206731830":{"location":[51.5950092,4.7574851],"ts":"2024-10-20T10:16:39Z","tz":1,"tags":{"addr:city":"Breda","addr:housenumber":"6A","addr:postcode":"4815HK","addr:street":"Zoete Inval","climbing:boulder":"yes","email":"breda@beestboulders.com","fee":"yes","leisure":"sports_centre","name":"Beest Boulders Breda","opening_hours":"09:00-23:00","phone":"+31 76 303 8775","source":"BAG","source:date":"2024-07-18","sport":"climbing","website":"https://beestboulders.com/vestigingen/beest-boulders-breda"}}}