{"164618130":{"lat":50.4588841,"lon":4.8785245,"ts":"2024-01-10T15:33:44Z","tz":1,"tags":{"addr:city":"Jambes","addr:housenumber":"142","addr:postcode":"5100","addr:street":"Rue d'Enhaive","leisure":"sports_centre","name":"Roc Evasion Escalade","sport":"climbing"}},"311823911":{"lat":50.4993134,"lon":4.8023184,"ts":"2023-06-28T15:53:06Z","tz":1,"tags":{"addr:housenumber":"1A","addr:street":"Chaussée de la Gare","building":"yes","leisure":"sports_centre","name":"Zone Evasion Escalade","sport":"climbing"}},"420060167":{"lat":50.4680177,"lon":4.8997314,"ts":"2021-07-02T17:19:31Z","tz":1,"tags":{"climbing:grade:french:max":"8","climbing:grade:french:min":"3","climbing:length":"30 m","climbing:rock":"limestone","climbing:sport":"58","natural":"bare_rock","sport":"climbing","url":"http://fr.belclimb.be/massives_detail.asp?cragid=153","website":"https://clubalpin.be/sites/default/files/oldsite/rochers/gdsmalades/CAB.htm"}},"420060170":{"lat":50.4681682,"lon":4.8991862,"ts":"2021-07-02T17:19:31Z","tz":1,"tags":{"climbing:grade:french:max":"8","climbing:grade:french:min":"3","climbing:length":"30 m","climbing:rock":"limestone","climbing:sport":"58","name":"Rochers des Grands Malades","natural":"bare_rock","sport":"climbing","url":"http://fr.belclimb.be/massives_detail.asp?cragid=153","website":"https://clubalpin.be/sites/default/files/oldsite/rochers/gdsmalades/CAB.htm"}},"420070171":{"lat":50.4680901,"lon":4.8994258,"ts":"2021-07-02T17:19:31Z","tz":1,"tags":{"climbing:grade:french:max":"8","climbing:grade:french:min":"3","climbing:length":"30 m","climbing:rock":"limestone","climbing:sport":"58","natural":"bare_rock","sport":"climbing","url":"http://fr.belclimb.be/massives_detail.asp?cragid=153","website":"https://clubalpin.be/sites/default/files/oldsite/rochers/gdsmalades/CAB.htm"}},"420079389":{"lat":50.4679914,"lon":4.9001637,"ts":"2021-07-02T17:19:31Z","tz":1,"tags":{"climbing:grade:french:max":"8","climbing:grade:french:min":"3","climbing:length":"30 m","climbing:rock":"limestone","climbing:sport":"58","natural":"bare_rock","sport":"climbing","url":"http://fr.belclimb.be/massives_detail.asp?cragid=153","website":"https://clubalpin.be/sites/default/files/oldsite/rochers/gdsmalades/CAB.htm"}},"420079390":{"lat":50.4682765,"lon":4.8992233,"ts":"2021-07-04T06:29:52Z","tz":1,"tags":{"climbing:grade:french:max":"8","climbing:grade:french:min":"3","climbing:length":"30 m","climbing:rock":"limestone","climbing:sport":"58","natural":"bare_rock","sport":"climbing","url":"http://fr.belclimb.be/massives_detail.asp?cragid=153","website":"https://clubalpin.be/sites/default/files/oldsite/rochers/gdsmalades/CAB.htm"}},"420150160":{"lat":50.4676154,"lon":4.9008675,"ts":"2021-07-02T17:19:31Z","tz":1,"tags":{"climbing:grade:french:max":"8","climbing:grade:french:min":"3","climbing:length":"30 m","climbing:rock":"limestone","climbing:sport":"58","natural":"bare_rock","sport":"climbing","url":"http://fr.belclimb.be/massives_detail.asp?cragid=153","website":"https://clubalpin.be/sites/default/files/oldsite/rochers/gdsmalades/CAB.htm"}},"798786090":{"lat":50.4499984,"lon":4.8750022,"ts":"2024-04-01T19:23:33Z","tz":1,"tags":{"building":"yes","leisure":"sports_centre","name":"BeBloc","opening_hours":"Mo-Fr 12:00-23:30; Sa 10:00-19:00; Su 10:00-20:00","sport":"climbing"}},"925182586":{"lat":50.3607028,"lon":4.8632251,"ts":"2024-12-22T14:14:42Z","tz":1,"tags":{"climbing":"crag","climbing:rock":"sandstone","name":"Rocher du Burnot","natural":"cliff","sport":"climbing"}},"996349025":{"lat":50.3604747,"lon":4.8645822,"ts":"2022-11-13T18:53:47Z","tz":1,"tags":{"climbing":"boulder","natural":"cliff","sport":"climbing"}},"10183938742":{"lat":50.3377907,"lon":4.8722562,"ts":"2022-11-16T14:38:11Z","tz":1,"tags":{"access":"permit","leisure":"pitch","name":"Rochers du Paradou","sport":"climbing","website":"https://www.klimenbergsportfederatie.be/index.php/rotsmassieven/rochers-du-paradou-yvoir"}},"10188853054":{"lat":50.4264023,"lon":4.8741706,"ts":"2023-01-12T13:14:18Z","tz":1,"tags":{"leisure":"pitch","name":"Rochers du Néviau","sport":"climbing","website":"https://www.clubalpin.be/location/dave/neviaux"}}}