{"13951491":{"location":[45.5963968,4.5883088],"ts":"2022-03-22T15:34:31Z","tz":1,"tags":{"climbing":"area","climbing_style":"free","name":"Site d'escalade de la Carrière des Roches","type":"site"}},"44895049":{"location":[45.7431997,4.8359362],"ts":"2023-11-25T12:30:05Z","tz":1,"tags":{"building":"sports_centre","charge":"16","check_date":"2022-08-21","cuisine":"sandwich;pizza","email":"lyon-gerland@climb-up.fr","fee":"yes","leisure":"sports_centre","name":"Climb Up Lyon Gerland","old_name":"Mur de Lyon","opening_hours":"Mo-Su 08:00-24:00","outdoor_seating":"yes","payment:cash":"yes","payment:credit_cards":"yes","payment:mastercard":"yes","payment:visa":"yes","phone":"+33 4 72 71 83 84","sport":"climbing","website":"https://lyon-gerland.climb-up.fr/","wheelchair":"yes"}},"125084838":{"location":[45.7725773,4.7974085],"ts":"2023-07-05T20:15:23Z","tz":1,"tags":{"building":"yes","climbing:boulder":"yes","leisure":"sports_centre","mapillary":"472276860762072","name":"Hold'Up Escalade","opening_hours":"Mo-Fr 11:00-22:00; Sa-Su 10:00-19:00","sport":"climbing","website":"https://holdup-escalade.fr/"}},"129220659":{"location":[45.7689704,4.9017772],"ts":"2024-06-08T07:12:35Z","tz":1,"tags":{"leisure":"sports_centre","name":"Mur d'escalade Eugène Varlin","sport":"climbing"}},"129893005":{"location":[45.806586,4.7717344],"ts":"2024-08-21T12:45:15Z","tz":1,"tags":{"addr:city":"Limonest","addr:housenumber":"1","addr:postcode":"69760","addr:street":"rue des Vergers","brand":"Block'Out","climbing:boulder":"yes","email":"contact.lyon@blockout.fr","leisure":"sports_centre","name":"Block'Out Lyon","opening_hours":"Mo-Fr 11:00-23:00; Sa, Su 09:00-21:00","phone":"+33 4 78 21 90 97","sport":"climbing","website":"https://www.blockout.fr/bo-lyon"}},"528325875":{"location":[45.8246312,4.6071259],"ts":"2023-11-04T11:30:07Z","tz":1,"tags":{"addr:housenumber":"50","addr:postcode":"69210","addr:street":"Rue des Martinets","building":"yes","email":"espaceescalade@gmail.com","leisure":"sports_centre","name":"Espace Escalade","opening_hours":"Tu-Fr 09:00-18:00; Sa 09:00-18:00; Sep-Apr: Su 10:00-18:00","phone":"+33 4 74 01 22 26","sport":"climbing","website":"https://www.espace-escalade.fr"}},"672751534":{"location":[45.7671435,4.6513987],"ts":"2024-06-29T02:44:03Z","tz":1,"tags":{"building":"sports_centre","leisure":"sports_centre","name":"Mur d'escalade Lionel Daudet","sport":"climbing","start_date":"2015-12","website":"https://www.ccvl.fr/page.php?page=DT1438597842"}},"730440665":{"location":[45.5963516,4.5882241],"ts":"2022-03-22T15:34:31Z","tz":1,"tags":{"leisure":"sports_centre","name":"Site d'escalade de la Carrière des Roches","sport":"climbing"}},"746400593":{"location":[45.7778955,4.6446915],"ts":"2024-05-09T10:53:19Z","tz":1,"tags":{"climbing:bolted":"1.5","climbing:length:max":"10","climbing:orientation":"S","climbing:rock":"limestone","climbing:sport":"yes","name":"Col de la Croix du Ban","natural":"cliff","ref:camptocamp":"103031","sport":"climbing"}},"809950959":{"location":[45.7870403,4.7536333],"ts":"2021-04-26T22:24:55Z","tz":1,"tags":{"climbing:bolted":"2","climbing:grade:french:max":"8a","climbing:grade:french:min":"5a","climbing:length:max":"25","climbing:sport":"yes","leisure":"pitch","name":"Cher'Bô","sport":"climbing","website":"https://climbingaway.fr/fr/site-escalade/cher-bo-viaduc-de-charbonnieres"}},"1042667667":{"location":[45.5965192,4.5880821],"ts":"2022-03-22T15:34:31Z","tz":1,"tags":{"name":"Site d'escalade de la Carrière des Roches - Racanières","natural":"cliff","sport":"climbing"}},"1042667668":{"location":[45.5963346,4.5884931],"ts":"2022-03-22T15:34:31Z","tz":1,"tags":{"name":"Site d'escalade de la Carrière des Roches - Allanqués","natural":"cliff","sport":"climbing"}},"1246086844":{"location":[45.8036775,4.8352706],"ts":"2024-02-04T15:55:24Z","tz":1,"tags":{"description":"mur d'escalade en mauvais état","leisure":"pitch","sport":"climbing"}},"1276025381":{"location":[45.8157798,4.6665086],"ts":"2011-05-07T17:20:48Z","tz":1,"tags":{"sport":"climbing"}},"1392624338":{"location":[45.6600467,4.7676369],"ts":"2025-06-06T10:44:07Z","tz":1,"tags":{"leisure":"pitch","playground":"climbingwall","sport":"climbing"}},"2321880486":{"location":[45.7257256,4.8061752],"ts":"2013-05-27T12:27:17Z","tz":1,"tags":{"sport":"climbing"}},"4056212926":{"location":[45.755265,4.8683676],"ts":"2025-07-22T15:25:23Z","tz":1,"tags":{"leisure":"sports_centre","name":"Bloc Session Lyon","opening_hours":"Mo-Su 10:00-22:00","operator":"Bloc Session","sport":"climbing"}},"5091680962":{"location":[45.7003957,4.8708277],"ts":"2017-09-09T12:31:13Z","tz":1,"tags":{"source":"data.gouv.fr:Le ministère des droits des femmes, de la ville, de la jeunesse et des sports - 11/2015","sport":"climbing"}},"5091680981":{"location":[45.6958425,4.8798866],"ts":"2017-09-09T12:31:13Z","tz":1,"tags":{"source":"data.gouv.fr:Le ministère des droits des femmes, de la ville, de la jeunesse et des sports - 11/2015","sport":"climbing"}},"5091681671":{"location":[45.6896862,4.8594871],"ts":"2017-09-09T12:31:16Z","tz":1,"tags":{"source":"data.gouv.fr:Le ministère des droits des femmes, de la ville, de la jeunesse et des sports - 11/2015","sport":"climbing","surface":"concrete"}},"7832583746":{"location":[45.7405654,4.8179086],"ts":"2024-10-18T08:22:26Z","tz":1,"tags":{"contact:phone":"+33428296666","harassment_prevention":"ask_angela","leisure":"sports_centre","name":"Climb Up Lyon Confluence","opening_hours":"Mo-Fr 10:00-23:00; Sa,Su 09:00-23:00","sport":"climbing","website":"https://lyon-confluence.climb-up.fr","wheelchair":"yes"}}}