{"456590341":{"location":[44.2944856,4.7879471],"ts":"2024-08-02T12:43:00Z","tz":1,"tags":{"addr:city":"Bollène","addr:postcode":"84500","addr:street":"Route de l'Embisque","climbing":"route","climbing:routes":"11","fee":"yes","leisure":"sports_centre","name":"Bollène Aventure","outdoor":"yes","sport":"climbing_adventure","toilets":"yes","toilets:access":"customers","tourism":"attraction","url":"http://www.bolleneaventure.com/","wikidata":"Q120293758"}},"1072619954":{"location":[44.1272815,4.7984658],"ts":"2024-01-08T17:30:40Z","tz":1,"tags":{"barrier":"wall","name":"Mur d'escalade","sport":"climbing"}},"2519503202":{"location":[44.140328,4.802577],"ts":"2025-01-18T15:18:28Z","tz":1,"tags":{"access":"private","entrance":"yes","operator":"Lycée de l'arc","source":"survey","sport":"climbing"}},"3931944754":{"location":[44.1636969,4.6143581],"ts":"2016-01-07T12:02:47Z","tz":1,"tags":{"source":"data.gouv.fr:Le ministère des droits des femmes, de la ville, de la jeunesse et des sports - 2014","sport":"climbing","surface":"concrete"}},"4528411232":{"location":[44.294022,4.7869411],"ts":"2023-11-03T20:57:30Z","tz":1,"tags":{"addr:city":"Bollène","addr:postcode":"84500","addr:street":"Route de l'embisque","climbing":"sport","fee":"yes","leisure":"sports_centre","name":"Bollène Aventure","outdoor":"yes","phone":"+33 4 90 11 06 69","sport":"climbing_adventure","website":"https://www.bolleneaventure.com/"}},"4992443035":{"location":[44.3216849,4.7645902],"ts":"2017-07-25T11:48:41Z","tz":1,"tags":{"sport":"climbing"}},"8494872594":{"location":[44.3208915,4.7620678],"ts":"2023-04-28T20:00:35Z","tz":1,"tags":{"sport":"climbing"}},"12512381131":{"location":[44.1403315,4.802645],"ts":"2025-01-18T15:20:05Z","tz":1,"tags":{"access":"private","climbing":"wall","leisure":"climbing","panoramax":"98e9c954-5d49-4177-8121-b6774bc3bed8","power":"school","sport":"climbing"}}}