{"92314037":{"lat":43.9595463,"lon":4.7546397,"ts":"2024-02-16T12:46:05Z","tz":1,"tags":{"addr:city":"Les Angles","addr:housenumber":"6","addr:postcode":"30133","building":"yes","leisure":"sports_centre","name":"SoEscalade","phone":"+33 4 90 252 251","source":"cadastre-dgi-fr source : Direction Générale des Impôts - Cadastre. Mise à jour : 2010","sport":"climbing","website":"https://www.soescalade.com/"}},"99744802":{"lat":43.8846176,"lon":4.8675716,"ts":"2023-06-29T13:23:10Z","tz":1,"tags":{"building":"sports_hall","club":"sport","source":"cadastre-dgi-fr source : Direction Générale des Impôts - Cadastre. Mise à jour : 2010","sport":"climbing"}},"4408108149":{"lat":43.9397013,"lon":4.8277828,"ts":"2024-03-03T09:28:18Z","tz":1,"tags":{"addr:city":"Avignon","addr:housenumber":"82","addr:postcode":"84000","description":"salle d'escalade","email":"contact@lepandavignon.fr","fee":"yes","indoor":"yes","leisure":"sports_centre","name":"Le Pan d'Avignon","opening_hours":"Mo-Fr 10:00-22:00; PH,Sa,Su 10:00-20:00","phone":"+33 4 90 88 19 92","sport":"climbing","survey:date":"2023-11-16","website":"https://www.lepandavignon.fr/"}},"4497466259":{"lat":43.985007,"lon":4.6976649,"ts":"2016-11-12T21:26:46Z","tz":1,"tags":{"name":"Saveur du soir","sport":"climbing"}},"11251241303":{"lat":43.9300416,"lon":4.8425553,"ts":"2024-08-26T07:29:36Z","tz":1,"tags":{"leisure":"sports_centre","sport":"climbing"}},"11294330760":{"lat":43.981436,"lon":4.8606241,"ts":"2023-10-27T21:40:36Z","tz":1,"tags":{"leisure":"sports_centre","name":"Bloc Session 6","sport":"climbing"}},"12554545857":{"lat":43.9731471,"lon":4.8637177,"ts":"2025-02-03T19:50:02Z","tz":1,"tags":{"addr:city":"Le Pontet","addr:housenumber":"182","addr:postcode":"84130","addr:street":"Avenue Maréchal Leclerc","building":"yes","climbing:boulder":"yes","climbing:sport":"yes","climbing:toprope":"yes","contact:instagram":"https://www.instagram.com/verticalparkescalade/","email":"lepontet@verticalpark.fr","fee":"yes","indoor":"yes","leisure":"sports_centre","name":"Vertical Park","opening_hours":"Mo-Sa 10:00-22:00; Su 10:00-20:00; PH 10:00-20:00","sport":"climbing","website":"https://www.verticalpark.fr"}}}