{"387842081":{"location":[50.8859715,-1.2472644],"ts":"2019-04-09T10:34:27Z","tz":0,"tags":{"addr:city":"Fareham","addr:housename":"Whiteley Shopping","addr:postcode":"PO15 7PD","addr:street":"Whiteley Way","leisure":"sports_centre","name":"Rock Up","ref":"1","sport":"climbing","website":"https://www.rock-up.co.uk/whiteley/"}},"489588946":{"location":[50.9165253,-1.3937593],"ts":"2025-06-09T12:15:25Z","tz":0,"tags":{"building":"yes","leisure":"sports_centre","name":"Boulder Shack Climbing Gym","ref:GB:uprn":"100062501101;100062691006;100062650925;100062650926","sport":"climbing","website":"https://bouldershack.co.uk/"}},"794186323":{"location":[50.8187141,-1.3074291],"ts":"2016-02-16T09:30:20Z","tz":0,"tags":{"leisure":"sports_centre","name":"Calshot Climbing Wall","opening_hours":"Mo-Fr 18:00-22:00; We,Th 14:00-22:00; Sa 10:00-17:30; Su 10:00-17:00","sport":"climbing"}},"869095076":{"location":[50.8582054,-1.1661271],"ts":"2025-06-09T19:11:19Z","tz":0,"tags":{"building":"commercial","leisure":"sports_centre","name":"Red Spider Climbing","ref:GB:uprn":"100062408523","sport":"climbing","website":"https://spiderclimbing.com/red-spider/"}},"1054422311":{"location":[50.92363,-1.2202839],"ts":"2022-04-24T15:42:04Z","tz":0,"tags":{"building":"yes","leisure":"sports_centre","name":"Climbing Tower","sport":"climbing"}},"3362564126":{"location":[50.9107714,-1.3993479],"ts":"2015-02-20T23:58:56Z","tz":0,"tags":{"addr:street":"St Marys Road","name":"Southampton Climbing Wall","sport":"climbing","website":"southamptonclimbingwall.co.uk"}}}