{"113716080":{"location":[51.5171102,7.2189959],"ts":"2021-07-04T11:41:34Z","tz":1,"tags":{"addr:city":"Bochum","addr:country":"DE","addr:housenumber":"53h","addr:postcode":"44807","addr:street":"Flottmannstraße","building":"yes","leisure":"sports_centre","name":"Kletterzentrum Neoliet","opening_hours":"Mo-Th 12:00-22:30; Fr 12:00-23:00; Sa 10:00-23:00; Su 10:00-22:30","phone":"+49 234 5409955","sport":"climbing","website":"https://www.neoliet.de/"}},"158289213":{"location":[51.4450391,7.3794666],"ts":"2018-12-07T15:08:06Z","tz":1,"tags":{"leisure":"sports_centre","name":"Kletterpark","operator":"Stadt Witten","operator:type":"public","operator:wikidata":"Q3764","sport":"climbing","wheelchair":"no"}},"190480641":{"location":[51.5815204,7.2074473],"ts":"2024-06-23T23:44:32Z","tz":1,"tags":{"access":"customers","addr:city":"Recklinghausen","addr:country":"DE","addr:housenumber":"55","addr:postcode":"45661","addr:street":"Walkmühlenweg","building":"sports_centre","leisure":"sports_centre","name":"Boulderhalle","sport":"climbing"}},"684290471":{"location":[51.4450072,7.379127],"ts":"2018-12-07T15:04:54Z","tz":1,"tags":{"height":"3","image":"File:Witten Annen - Am Hang - Steinbruch Imberg 01 ies.jpg","name":"Boulderkletterwand","operator":"Stadt Witten","operator:type":"public","operator:wikidata":"Q3764","playground":"climbingwall","sport":"climbing","wheelchair":"no"}},"1062193739":{"location":[51.5215193,7.0848594],"ts":"2022-05-20T20:46:57Z","tz":1,"tags":{"building:part":"yes","contact:phone":"+49 234 52009841","contact:website":"https://www.neoliet.de/boulderbar-gelsenkirchen/","leisure":"sports_centre","name":"Boulderbar","opening_hours":"Mo,We-Fr 12:00-22:00; Tu,Sa,Su 10:00-22:00","sport":"climbing"}},"4117702490":{"location":[51.4397208,7.3201623],"ts":"2019-02-28T18:28:56Z","tz":1,"tags":{"alt_name":"Kletterstein","artist_name":"Winfried Stuhlmann","description":"Skulptur, die von der Schule selbst als Kletterstein bezeichnet wird","height":"1.88","image":"File:Witten Steinskulptur.jpg","leisure":"playground","material":"stone","name":"Steinskulptur","operator":"Rudolf-Steiner-Schule Witten","operator:wikidata":"Q56447545","playground":"climbingwall","sport":"climbing","start_date":"1988","tourism":"artwork","wheelchair":"no"}},"5434334561":{"location":[51.4735108,7.1259219],"ts":"2024-11-30T20:18:31Z","tz":1,"tags":{"access":"customers","addr:city":"Bochum","addr:country":"DE","addr:housenumber":"29","addr:postcode":"44867","addr:street":"Ottostraße","addr:suburb":"Wattenscheid","email":"info@neoliet.de","entrance":"main","franchise":"Neoliet","leisure":"sports_centre","name":"Boulderhalle Neoliet Boulderbar","operator":"Kletterzentrum Neoliet GmbH","payment:cash":"yes","payment:cryptocurrencies":"no","payment:electronic_purses":"no","payment:girocard":"yes","phone":"+49 234 52009842","sport":"climbing","website":"https://www.neoliet.de/"}},"7316833839":{"location":[51.4947,7.3774001],"ts":"2021-11-27T02:03:35Z","tz":1,"tags":{"addr:city":"Dortmund","addr:housenumber":"10","addr:postcode":"44149","addr:street":"Brennaborstraße","building":"yes","leisure":"sports_centre","name":"Boulderwelt","opening_hours":"Mo,We,Fr 10:00-23:00; Tu,Th 07:00-23:00; Sa,Su,PH 08:00-23:00","payment:cash":"yes","payment:contactless":"yes","payment:credit_cards":"yes","payment:debit_cards":"yes","sport":"climbing","website":"https://www.boulderwelt-dortmund.de/"}},"9726200786":{"location":[51.423037,7.3047869],"ts":"2022-05-09T08:09:01Z","tz":1,"tags":{"climbing:toprope":"yes","climbing:trad":"yes","outdoor":"yes","sport":"climbing"}},"10968059250":{"location":[51.4599183,7.2575101],"ts":"2023-06-10T17:26:32Z","tz":1,"tags":{"climbing":"boulder","leisure":"sports_centre","man_made":"tower","sport":"climbing","tower:type":"climbing"}},"10983842241":{"location":[51.4371289,7.0356455],"ts":"2023-06-18T11:54:57Z","tz":1,"tags":{"leisure":"pitch","sport":"climbing"}}}