{"23956545":{"location":[51.3793117,7.1412864],"ts":"2017-12-18T17:06:52Z","tz":1,"tags":{"leisure":"sports_centre","name":"Klettergarten am Isenberg","sport":"climbing"}},"72300254":{"location":[51.2685589,7.2358009],"ts":"2021-12-21T00:14:04Z","tz":1,"tags":{"addr:city":"Wuppertal","addr:country":"DE","addr:housenumber":"76","addr:postcode":"42389","addr:street":"Badische Straße","building":"yes","leisure":"sports_centre","name":"Wupperwände","sport":"climbing","website":"https://wupperwaende.de/","wheelchair":"yes"}},"831274717":{"location":[51.2688239,7.235997],"ts":"2020-07-28T15:04:15Z","tz":1,"tags":{"leisure":"pitch","sport":"climbing"}},"1614609532":{"location":[51.2548712,7.1192793],"ts":"2018-08-12T13:21:53Z","tz":1,"tags":{"name":"Natur-Hochseilgarten-Wuppertal","sport":"climbing","website":"https://www.wuppertal.de/natur-hochseilgarten-wuppertal"}},"1877718361":{"location":[51.2686351,7.151748],"ts":"2014-07-14T11:57:23Z","tz":1,"tags":{"name":"Kletterwand / Weichboden","sport":"climbing"}},"2809396152":{"location":[51.2905098,7.0499085],"ts":"2020-09-11T22:41:11Z","tz":1,"tags":{"climbing:bolted":"yes","climbing:grade:uiaa:max":"IX-","climbing:grade:uiaa:min":"III","climbing:length:max":"42","climbing:length:min":"10","climbing:multipitch":"yes","climbing:quality":"fragile","climbing:registration":"yes","climbing:sport":"yes","fee":"yes","sport":"climbing","website":"https://www.bochumer-bruch.de/"}},"5102477724":{"location":[51.2655235,7.1382121],"ts":"2023-01-21T17:31:19Z","tz":1,"tags":{"addr:housenumber":"118","addr:street":"Wiesenstraße","climbing:boulder":"yes","description":"Boulderhalle und Cafe mit direktem Zugang zur Nordbahntrasse in Wuppertal","leisure":"sports_centre","name":"Bahnhof Blo","opening_hours":"Mo-Fr 14:00-23:00; Sa, Su 11:00-23:00","phone":"+49 202 695 498 59","sport":"climbing","website":"https://bouldercafe-wuppertal.de/"}},"5138185170":{"location":[51.25094,7.3257337],"ts":"2023-11-11T22:01:30Z","tz":1,"tags":{"climbing:grade:uiaa:max":"7","climbing:grade:uiaa:min":"1","leisure":"sports_centre","name":"Klettergarten Spreeler Mühle","sport":"climbing","website":"https://dav-gummersbach.de/aus-den-bereichen/klettergebiete-im-bergischen-land/spreeler-muhle/"}},"10678170420":{"location":[51.2256814,7.061424],"ts":"2023-02-19T11:36:28Z","tz":1,"tags":{"addr:city":"Wuppertal","addr:housenumber":"119","addr:postcode":"42329","addr:street":"Vohwinkeler Straße","charge":"12,90€","email":"info@boulderhalle-prisma.de","fee":"yes","leisure":"sports_centre","name":"Boulderhalle Prisma","opening_hours":"Mo-Fr 11:00-23:00, Sa-Su 10:00-23:00","operator":"Jonas Winter & Janosch Louis","operator:type":"private","payment:cards":"yes","payment:cash":"yes","phone":"+49 202 51988774","sport":"climbing","website":"https://boulderhalle-prisma.de/"}}}