{"25472478":{"lat":51.0099898,"lon":7.346924,"ts":"2018-08-07T22:11:03Z","tz":1,"tags":{"landuse":"forest","sport":"climbing"}},"1095575830":{"lat":51.0242535,"lon":7.3748447,"ts":"2022-11-01T07:41:34Z","tz":1,"tags":{"addr:city":"Lindlar","addr:housenumber":"1","addr:postcode":"51789","addr:street":"Bismarckstraße","building":"yes","climbing:boulder":"yes","climbing:deepwater":"no","climbing:ice":"no","climbing:mixed":"no","climbing:multipitch":"no","climbing:sport":"yes","climbing:summit_log":"no","climbing:toprope":"yes","climbing:trad":"no","email":"info@2t-klettern.de","indoor":"yes","leisure":"sports_centre","name":"2T Kletter+Boulderhalle","opening_hours":"Mo-Fr 12:30-22:00; Sa,Su,PH 10:00-20:30","operator":"DBmotum GmbH","outdoor":"no","phone":"+49 2266 8058830","sport":"climbing","website":"https://2tklettern.de/"}},"2311005654":{"lat":51.1448017,"lon":7.3246755,"ts":"2024-08-06T22:07:13Z","tz":1,"tags":{"addr:city":"Hückeswagen","addr:housenumber":"17","addr:postcode":"42499","addr:street":"Zum Sportzentrum","email":"info@ghw-klettergarten.de","fax":"+49 2196 731368","leisure":"sports_centre","name":"GHW Klettergarten","opening_hours":"Mo-Su 10:00-24:00","phone":"+49 2196 9356661","phone2":"+49 175 2649537","sport":"climbing","website":"https://www.ghw-klettergarten.de/","wheelchair":"no"}},"3113533787":{"lat":51.1483858,"lon":7.3354137,"ts":"2021-07-18T20:08:12Z","tz":1,"tags":{"access":"yes","description":"Bolderwand","fee":"no","sport":"climbing"}},"4676641598":{"lat":50.9833751,"lon":7.0734147,"ts":"2023-01-21T17:31:18Z","tz":1,"tags":{"addr:city":"Köln","addr:housenumber":"49","addr:postcode":"51069","addr:street":"Waltherstraße","email":"info@kletterhalle-dellbrueck.de","leisure":"sports_centre","name":"Kletterhalle Dellbrück","phone":"+49 221 777 16800","sport":"climbing","website":"https://kletterhalle-dellbrueck.de/","wheelchair":"yes"}}}