{"744158091":{"location":[43.694693,7.1455782],"ts":"2020-03-22T16:46:45Z","tz":1,"tags":{"addr:city":"Cagnes-sur-Mer","addr:housenumber":"179","addr:postcode":"06800","addr:street":"Chemin du Val de Cagne","building":"yes","leisure":"sports_centre","name":"Val de Grimpe","sport":"climbing","website":"https://valdegrimpe.com/"}},"1096729611":{"location":[43.6186652,7.0448788],"ts":"2022-09-21T14:53:07Z","tz":1,"tags":{"access":"customers","leisure":"pitch","name":"Mur d'escalade","sport":"climbing","website":"http://cov-valbonne.org/tour-escalade.html"}},"2288536670":{"location":[43.6744986,7.0968172],"ts":"2016-07-30T15:33:12Z","tz":1,"tags":{"climbing:rock":"limestone","climbing:sport":"yes","fee":"no","name":"La Bagarée","outdoor":"yes","sport":"climbing"}},"2364917748":{"location":[43.6223668,7.0477188],"ts":"2013-07-23T16:05:00Z","tz":1,"tags":{"addr:city":"Valbonne","addr:country":"FR","addr:housenumber":"10","addr:postcode":"06560","addr:street":"Rue Soubeirane","leisure":"sports_centre","name":"Salle d'escalade du COV","opening_hours":"Mo-Fr 11:30-14:30,18:00-22:00; Sa 10:00-15:00","sport":"climbing"}},"2364930604":{"location":[43.710242,7.1932392],"ts":"2025-02-09T18:34:50Z","tz":1,"tags":{"addr:city":"Nice","addr:housenumber":"23","addr:postcode":"06200","addr:street":"Avenue Auguste Vérola","check_date":"2025-02-09","fee":"yes","leisure":"sports_centre","name":"Art Bloc","opening_hours":"Mo-Fr 09:00-23:00; Sa-Su 10:00-19:00","payment:cards":"yes","payment:cash":"yes","payment:contactless":"yes","sport":"climbing","website":"https://www.art-bloc.fr/"}},"2364935796":{"location":[43.7531472,7.1347237],"ts":"2013-06-28T21:33:24Z","tz":1,"tags":{"name":"Baou de Saint-Jeannet : Grotte du Peril Jaune","sport":"climbing"}},"2364935797":{"location":[43.7546009,7.1394444],"ts":"2013-06-28T21:33:24Z","tz":1,"tags":{"name":"Baou de Saint-Jeannet","sport":"climbing"}},"6247990751":{"location":[43.6189119,7.0440067],"ts":"2022-09-21T14:53:07Z","tz":1,"tags":{"leisure":"pitch","name":"Mur d'escalade","sport":"climbing"}},"6698618386":{"location":[43.7545393,7.1286784],"ts":"2022-08-28T22:25:12Z","tz":1,"tags":{"name":"La Cagne","sport":"climbing"}},"6700093785":{"location":[43.7497314,7.1334208],"ts":"2022-08-28T22:24:30Z","tz":1,"tags":{"name":"La Source","sport":"climbing"}},"6809984045":{"location":[43.8334106,7.2012205],"ts":"2019-10-04T11:25:23Z","tz":1,"tags":{"climbing:sport":"yes","leisure":"sports_centre","name":"Site d'Escalade de la Roquette sur Var","sport":"climbing"}},"9410050774":{"location":[43.706115,7.1939448],"ts":"2024-12-22T16:13:54Z","tz":1,"tags":{"addr:street":"Centre Commercial Nice Valley, Rue Alain Mimoun","climbing:boulder":"yes","climbing:speed":"no","climbing:sport":"no","climbing:toprope":"no","climbing:traditional":"no","leisure":"sports_centre","level":"1","name":"Arkose Nice","opening_hours":"Mo-Su 09:30-00:00","phone":"+33 4 86 11 50 20","sport":"climbing","website":"https://arkose.com/nice"}},"9920476182":{"location":[43.7419497,7.3325796],"ts":"2022-07-30T07:51:19Z","tz":1,"tags":{"name":"La Trinité","sport":"climbing"}},"10280913988":{"location":[43.8231994,7.3027942],"ts":"2022-12-22T18:24:58Z","tz":1,"tags":{"access":"yes","climbing":"route","name":"Contes - Le Pantier","sport":"climbing"}},"12377308395":{"location":[43.6405343,7.1318219],"ts":"2025-02-26T21:45:54Z","tz":1,"tags":{"addr:street":"970 RN 7, 06270 Villeneuve-Loubet","description":"Salle d'escalade","fee":"yes","leisure":"sports_centre","name":"Val de Grimpe","opening_hours":"Mo-Fr 10:00-23:00; Sa, Su 09:00-20:00","payment:cash":"yes","payment:credit_cards":"yes","phone":"0423359239","sport":"climbing","website":"https://www.valdegrimpe.fr/"}},"12479288752":{"location":[43.7690815,7.1923838],"ts":"2025-01-06T20:18:08Z","tz":1,"tags":{"building":"yes","climbing:toprope":"yes","outdoor":"yes","sport":"climbing"}}}