{"320679832":{"lat":39.994574,"lon":116.3052488,"ts":"2022-12-26T04:05:33Z","tz":8,"tags":{"access":"private","leisure":"sports_centre","name":"一体岩壁","name:zh":"一体岩壁","name:zh-Hans":"一体岩壁","name:zh-Hant":"一體岩壁","sport":"climbing"}},"607421941":{"lat":40.15048,"lon":116.2707057,"ts":"2018-07-12T14:27:13Z","tz":8,"tags":{"leisure":"pitch","name":"攀岩训练设施","sport":"climbing"}},"743595618":{"lat":40.0052446,"lon":116.3252303,"ts":"2022-05-02T10:06:53Z","tz":8,"tags":{"leisure":"pitch","name":"东操小岩壁","name:zh":"东操小岩壁","name:zh-Hans":"东操小岩壁","name:zh-Hant":"東操小岩壁","sport":"climbing"}},"1062272201":{"lat":40.1291365,"lon":116.0924991,"ts":"2023-01-20T05:14:50Z","tz":8,"tags":{"name":"卧牛岭岩场","natural":"cliff","sport":"climbing"}},"1062285878":{"lat":40.1049728,"lon":116.0827528,"ts":"2023-01-20T05:14:50Z","tz":8,"tags":{"name":"雄狮峰岩场","natural":"cliff","sport":"climbing"}},"1062874317":{"lat":40.12826,"lon":116.0814899,"ts":"2024-03-05T04:11:49Z","tz":8,"tags":{"name":"火焰山岩场（二层）","natural":"cliff","sport":"climbing"}},"1133365872":{"lat":40.1291742,"lon":116.0957712,"ts":"2023-01-20T05:14:50Z","tz":8,"tags":{"name":"外星人基地岩场","natural":"cliff","sport":"climbing"}},"1133365874":{"lat":40.1271824,"lon":116.0816823,"ts":"2023-01-20T05:14:50Z","tz":8,"tags":{"name":"小北壁岩场","natural":"cliff","sport":"climbing"}},"1133365876":{"lat":40.128179,"lon":116.0811066,"ts":"2023-01-20T05:14:50Z","tz":8,"tags":{"name":"火焰山岩场（一层）","natural":"cliff","sport":"climbing"}},"1133365882":{"lat":40.1325317,"lon":116.1038755,"ts":"2023-01-20T05:14:50Z","tz":8,"tags":{"name":"绳者基地","natural":"cliff","sport":"climbing"}},"1133365925":{"lat":40.1028693,"lon":116.079304,"ts":"2023-01-20T05:14:50Z","tz":8,"tags":{"name":"元宇宙岩场","natural":"cliff","sport":"climbing"}},"1133365926":{"lat":40.1026187,"lon":116.0800946,"ts":"2023-01-20T05:14:50Z","tz":8,"tags":{"name":"道德峰岩场","natural":"cliff","sport":"climbing"}},"1133630386":{"lat":40.1048163,"lon":116.0774477,"ts":"2023-01-20T05:14:50Z","tz":8,"tags":{"name":"变形金刚岩场","natural":"cliff","sport":"climbing"}},"1133630387":{"lat":40.1055516,"lon":116.0767857,"ts":"2023-01-20T05:14:50Z","tz":8,"tags":{"name":"任天堂岩场","natural":"cliff","sport":"climbing"}},"1133630388":{"lat":40.1052921,"lon":116.0769542,"ts":"2023-01-20T05:14:50Z","tz":8,"tags":{"name":"百鸟朝凤岩场","natural":"cliff","sport":"climbing"}},"4915834033":{"lat":39.9387402,"lon":116.3205113,"ts":"2017-06-15T02:29:15Z","tz":8,"tags":{"fee":"yes","indoor":"yes","leisure":"sports_centre","name":"首体首攀壁虎王攀岩俱乐部","name:en":"Vertigo Gecko Climbing Club","sport":"climbing"}},"6124301724":{"lat":40.129835,"lon":116.0826301,"ts":"2021-12-06T08:59:38Z","tz":8,"tags":{"name":"火焰山","natural":"peak","sport":"climbing"}},"9757757639":{"lat":40.1037486,"lon":116.077545,"ts":"2022-05-21T09:19:16Z","tz":8,"tags":{"leisure":"sports_centre","name":"飞拉达","sport":"climbing"}},"12441680707":{"lat":39.9938381,"lon":116.3176134,"ts":"2024-12-22T14:59:35Z","tz":8,"tags":{"leisure":"sports_centre","sport":"climbing"}}}