{"12348848024":{"lat":42.3947459,"lon":19.3985969,"ts":"2024-11-20T11:38:28Z","tz":1,"tags":{"name":"Les mille crougnes","name:sr":"Смоки","natural":"cliff","sport":"climbing"}},"12348848025":{"lat":42.3947364,"lon":19.3976391,"ts":"2024-11-20T11:38:28Z","tz":1,"tags":{"name":"We love ka","name:sr":"Смоки","natural":"cliff","sport":"climbing"}},"12348848027":{"lat":42.3943662,"lon":19.3954513,"ts":"2024-11-20T11:38:28Z","tz":1,"tags":{"name":"Regae","name:sr":"Смоки","natural":"cliff","sport":"climbing"}},"12348848028":{"lat":42.3939454,"lon":19.3942482,"ts":"2024-11-20T11:38:28Z","tz":1,"tags":{"name":"Disco & Jazz","name:sr":"Смоки","natural":"cliff","sport":"climbing"}},"12348848029":{"lat":42.3962956,"lon":19.4022054,"ts":"2024-11-17T18:09:06Z","tz":1,"tags":{"name":"Babydoll","name:sr":"Смоки","natural":"cliff","sport":"climbing"}},"12348848030":{"lat":42.3970779,"lon":19.4031763,"ts":"2024-11-17T18:09:06Z","tz":1,"tags":{"name":"Emilio","name:sr":"Смоки","natural":"cliff","sport":"climbing"}},"12348848031":{"lat":42.3976689,"lon":19.4042355,"ts":"2024-11-17T18:09:06Z","tz":1,"tags":{"name":"Besa","name:sr":"Смоки","natural":"cliff","sport":"climbing"}},"12348848043":{"lat":42.3930743,"lon":19.3912878,"ts":"2024-11-17T18:09:06Z","tz":1,"tags":{"name":"Gray Wall","name:sr":"Смоки","natural":"cliff","sport":"climbing"}},"12348848044":{"lat":42.3928453,"lon":19.3924082,"ts":"2024-11-17T18:09:06Z","tz":1,"tags":{"name":"Left Wall","name:sr":"Смоки","natural":"cliff","sport":"climbing"}},"12348848045":{"lat":42.3931115,"lon":19.3943156,"ts":"2024-11-17T18:09:06Z","tz":1,"tags":{"name":"Right Wall","name:sr":"Смоки","natural":"cliff","sport":"climbing"}},"12348848080":{"lat":42.4025267,"lon":19.4157837,"ts":"2024-11-17T18:09:06Z","tz":1,"tags":{"name":"Jungle","name:sr":"Смоки","natural":"cliff","sport":"climbing"}},"12357940719":{"lat":42.3941865,"lon":19.3947076,"ts":"2024-11-20T11:38:28Z","tz":1,"tags":{"name":"Techno","name:sr":"Смоки","natural":"cliff","sport":"climbing"}}}