{"1488754897":{"lat":36.5708889,"lon":30.5298333,"ts":"2019-08-29T20:41:34Z","tz":2,"tags":{"name":"Karataslar Klettergebiet","natural":"rock","sport":"climbing"}},"8025647436":{"lat":36.3934495,"lon":30.4790501,"ts":"2023-11-26T20:57:22Z","tz":2,"tags":{"name":"Cennet","natural":"cliff","sport":"climbing"}},"8033049793":{"lat":36.4088533,"lon":30.4696921,"ts":"2024-12-27T13:26:01Z","tz":2,"tags":{"name":"Kabe 1","natural":"cliff","sport":"climbing"}},"8033049794":{"lat":36.4079959,"lon":30.4716002,"ts":"2024-12-04T18:02:12Z","tz":2,"tags":{"name":"Sahin Tepesi","name:tr":"Şahin Tepesi","natural":"cliff","sport":"climbing"}},"8033049795":{"lat":36.4068834,"lon":30.4719784,"ts":"2024-12-27T13:26:01Z","tz":2,"tags":{"name":"Cirali Right","name:tr":"Çıralı Sağ","natural":"cliff","sport":"climbing"}},"11035629756":{"lat":36.4879774,"lon":30.4493286,"ts":"2024-12-04T22:58:52Z","tz":2,"tags":{"name":"Beycik 1","natural":"cliff","sport":"climbing"}},"11035629757":{"lat":36.4895575,"lon":30.4564539,"ts":"2024-12-04T22:58:52Z","tz":2,"tags":{"name":"Beycik 2","natural":"cliff","sport":"climbing"}},"11035629758":{"lat":36.4941027,"lon":30.4503345,"ts":"2024-12-04T22:58:52Z","tz":2,"tags":{"name":"Beycik 3","natural":"cliff","sport":"climbing"}},"12396409937":{"lat":36.3896357,"lon":30.4697285,"ts":"2024-12-12T21:02:19Z","tz":2,"tags":{"name":"Horguc","name:tr":"Hörgüç","natural":"cliff","sport":"climbing"}},"12396409938":{"lat":36.388902,"lon":30.471166,"ts":"2024-12-12T21:02:19Z","tz":2,"tags":{"name":"Dershane 2","natural":"cliff","sport":"climbing"}},"12396409941":{"lat":36.3873497,"lon":30.4583985,"ts":"2024-12-04T17:22:12Z","tz":2,"tags":{"name":"Kadir's Tree Houses","name:tr":"Kadir'in Ağaç Evleri","natural":"cliff","sport":"climbing"}},"12396482269":{"lat":36.3934376,"lon":30.4693704,"ts":"2024-12-27T13:52:35Z","tz":2,"tags":{"name":"Gise","name:tr":"Gişe","natural":"cliff","sport":"climbing"}},"12396482270":{"lat":36.3916043,"lon":30.4582257,"ts":"2024-12-12T09:54:07Z","tz":2,"tags":{"name":"Vadi","natural":"cliff","sport":"climbing"}},"12396482271":{"lat":36.3909622,"lon":30.4593611,"ts":"2024-12-12T09:54:07Z","tz":2,"tags":{"name":"Daltonlar","natural":"cliff","sport":"climbing"}},"12396482272":{"lat":36.3931424,"lon":30.4757533,"ts":"2024-12-04T17:52:05Z","tz":2,"tags":{"name":"La Plaj","natural":"cliff","sport":"climbing"}},"12396482273":{"lat":36.3810131,"lon":30.4857901,"ts":"2024-12-04T17:52:05Z","tz":2,"tags":{"name":"Ceneviz Liman","natural":"cliff","sport":"climbing"}},"12396482274":{"lat":36.3801624,"lon":30.4849216,"ts":"2024-12-04T17:52:05Z","tz":2,"tags":{"name":"Ceneviz Magara","name:tr":"Ceneviz Mağara","natural":"cliff","sport":"climbing"}},"12396489253":{"lat":36.3998968,"lon":30.4750898,"ts":"2024-12-27T13:26:01Z","tz":2,"tags":{"name":"Sahil","natural":"cliff","sport":"climbing"}},"12417358956":{"lat":36.3907631,"lon":30.4695962,"ts":"2024-12-12T21:02:19Z","tz":2,"tags":{"name":"Horguc Magara -Left","name:tr":"Hörgüç Mağara -Sol","natural":"cliff","sport":"climbing"}},"12417358957":{"lat":36.3904413,"lon":30.4693071,"ts":"2024-12-12T21:02:19Z","tz":2,"tags":{"name":"Horguc Magara -Right","name:tr":"Hörgüç Mağara -Sağ","natural":"cliff","sport":"climbing"}},"12417358958":{"lat":36.3900428,"lon":30.4694035,"ts":"2024-12-12T21:02:19Z","tz":2,"tags":{"name":"Horguc Getto","name:tr":"Hörgüç Getto","natural":"cliff","sport":"climbing"}},"12417358959":{"lat":36.389093,"lon":30.4712192,"ts":"2024-12-12T21:02:19Z","tz":2,"tags":{"name":"Dershane 1","natural":"cliff","sport":"climbing"}},"12417358960":{"lat":36.3889566,"lon":30.4712998,"ts":"2024-12-12T21:02:19Z","tz":2,"tags":{"name":"Dershane 6","natural":"cliff","sport":"climbing"}},"12417358961":{"lat":36.3888203,"lon":30.4714024,"ts":"2024-12-12T21:02:19Z","tz":2,"tags":{"name":"Dershane 5","natural":"cliff","sport":"climbing"}},"12455816482":{"lat":36.3885749,"lon":30.4713337,"ts":"2024-12-27T12:56:55Z","tz":2,"tags":{"name":"Dershane 4","natural":"cliff","sport":"climbing"}},"12455816483":{"lat":36.3885888,"lon":30.4712151,"ts":"2024-12-27T12:56:55Z","tz":2,"tags":{"name":"Dershane 3","natural":"cliff","sport":"climbing"}},"12455898907":{"lat":36.4074691,"lon":30.4716341,"ts":"2024-12-27T13:26:01Z","tz":2,"tags":{"name":"Cirali Left","name:tr":"Çıralı Sol","natural":"cliff","sport":"climbing"}},"12455898923":{"lat":36.4085808,"lon":30.4699893,"ts":"2024-12-27T13:26:01Z","tz":2,"tags":{"name":"Kabe 2","natural":"cliff","sport":"climbing"}},"12455898924":{"lat":36.4083213,"lon":30.470279,"ts":"2024-12-27T13:26:01Z","tz":2,"tags":{"name":"Kabe 3","natural":"cliff","sport":"climbing"}},"12455898925":{"lat":36.4080793,"lon":30.4706908,"ts":"2024-12-27T13:26:01Z","tz":2,"tags":{"name":"Kabe 4","natural":"cliff","sport":"climbing"}}}