{"29422638":{"location":[51.608267,-4.3120832],"ts":"2009-01-01T14:47:48Z","tz":0,"tags":{"climbing":"route","climbing:grade:british:adjectival":"VD","climbing:length":"20","climbing:pitches":"1","climbing:rock":"limestone","name":"Right Wall"}},"259634935":{"location":[51.5427001,-4.2362874],"ts":"2020-01-12T20:25:26Z","tz":0,"tags":{"climbing:trad":"yes","name":"Boiler Slab","name:cy":"Slab Boeler","natural":"cliff","sport":"climbing"}},"324270730":{"location":[51.6081867,-4.3122198],"ts":"2009-01-01T14:47:39Z","tz":0,"tags":{"climbing":"route_bottom"}},"324270731":{"location":[51.6083473,-4.3119465],"ts":"2009-01-01T14:47:39Z","tz":0,"tags":{"climbing":"route_top"}},"418642311":{"location":[51.5615965,-4.2848897],"ts":"2020-01-12T20:25:26Z","tz":0,"tags":{"climbing:trad":"yes","name":"Upper Jacky's Tor","name:cy":"Twr Jacky Uchaf","natural":"cliff","sport":"climbing"}},"423787177":{"location":[51.5616893,-4.2888531],"ts":"2020-01-12T20:25:26Z","tz":0,"tags":{"leisure":"Traditional Crag","name":"King Wall","name:cy":"Wal y Brenin","sport":"climbing"}},"455441030":{"location":[51.562098,-4.2890733],"ts":"2020-01-12T20:25:26Z","tz":0,"tags":{"climbing:trad":"yes","name":"Lewes Castle","name:cy":"Castell Lewes","natural":"cliff","sport":"climbing"}},"475721823":{"location":[51.561926,-4.279876],"ts":"2020-01-12T20:25:26Z","tz":0,"tags":{"climbing:trad":"yes","name":"Grey Wall","name:cy":"Wal Lwyd","natural":"cliff","sport":"climbing"}},"475721824":{"location":[51.560966,-4.27835],"ts":"2020-01-12T20:25:26Z","tz":0,"tags":{"climbing:trad":"yes","name":"West Thurba","name:cy":"Gorllewin Thurba","natural":"cliff","sport":"climbing"}},"475721825":{"location":[51.56125,-4.285503],"ts":"2020-01-12T20:25:26Z","tz":0,"tags":{"leisure":"Traditional Crag","name":"Jacky's Tor","name:cy":"Twr Jacky","sport":"climbing"}},"475721826":{"location":[51.5553,-4.265838],"ts":"2020-01-12T20:25:26Z","tz":0,"tags":{"climbing:trad":"yes","name":"First Sister","name:cy":"Chwaer Gyntaf","natural":"cliff","sport":"climbing"}},"475721827":{"location":[51.555061,-4.265686],"ts":"2020-01-12T20:25:26Z","tz":0,"tags":{"climbing:trad":"yes","name":"Second Sister","name:cy":"Ail Chwaer","natural":"cliff","sport":"climbing"}},"475721828":{"location":[51.554057,-4.263057],"ts":"2020-11-07T19:50:19Z","tz":0,"tags":{"climbing:sport":"yes","name":"Third Sister","name:cy":"Trydydd Chwaer","natural":"cliff","sport":"climbing"}},"475726301":{"location":[51.5618039,-4.2874324],"ts":"2020-01-12T20:25:26Z","tz":0,"tags":{"climbing:trad":"yes","name":"Devils Truck","name:cy":"Tryc Diafol","natural":"cliff","sport":"climbing"}},"1274238089":{"location":[51.561053,-4.282313],"ts":"2020-01-12T20:25:26Z","tz":0,"tags":{"leisure":"Traditional Crag","name":"Block Buttress","name:cy":"Bae Mewslade","sport":"climbing"}},"1274238091":{"location":[51.5586103,-4.2791862],"ts":"2020-01-12T20:25:26Z","tz":0,"tags":{"name":"Thurba Head","name:cy":"Pen Thurba","sport":"climbing"}},"1274238094":{"location":[51.561929,-4.286045],"ts":"2020-01-12T20:25:26Z","tz":0,"tags":{"climbing:trad":"yes","name":"Great Boulder Cove","name:cy":"Gilfach Clogfaen Gwych","natural":"cliff","sport":"climbing"}},"1274238098":{"location":[51.561582,-4.283302],"ts":"2020-01-12T20:25:26Z","tz":0,"tags":{"climbing:trad":"yes","name":"Molar Wall West","name:cy":"Wal Cilddant y Gorllewin","natural":"cliff","sport":"climbing"}},"1284741717":{"location":[51.547746,-4.249204],"ts":"2020-01-12T20:25:26Z","tz":0,"tags":{"climbing:trad":"yes","name":"Yellow Buttress","name:cy":"Botwm Melyn","natural":"cliff","sport":"climbing"}},"1284741857":{"location":[51.5441899,-4.2411255],"ts":"2020-01-12T20:25:26Z","tz":0,"tags":{"climbing:trad":"yes","name":"Upper Blackhole Cliff","name:cy":"Clogwyn Twll Du Uchaf","natural":"cliff","sport":"climbing"}},"1284741952":{"location":[51.542047,-4.231169],"ts":"2020-01-12T20:25:26Z","tz":0,"tags":{"climbing:trad":"yes","name":"Longhole Cliff","name:cy":"Clogwyn Twll Hir","natural":"cliff","sport":"climbing"}},"1284742014":{"location":[51.548562,-4.250826],"ts":"2020-01-12T20:25:26Z","tz":0,"tags":{"climbing:trad":"yes","name":"Horses Cliff","name:cy":"Clogwyn Ceffylau","natural":"cliff","sport":"climbing"}},"1284742049":{"location":[51.549568,-4.252035],"ts":"2019-05-08T13:48:21Z","tz":0,"tags":{"climbing:trad":"yes","name":"Hollow Top","natural":"cliff","sport":"climbing"}},"1284742097":{"location":[51.546657,-4.24771],"ts":"2020-01-12T20:25:26Z","tz":0,"tags":{"climbing:trad":"yes","name":"White Pillar","name:cy":"Piler Gwyn","natural":"cliff","sport":"climbing"}},"1284742117":{"location":[51.542514,-4.235688],"ts":"2020-01-12T20:25:26Z","tz":0,"tags":{"climbing:trad":"yes","name":"Engine Room Slab","name:cy":"Slab Ystafell Beiriant","natural":"cliff","sport":"climbing"}},"1284742144":{"location":[51.547453,-4.248687],"ts":"2023-10-21T10:52:10Z","tz":0,"tags":{"climbing:trad":"yes","name":"Devil's Cwm","sport":"climbing"}},"1284742170":{"location":[51.5418862,-4.2286253],"ts":"2020-01-12T20:25:26Z","tz":0,"tags":{"climbing:trad":"yes","name":"Overton Cliff","name:cy":"Clogwyn Owrtyn","natural":"cliff","sport":"climbing"}},"1286287608":{"location":[51.553858,-4.26156],"ts":"2023-04-06T15:04:42Z","tz":0,"tags":{"climbing":"crag","climbing:grade:uiaa:max":"?","climbing:grade:uiaa:min":"?","name":"Deborah's Overhang","name:cy":"Gor-hongian Deborah","natural":"cliff","sport":"climbing"}},"1286287609":{"location":[51.5538016,-4.2633305],"ts":"2019-05-08T13:48:22Z","tz":0,"tags":{"climbing:sport":"yes","name":"Deborah's Zawn","natural":"cliff","sport":"climbing"}},"1286526281":{"location":[51.5529854,-4.2627722],"ts":"2020-01-12T20:25:26Z","tz":0,"tags":{"climbing:trad":"yes","name":"The Knave","name:cy":"Y Knave","natural":"cliff","sport":"climbing"}},"1291727197":{"location":[51.565188,-4.303595],"ts":"2023-04-06T15:04:42Z","tz":0,"tags":{"climbing":"crag","climbing:trad":"yes","name":"Silent Fright Buttress","natural":"cliff","sport":"climbing"}},"1291727211":{"location":[51.565597,-4.303813],"ts":"2012-01-02T12:16:43Z","tz":0,"tags":{"leisure":"Traditional Crag","name":"Evening Wall","sport":"climbing"}},"1291727215":{"location":[51.56719,-4.300633],"ts":"2012-01-02T12:16:48Z","tz":0,"tags":{"leisure":"Traditional Crag","name":"Sheepbone Wall","sport":"climbing"}},"1291727246":{"location":[51.566113,-4.301817],"ts":"2023-11-24T09:59:02Z","tz":0,"tags":{"climbing":"crag","climbing:trad":"yes","name":"Lifebuoy Buttress","natural":"cliff","sport":"climbing"}},"1291727261":{"location":[51.566464,-4.301587],"ts":"2012-01-02T12:16:49Z","tz":0,"tags":{"leisure":"Traditional Crag","name":"Sinister Sister Zawn","sport":"climbing"}},"1291727279":{"location":[51.5641417,-4.3056499],"ts":"2023-04-06T15:04:42Z","tz":0,"tags":{"climbing":"crag","climbing:trad":"yes","name":"Poser Buttress","natural":"cliff","sport":"climbing"}},"1291727282":{"location":[51.565834,-4.302384],"ts":"2023-04-06T15:04:42Z","tz":0,"tags":{"climbing":"crag","climbing:sport":"yes","name":"Black Buttress","natural":"cliff","sport":"climbing"}},"1291727353":{"location":[51.5669483,-4.3004663],"ts":"2012-01-02T12:16:49Z","tz":0,"tags":{"leisure":"Traditional Crag","name":"Trial Wall","sport":"climbing"}},"1319881738":{"location":[51.554436,-4.264437],"ts":"2020-01-12T20:25:26Z","tz":0,"tags":{"climbing:sport":"yes","name":"Sister Two and Half","name:cy":"Chwaer Dau a Hanner","natural":"cliff","sport":"climbing"}},"1334401156":{"location":[51.557763,-4.264955],"ts":"2023-04-06T15:04:42Z","tz":0,"tags":{"climbing":"crag","climbing:trad":"yes","name":"Saddam's Wall","name:cy":"Wal Saddam","natural":"cliff","sport":"climbing"}},"1334401157":{"location":[51.556171,-4.268079],"ts":"2020-01-12T20:25:26Z","tz":0,"tags":{"climbing:trad":"yes","name":"Rams Grove Crag","name:cy":"Graig Hwrdd Llwyn","natural":"cliff","sport":"climbing"}},"1619898967":{"location":[51.550345,-4.255659],"ts":"2020-01-12T20:25:26Z","tz":0,"tags":{"climbing:trad":"yes","name":"Paviland Main Cliff","name:cy":"Prif Glogwyn Penifei","natural":"cliff","sport":"climbing"}},"1807025271":{"location":[51.5502453,-4.2578932],"ts":"2020-01-12T20:25:26Z","tz":0,"tags":{"leisure":"Traditional Crag","name":"Paviland Far Far Far West","name:cy":"Gorllewin Pell Pell Pell Penifei","sport":"climbing"}},"1807025272":{"location":[51.5511082,-4.2586163],"ts":"2020-11-07T20:42:20Z","tz":0,"tags":{"alt_name":"Paviland Wild West","climbing:trad":"yes","name":"Gilfach Staliwn","name:cy":"Gilfach Staliwn","natural":"cliff","sport":"climbing"}},"2136057774":{"location":[51.5508407,-4.2568641],"ts":"2020-01-12T20:25:26Z","tz":0,"tags":{"climbing:sport":"yes","name":"Paviland Far Far West","name:cy":"Gorllewin Pell Pell Penifei","natural":"cliff","sport":"climbing"}},"2137379747":{"location":[51.550372,-4.2566854],"ts":"2020-01-12T20:25:26Z","tz":0,"tags":{"climbing:sport":"yes","name":"Paviland Far West","name:cy":"Gorllewin Pell Penifei","natural":"cliff","sport":"climbing"}},"2309597899":{"location":[51.5494294,-4.2536156],"ts":"2020-01-12T20:25:26Z","tz":0,"tags":{"climbing:trad":"yes","name":"Juniper Wall","name:cy":"Wal Juniper","natural":"cliff","sport":"climbing"}},"2311092054":{"location":[51.550981,-4.25813],"ts":"2020-01-12T20:25:26Z","tz":0,"tags":{"alt_name":"Paviland Way Out West","climbing:trad":"yes","name":"Quarter-dome Slabs","name:cy":"Slabiau chwarter cromen","natural":"cliff","sport":"climbing"}},"2404162416":{"location":[51.569264,-4.294105],"ts":"2013-08-01T21:55:05Z","tz":0,"tags":{"leisure":"sport climbing","name":"Black Wall","sport":"climbing"}},"2404162417":{"location":[51.569183,-4.295173],"ts":"2013-08-01T21:55:05Z","tz":0,"tags":{"leisure":"sport climbing","name":"Shipwreck Cove","sport":"climbing"}},"2408330240":{"location":[51.56673,-4.30072],"ts":"2023-04-06T15:04:42Z","tz":0,"tags":{"climbing":"crag","climbing:sport":"yes","name":"Wedge Wall","natural":"cliff","sport":"climbing"}}}