{"983384035":{"location":[52.9589207,-6.3594514],"ts":"2010-11-09T14:01:09Z","tz":0,"tags":{"name":"Dwyer's Rock","sport":"climbing"}},"1013749048":{"location":[52.9873526,-6.4038712],"ts":"2021-12-20T13:53:03Z","tz":0,"tags":{"area":"yes","name":"Glanmalure North Crag","name:en":"Pole Rock","natural":"cliff","source:link":"http://wiki.climbing.ie/index.php?title=Glenmalure#GLENMALURE_NORTH_CRAG_.2F_POLE_ROCK","sport":"climbing"}},"1013749049":{"location":[52.9908494,-6.4300866],"ts":"2021-12-21T15:14:37Z","tz":0,"tags":{"highway":"path","informal":"yes","name":"Rock climbing access","sport":"climbing","surface":"mud","trail_visibility":"no"}},"1013749050":{"location":[52.9901535,-6.433419],"ts":"2021-12-20T13:53:03Z","tz":0,"tags":{"area":"yes","name":"Baravore Valley Lower","natural":"cliff","source:link":"http://wiki.climbing.ie/index.php?title=Glenmalure#BARAVORE_VALLEY_.28LOWER.29","sport":"climbing"}},"1014049285":{"location":[52.9840899,-6.4396395],"ts":"2021-12-21T15:14:37Z","tz":0,"tags":{"highway":"path","incline":"up","informal":"yes","name":"Rock climbing access","sport":"climbing","surface":"mud","trail_visibility":"poor"}},"1014049286":{"location":[52.9844888,-6.4420658],"ts":"2021-12-21T15:14:37Z","tz":0,"tags":{"highway":"path","incline":"up","informal":"yes","sport":"climbing","surface":"mud","trail_visibility":"poor"}},"1014049287":{"location":[52.9835778,-6.4456423],"ts":"2022-02-08T16:01:11Z","tz":0,"tags":{"hide":"yes","highway":"path","incline":"up","informal":"yes","name":"Rock climbing access","sport":"climbing","surface":"mud","trail_visibility":"no"}},"1014049288":{"location":[52.9886197,-6.4422214],"ts":"2022-02-08T16:01:11Z","tz":0,"tags":{"highway":"path","incline":"up","informal":"yes","name":"Rock climbing access","sport":"climbing","surface":"mud","trail_visibility":"no"}},"1014049289":{"location":[52.9854611,-6.4430975],"ts":"2021-12-21T12:59:50Z","tz":0,"tags":{"area":"yes","name":"Great Gully Ridge","natural":"cliff","source:link":"http://wiki.climbing.ie/index.php?title=Glenmalure#BARAVORE_VALLEY.2F_BENLEAGH","sport":"climbing"}},"9355622001":{"location":[52.9856694,-6.4430809],"ts":"2021-12-21T12:59:50Z","tz":0,"tags":{"climbing:sport":"abseil","height":"45","name":"Abseil","natural":"cliff","sport":"climbing"}},"9355622002":{"location":[52.985702,-6.4429104],"ts":"2021-12-21T12:59:50Z","tz":0,"tags":{"climbing:sport":"abseil","height":"80","name":"Abseil","natural":"cliff","sport":"climbing"}}}