{"653579025":{"location":[38.0175884,-107.6763039],"ts":"2018-12-09T02:57:50Z","tz":-7,"tags":{"climbing:ice":"10","name":"Five Fingers","natural":"cliff","operator":"Ouray Ice Park","sport":"climbing"}},"653579029":{"location":[38.0181289,-107.6768001],"ts":"2020-01-12T23:16:53Z","tz":-7,"tags":{"climbing:ice":"no","name":"Shithouse Wall (Closed)","natural":"cliff","operator":"Ouray Ice Park","sport":"climbing"}},"653579030":{"location":[38.0188584,-107.6766198],"ts":"2020-01-12T23:16:53Z","tz":-7,"tags":{"climbing:ice":"no","name":"Gazebo Wall (Closed)","natural":"cliff","operator":"Ouray Ice Park","sport":"climbing"}},"653658622":{"location":[38.0153241,-107.6728979],"ts":"2018-12-09T02:36:49Z","tz":-7,"tags":{"climbing:ice":"yes","name":"Pic 'o the Vic","natural":"cliff","operator":"Ouray Ice Park","sport":"climbing"}},"653658628":{"location":[38.0156429,-107.6733114],"ts":"2020-01-12T23:56:33Z","tz":-7,"tags":{"climbing:ice":"15","climbing:toprope":"no","name":"Upper Bridge and Lead Area","natural":"cliff","operator":"Ouray Ice Park","sport":"climbing"}},"653658637":{"location":[38.0163618,-107.6742822],"ts":"2018-12-09T02:57:50Z","tz":-7,"tags":{"climbing:ice":"31","name":"Lower Bridge","natural":"cliff","operator":"Ouray Ice Park","sport":"climbing"}},"653658639":{"location":[38.0168826,-107.6746269],"ts":"2018-12-09T02:57:50Z","tz":-7,"tags":{"climbing:ice":"6","name":"Scottish Gullies","natural":"cliff","operator":"Ouray Ice Park","sport":"climbing"}},"653658643":{"location":[38.0173928,-107.6752733],"ts":"2020-01-12T23:16:53Z","tz":-7,"tags":{"climbing:ice":"4","name":"Stump Wall","natural":"cliff","operator":"Ouray Ice Park","sport":"climbing"}},"653670146":{"location":[38.015291,-107.6736595],"ts":"2018-12-09T01:57:30Z","tz":-7,"tags":{"climbing:ice":"yes","name":"Kid's Wall","natural":"cliff","operator":"Ouray Ice Park","sport":"climbing"}},"653670151":{"location":[38.0113403,-107.6658476],"ts":"2020-01-12T23:21:04Z","tz":-7,"tags":{"climbing:ice":"5","name":"Deep South","natural":"cliff","operator":"Ouray Ice Park","sport":"climbing"}},"653670152":{"location":[38.0138587,-107.6695303],"ts":"2018-12-09T02:57:51Z","tz":-7,"tags":{"climbing:ice":"13","name":"New Funtier","natural":"cliff","operator":"Ouray Ice Park","sport":"climbing"}},"653670158":{"location":[38.0143062,-107.6706317],"ts":"2021-01-17T00:22:47Z","tz":-7,"tags":{"climbing:ice":"yes","disused":"yes","name":"Grad School","natural":"cliff","operator":"Ouray Ice Park","sport":"climbing"}},"653670161":{"location":[38.0147341,-107.6718964],"ts":"2020-01-18T04:06:33Z","tz":-7,"tags":{"climbing:ice":"17","name":"School Room","natural":"cliff","operator":"Ouray Ice Park","sport":"climbing"}},"653670162":{"location":[38.0151028,-107.6726306],"ts":"2018-12-09T02:57:51Z","tz":-7,"tags":{"climbing:ice":"23","name":"Trestle and Mixed Alcove","natural":"cliff","operator":"Ouray Ice Park","sport":"climbing"}},"762739518":{"location":[38.0117165,-107.6669721],"ts":"2020-01-12T23:21:04Z","tz":-7,"tags":{"climbing:ice":"32","name":"South Park","natural":"cliff","operator":"Ouray Ice Park","sport":"climbing"}},"762742224":{"location":[38.0159276,-107.6737097],"ts":"2020-01-12T23:56:33Z","tz":-7,"tags":{"climbing:ice":"yes","name":"Cowboy Up","natural":"cliff","operator":"Ouray Ice Park","sport":"climbing"}},"7164863603":{"location":[38.0239914,-107.6719231],"ts":"2024-08-02T21:53:47Z","tz":-7,"tags":{"addr:city":"Ouray","addr:housenumber":"280","addr:postcode":"81427","addr:state":"CO","addr:street":"7th Avenue","name":"Peak Mountain Guides","office":"guide","sport":"climbing","website":"https://peakguides.com/"}},"7164864276":{"location":[38.0214968,-107.6717077],"ts":"2020-02-02T03:18:16Z","tz":-7,"tags":{"addr:housenumber":"480","addr:street":"Main Street","name":"Basecamp","sport":"climbing"}}}