{"240635842":{"location":[-37.8201561,145.1720596],"ts":"2025-03-05T02:23:50Z","tz":10,"tags":{"addr:country":"AU","addr:housenumber":"16-18","addr:postcode":"3131","addr:state":"VIC","addr:street":"Varman Court","addr:suburb":"Nunawading","building":"yes","climbing:boulder":"yes","climbing:length":"13","climbing:length:max":"18","climbing:sport":"yes","climbing:toprope":"yes","email":"info@hardrock.com.au","fax":"+61 3 9894 3023","fee":"yes","indoor":"yes","leisure":"sports_centre","name":"Hardrock","opening_hours":"Mo-Fr 12:00-22:00; Sa,Su 11:00-19:00","opening_hours:url":"http://www.hardrock.com.au/cms/details.asp?NewsID=90","phone":"+61 3 9894 4183","sport":"climbing","website":"https://www.hardrock.com.au/","wheelchair":"yes"}},"260729883":{"location":[-37.8014293,144.9934058],"ts":"2025-06-06T11:41:28Z","tz":10,"tags":{"addr:country":"AU","addr:housenumber":"1","addr:postcode":"3067","addr:state":"VIC","addr:street":"Studley Street","addr:suburb":"Abbotsford","building":"industrial","climbing:boulder":"yes","fee":"yes","indoor":"yes","name":"The Lactic Factory","opening_hours":"Mo-Fr 12:00-22:00; Sa,Su 10:00-20:00","phone":"+61 3 9416 2508","sport":"climbing","website":"http://www.thelacticfactory.com.au"}},"400206880":{"location":[-37.7663565,144.9592643],"ts":"2025-07-06T10:55:33Z","tz":10,"tags":{"addr:country":"AU","addr:housenumber":"329","addr:postcode":"3056","addr:state":"VIC","addr:street":"Victoria Street","addr:suburb":"Brunswick","building":"yes","climbing:boulder":"yes","contact:instagram":"northsideboulders","email":"info@northsideboulders.com","fee":"yes","indoor":"yes","leisure":"sports_centre","name":"Northside Boulders Brunswick","opening_hours":"Mo-Fr 06:30-22:00; Sa-Su 10:00-19:00","sport":"climbing","website":"https://www.northsideboulders.com/"}},"517813840":{"location":[-37.726771,144.9508088],"ts":"2025-03-01T06:45:16Z","tz":10,"tags":{"addr:housenumber":"182-184","addr:street":"Sussex Street","building":"yes","climbing:boulder":"no","climbing:length":"13","climbing:length:max":"25","climbing:speed":"yes","climbing:sport":"yes","climbing:toprope":"yes","email":"staff@gravityworx.com.au","fee":"yes","indoor":"yes","leisure":"sports_centre","name":"Gravity Worx","opening_hours":"Mo-Fr 12:00-21:30; Sa,Su 11:00-18:00; PH 11:00-17:00","phone":"+61 3 9350 1789","sport":"climbing","website":"https://www.gravityworx.com.au/","wheelchair":"yes"}},"756184430":{"location":[-37.8365145,145.0272614],"ts":"2019-12-17T09:01:31Z","tz":10,"tags":{"leisure":"sports_centre","sport":"climbing"}},"1073561718":{"location":[-37.731063,144.9531903],"ts":"2022-06-26T13:47:16Z","tz":10,"tags":{"addr:housenumber":"20","addr:postcode":"3058","addr:state":"VIC","addr:street":"Louvain Street","addr:suburb":"Coburg North","building":"yes","leisure":"sports_centre","name":"Crux Bouldering","sport":"climbing","website":"http://www.thecruxclimbing.com.au/"}},"1075688284":{"location":[-37.8206641,145.1588322],"ts":"2024-08-12T03:06:30Z","tz":10,"tags":{"addr:country":"AU","addr:housenumber":"15-33","addr:postcode":"3130","addr:state":"VIC","addr:street":"Alfred Street","addr:suburb":"Blackburn","building":"yes","climbing:boulder":"yes","climbing:length:max":"17","climbing:sport":"yes","climbing:toprope":"yes","email":"TLBB@urbanclimb.com.au","fee":"yes","indoor":"yes","leisure":"sports_centre","name":"Urban Climb","opening_hours":"Mo-Fr 10:00-22:00; Sa,Su 08:00-20:00","phone":"+611300 001 203","phone:AU":"1300001203","sport":"climbing","website":"https://urbanclimb.com.au/locations/blackburn/","wheelchair":"yes"}},"3388467782":{"location":[-37.807364,144.9624993],"ts":"2025-03-04T09:04:00Z","tz":10,"tags":{"addr:country":"AU","addr:housenumber":"501","addr:postcode":"3000","addr:state":"VIC","addr:street":"Swanston Street","addr:suburb":"Melbourne","climbing:boulder":"no","climbing:length":"15","climbing:sport":"yes","climbing:toprope":"yes","email":"info@hardrock.com.au","fax":"+61 3 9662 4144","fee":"yes","indoor":"yes","leisure":"sports_centre","name":"Hardrock","note":"enter via Shop 4 / 8 Franklin Street, Melbourne","opening_hours":"Mo-Fr 12:00-22:00; Sa,Su 11:00-19:00","opening_hours:url":"http://www.hardrock.com.au/cms/details.asp?NewsID=90","phone":"+61 3 9631 5300","sport":"climbing","website":"https://www.hardrock.com.au/","wheelchair":"yes"}},"4251954805":{"location":[-37.9464448,145.0791493],"ts":"2023-11-13T10:33:21Z","tz":10,"tags":{"addr:housenumber":"444","addr:street":"Warrigal Road","addr:unit":"4","email":"activate@hardrock.com.au","fee":"yes","indoor":"yes","leisure":"sports_centre","name":"Activate by Hardrock","opening_hours":"Mo-Su 10:00-18:00; Fr 14:00-18:00","phone":"+61 3 9558 1199","sport":"climbing","website":"https://www.activatebyhardrock.com.au/"}},"9607773349":{"location":[-37.8549166,144.8668394],"ts":"2022-03-26T04:30:07Z","tz":10,"tags":{"addr:housenumber":"134","addr:postcode":"3016","addr:state":"VIC","addr:street":"Maddox Road","addr:suburb":"Williamstown North","addr:unit":"Warehouse 2","fee":"yes","leisure":"sports_centre","name":"Clip 'n Climb","sport":"climbing","website":"https://www.clipnclimbwilliamstown.com.au/"}},"9862019478":{"location":[-37.7320176,144.9585833],"ts":"2023-11-13T10:33:21Z","tz":10,"tags":{"addr:housenumber":"64-74","addr:street":"Gaffney Street","email":"info@goclimb.com.au","fee":"yes","indoor":"yes","leisure":"sports_centre","name":"Go Climb","opening_hours":"Mo-Su 09:00-18:00; Fr,Sa 09:00-21:00","phone":"+61 3 9350 3181","sport":"climbing","website":"https://goclimb.com.au/"}},"11052120803":{"location":[-37.80104,144.9095001],"ts":"2024-09-20T03:16:06Z","tz":10,"tags":{"access":"yes","fee":"no","leisure":"sports_centre","name":"Footscray Boudlering Wall","operator":"Maribyrnong City Council","operator:type":"public","sport":"climbing"}},"12187415830":{"location":[-37.7678595,144.9642306],"ts":"2024-09-20T03:16:06Z","tz":10,"tags":{"fee":"no","leisure":"sports_centre","operator":"Merri-Bek City Council","operator:type":"public","sport":"climbing"}},"12429008606":{"location":[-37.916373,145.1059608],"ts":"2024-12-18T03:10:50Z","tz":10,"tags":{"addr:housenumber":"2","addr:postcode":"3167","addr:state":"VIC","addr:street":"Natalia Avenue","addr:suburb":"Oakleigh South","fee":"yes","leisure":"sports_centre","name":"La Roca Boulders","sport":"climbing"}},"12446790262":{"location":[-37.8028196,144.9875208],"ts":"2024-12-26T02:41:15Z","tz":10,"tags":{"addr:housenumber":"29","addr:street":"Down Street","addr:unit":"41","leisure":"sports_centre","name":"Urban Climb Collingwood","opening_hours":"Mo-Fr 06:00-22:00; Sa,Su 08:00-20:00; PH 08:00-20:00","shower":"yes","sport":"climbing","toilets":"yes","website":"https://urbanclimb.com.au/locations/collingwood/"}},"12537260700":{"location":[-37.7670153,145.1622195],"ts":"2025-01-27T22:09:04Z","tz":10,"tags":{"leisure":"sports_centre","sport":"climbing"}},"12921121378":{"location":[-37.7348308,145.0116424],"ts":"2025-06-17T11:38:54Z","tz":10,"tags":{"leisure":"sports_centre","sport":"climbing"}}}