{"237595817":{"location":[50.7683962,16.2742026],"ts":"2025-06-05T11:09:20Z","tz":1,"tags":{"addr:city":"Wałbrzych","addr:city:simc":"0983681","addr:housenumber":"5","addr:postcode":"58-300","addr:street":"Plac Teatralny","building":"sport_hall","building:colour":"#AFADA8","building:levels":"2","charge":"45 PLN/day","charge:conditional":"38 PLN/day @ \"reduced fare\"","contact:facebook":"https://www.facebook.com/p/Hala-Wspinaczkowa-Redpoint-61560292633292/","contact:instagram":"https://www.instagram.com/hala_wspinaczkowa_redpoint","email":"kontakt@redpointzone.pl","fee":"yes","leisure":"sports_centre","name":"Hala Wspinaczkowa Redpoint","opening_hours":"Mo 14:00-22:00; Tu-Su 10:00-22:00","operator":"Hala Wspinaczkowa Sp. z o.o.","operator:type":"private","payment:cash":"yes","payment:debit_cards":"yes","phone":"+48789226559","roof:colour":"grey","roof:shape":"flat","source:addr":"EMUiA (emuia.gugik.gov.pl)","sport":"climbing","start_date":"2025-04-26","website":"https://www.redpointzone.pl/"}},"851854858":{"location":[50.7609759,16.182755],"ts":"2020-09-26T15:55:08Z","tz":1,"tags":{"name":"Białe Skały","natural":"cliff","sport":"climbing"}},"1164096228":{"location":[50.8448115,16.2787426],"ts":"2023-04-20T08:31:16Z","tz":1,"tags":{"climbing:bolted":"yes","climbing:grade:polish:max":"VI.2+","climbing:grade:polish:min":"V","climbing:length":"15","climbing:quality":"solid","climbing:rock":"conglomerate","climbing:routes":"10","climbing:sport":"yes","height":"16","name":"Kiełek","natural":"bare_rock","rock":"conglomerate","source":"knowledge","sport":"climbing"}},"1164096229":{"location":[50.8457906,16.278503],"ts":"2023-04-20T08:31:16Z","tz":1,"tags":{"climbing:length":"10","climbing:quality":"solid","climbing:rock":"conglomerate","climbing:routes":"3","climbing:sport":"yes","height":"10","natural":"bare_rock","rock":"conglomerate","source":"knowledge","sport":"climbing"}},"1164096230":{"location":[50.8461107,16.278738],"ts":"2023-04-20T08:31:16Z","tz":1,"tags":{"climbing:bolted":"yes","climbing:length":"18","climbing:quality":"fragile","climbing:rock":"conglomerate","climbing:routes":"6","climbing:sport":"yes","height":"20","natural":"bare_rock","rock":"conglomerate","source":"knowledge","sport":"climbing"}},"1164096231":{"location":[50.8462852,16.2789436],"ts":"2023-04-20T08:31:16Z","tz":1,"tags":{"climbing:bolted":"yes","climbing:grade:polish:max":"VI.4+","climbing:grade:polish:min":"IV","climbing:length":"20","climbing:quality":"fragile","climbing:rock":"conglomerate","climbing:routes":"30","climbing:sport":"yes","height":"22","name":"Zwierzyniec","natural":"bare_rock","rock":"conglomerate","source":"knowledge","sport":"climbing"}},"7804883893":{"location":[50.8032181,16.2616643],"ts":"2020-08-11T20:48:10Z","tz":1,"tags":{"sport":"climbing"}}}