{"18166443":{"lat":47.8702085,"lon":16.1858139,"ts":"2024-10-15T18:49:51Z","tz":1,"tags":{"climbing":"crag","name":"Lorelei Fels","site":"climbing","sport":"climbing","type":"site"}},"18166844":{"lat":47.9704881,"lon":16.1852164,"ts":"2024-10-15T20:44:16Z","tz":1,"tags":{"climbing":"crag","name":"Klettergarten - Bad Vöslau","site":"climbing","sport":"climbing","type":"site"}},"18217419":{"lat":47.9789793,"lon":16.1973443,"ts":"2024-10-27T21:02:33Z","tz":1,"tags":{"climbing":"crag","name":"Kaiserstein","site":"climbing","sport":"climbing","type":"site"}},"86967930":{"lat":47.9704881,"lon":16.1852164,"ts":"2021-01-22T21:24:38Z","tz":1,"tags":{"name":"Klettergarten","natural":"cliff","operator":"Naturfreunde Bad Vöslau","sport":"climbing"}},"97127409":{"lat":47.9789793,"lon":16.1973443,"ts":"2021-02-20T20:03:35Z","tz":1,"tags":{"name":"Kaiserstein","natural":"cliff","sport":"climbing"}},"97127416":{"lat":47.9788456,"lon":16.1972544,"ts":"2014-11-08T16:37:38Z","tz":1,"tags":{"natural":"cliff","sport":"climbing"}},"1324196497":{"lat":47.8702085,"lon":16.1858139,"ts":"2024-10-15T18:49:51Z","tz":1,"tags":{"natural":"cliff","sport":"climbing"}},"1540846948":{"lat":47.8238513,"lon":16.2353505,"ts":"2011-12-11T15:10:51Z","tz":1,"tags":{"access":"private","sport":"climbing","type":"climbing hall inside"}},"5703286126":{"lat":47.9441569,"lon":16.2185763,"ts":"2018-08-10T20:58:04Z","tz":1,"tags":{"leisure":"pitch","sport":"climbing"}},"6422825682":{"lat":47.8574062,"lon":16.3939733,"ts":"2019-04-23T09:37:05Z","tz":1,"tags":{"fixme":"Lage im Gebäude","name":"Kletterhalle Steinbrunn","note":"indoor climbing","origin":"way 138950301","sport":"climbing"}},"7057933111":{"lat":47.8251681,"lon":16.2499127,"ts":"2023-12-19T16:33:14Z","tz":1,"tags":{"addr:city":"Wiener Neustadt","addr:housenumber":"29","addr:postcode":"2700","addr:street":"Pottendorfer Straße","leisure":"sports_centre","level":"0","name":"Bigwall Bouldering","sport":"climbing","website":"https://www.bigwall-bouldering.at/"}},"7057933113":{"lat":47.8255299,"lon":16.2491813,"ts":"2023-10-03T09:39:12Z","tz":1,"tags":{"addr:city":"Wiener Neustadt","addr:country":"AT","addr:housenumber":"29","addr:postcode":"2700","addr:street":"Pottendorfer Straße","leisure":"sports_centre","level":"0","location":"indoor","name":"Bigwall Bouldering","sport":"climbing"}}}