{"38809263":{"lat":53.0984755,"lon":-1.5624624,"ts":"2022-08-16T11:53:30Z","tz":0,"tags":{"climbing":"crag","name":"Black Rocks","natural":"cliff","source":"NPE;local_knowledge","sport":"climbing","wikidata":"Q4921740","wikipedia":"en:Black Rocks (Derbyshire)"}},"85046163":{"lat":52.9223671,"lon":-1.5108325,"ts":"2023-10-21T21:41:39Z","tz":0,"tags":{"addr:city":"Derby","addr:housename":"Unit 12","addr:postcode":"DE22 3FP","addr:street":"Kingsway Park Close","building":"yes","email":"info@clipnclimbderby.co.uk","fhrs:id":"960133","leisure":"sports_centre","name":"Clip 'n Climb","source":"OS_OpenData_StreetView;survey","sport":"climbing","website":"https://www.clipnclimbderby.co.uk/"}},"292192819":{"lat":53.0924079,"lon":-1.5714493,"ts":"2021-06-27T07:30:25Z","tz":0,"tags":{"name":"Colehill Quarry","natural":"cliff","sport":"climbing"}},"293117156":{"lat":52.924776,"lon":-1.4511188,"ts":"2022-01-12T11:10:02Z","tz":0,"tags":{"addr:city":"Derby","addr:country":"GB","addr:parentstreet":"Nottingham Road","addr:place":"Masons Place Business Park","addr:postcode":"DE21 6YZ","addr:unit":"5","building":"yes","fhrs:id":"843199","leisure":"sports_centre","name":"The Climbing Unit","sport":"climbing"}},"1086668953":{"lat":53.0983002,"lon":-1.56337,"ts":"2022-09-03T18:11:07Z","tz":0,"tags":{"climbing":"route","climbing:grade:british":"D","climbing:grade:british:technical":"3","name":"Left Promontory Gully","natural":"couloir","note":"couloir used, because natural=gully is defined as a deeply eroded watercourse which this is not"}}}