{"17462558":{"lat":47.1242276,"lon":-1.4177792,"ts":"2024-04-14T19:19:36Z","tz":1,"tags":{"climbing":"area","name":"Site d'escalade de Pont-Caffino","site":"climbing","type":"site"}},"44426215":{"lat":47.1245354,"lon":-1.4174494,"ts":"2024-05-09T10:53:19Z","tz":1,"tags":{"access":"yes","climbing:orientation":"SE","climbing:sport":"yes","climbing:toprope":"yes","fee":"no","name":"Pont Caffino","natural":"cliff","ref:camptocamp":"109678","sport":"climbing"}},"51851439":{"lat":47.223723,"lon":-1.6411629,"ts":"2025-01-14T00:10:26Z","tz":1,"tags":{"addr:housenumber":"7","addr:street":"Rue des Compagnons","building":"yes","building:levels":"1","climbing:boulder":"yes","climbing:toprope":"yes","indoor":"yes","leisure":"sports_centre","name":"El Cap","source":"cadastre-dgi-fr source : Direction Générale des Impôts - Cadastre. Mise à jour : 2010","sport":"climbing"}},"84698034":{"lat":47.1805002,"lon":-1.5593059,"ts":"2017-01-08T14:24:04Z","tz":1,"tags":{"building":"civic","leisure":"sports_centre","name":"Gymnase Lucien Cavalin","source":"data.nantes.fr : Localisation des équipements publics relevant du thème 'Sports, loisirs' de Nantes Métropole","sport":"climbing"}},"207287639":{"lat":47.1225069,"lon":-1.4165108,"ts":"2013-02-26T09:27:47Z","tz":1,"tags":{"sport":"climbing"}},"229973078":{"lat":47.1831538,"lon":-1.6528878,"ts":"2025-04-03T15:51:27Z","tz":1,"tags":{"natural":"cliff","sport":"climbing"}},"268991909":{"lat":47.2020246,"lon":-1.5768184,"ts":"2025-03-29T13:33:04Z","tz":1,"tags":{"height":"15","natural":"cliff","sport":"climbing"}},"314861474":{"lat":47.1889815,"lon":-1.491763,"ts":"2020-01-26T17:46:08Z","tz":1,"tags":{"building":"yes","indoor":"yes","leisure":"sports_centre","name":"Altissimo","opening_hours":"Mo-Fr 10:00-23:00; Sa, Su 10:00-20:00","source":"cadastre-dgi-fr source : Direction Générale des Finances Publiques - Cadastre. Mise à jour : 2014","sport":"climbing"}},"318486668":{"lat":47.1836222,"lon":-1.6544194,"ts":"2025-04-03T15:51:27Z","tz":1,"tags":{"climbing:trad":"yes","name":"Les Marmottes","sport":"climbing"}},"590286959":{"lat":47.2010262,"lon":-1.5787376,"ts":"2022-08-27T17:41:39Z","tz":1,"tags":{"climbing:grade:french:max":"8b","climbing:grade:french:min":"4","climbing:length":"15","climbing:length:max":"20","climbing:length:min":"10","climbing:orientation":"W","climbing:rock":"granite","climbing:sport":"yes","height":"12","name":"site d'escalade de la carrière Misery - secteur carrière","natural":"cliff","sport":"climbing"}},"2174807549":{"lat":47.1224842,"lon":-1.416505,"ts":"2013-02-26T09:27:47Z","tz":1,"tags":{"climbing":"route_bottom"}},"5044992935":{"lat":47.2050637,"lon":-1.5580749,"ts":"2024-12-01T17:49:24Z","tz":1,"tags":{"brand":"Pic et Paroi","climbing:boulder":"yes","contact:city":"Nantes","contact:country":"FR","contact:email":"contact@picetparoi.fr","contact:facebook":"https://www.facebook.com/picetparoi","contact:housenumber":"30","contact:phone":"+33 2 40 48 52 72","contact:postcode":"44200","contact:street":"Boulevard de la Prairie au Duc","contact:website":"http://www.picetparoi.fr/le-bloc","indoor":"yes","leisure":"sports_centre","name":"Pic & Paroi - Le Bloc","opening_hours":"Mo,Tu,Th,Fr 12:00-14:00,18:00-22:00; We 18:00-22:00; Sa 14:00-18:00; Sep,Oct,Apr-Jun: Su 10:00-13:00; Nov-Mar Su 14:00-17:00","sport":"climbing","survey:date":"2018-07-18","wheelchair":"limited"}},"5806405355":{"lat":47.1988485,"lon":-1.6111101,"ts":"2019-09-04T10:53:38Z","tz":1,"tags":{"addr:city":"Nantes","addr:housenumber":"27","addr:postcode":"44100","addr:street":"Boulevard Bâtonnier Cholet","contact:email":"contact.nantes@blockout.fr","email":"contact.nantes@blockout.fr","leisure":"sports_centre","name":"Block'out","opening_hours":"Mo-Fr 11:00-23:00; Sa,Su 09:00-21:00; Dec 25,Jan 01 off","phone":"+33 2 40928862","sport":"climbing","website":"https://www.blockout.fr/bo-nantes"}},"6025948896":{"lat":47.2492613,"lon":-1.502489,"ts":"2024-10-13T17:45:03Z","tz":1,"tags":{"amenity":"restaurant","check_date:opening_hours":"2023-01-18","contact:email":"nantes@vertical-art.fr","contact:phone":"+33967775124","leisure":"sports_centre","name":"Vertical'Art","opening_hours":"Mo-Fr 11:00-23:00; Sa-Su 09:00-21:00","sport":"climbing","survey:date":"2018-10-30","website":"https://nantes.vertical-art.fr/"}},"8663914017":{"lat":47.2020812,"lon":-1.5767218,"ts":"2021-04-25T06:58:09Z","tz":1,"tags":{"sport":"climbing"}},"9002034288":{"lat":47.201912,"lon":-1.5767764,"ts":"2025-03-29T13:33:04Z","tz":1,"tags":{"climbing:grade:french:max":"8a","climbing:grade:french:min":"4b","climbing:orientation":"SE","climbing:quality":"solid","climbing:rock":"granite","climbing:sport":"32","climbing:toprope":"32","description":"Site d'escalade sportif. Topo sur place (affiche) ou sur le site en lien.","fee":"no","name":"Square Aubin","sport":"climbing","website":"https://sites.google.com/site/cdffmela/les-sites-naturels-d-escalade/square-aubin"}},"9165305619":{"lat":47.1833676,"lon":-1.6521193,"ts":"2025-04-03T15:51:27Z","tz":1,"tags":{"climbing:sport":"yes","climbing:trad":"yes","name":"Les Castors","sport":"climbing"}},"11200305124":{"lat":47.2010963,"lon":-1.578652,"ts":"2023-09-18T16:35:22Z","tz":1,"tags":{"leisure":"sports_centre","sport":"climbing"}},"11200305125":{"lat":47.2013369,"lon":-1.5789243,"ts":"2023-09-18T16:35:22Z","tz":1,"tags":{"leisure":"sports_centre","sport":"climbing"}},"11811879420":{"lat":47.1242235,"lon":-1.4177867,"ts":"2024-04-14T19:14:02Z","tz":1,"tags":{"climbing":"crag","climbing:grade:french:mean":"4c","fee":"no","name":"Le grand dièdre","note":"Le relais intermédiaire est approprié aux exercices de relais.","opening_hours":"24/7","sport":"climbing"}},"11817026842":{"lat":47.1242316,"lon":-1.4177717,"ts":"2024-04-14T19:14:49Z","tz":1,"tags":{"climbing":"crag","climbing:grade:french:mean":"6a","fee":"no","name":"Les joyeux vignerons","note":"A droite du grand dièdre, en pleine dalle. Problème d'adhérence.","opening_hours":"24/7","sport":"climbing"}}}