{"1313718687":{"location":[50.6359994,16.5478958],"ts":"2024-09-06T09:41:34Z","tz":1,"tags":{"height":"10","leisure":"climbing","name":"Żmij","natural":"cliff","rock":"gneiss","source":"knowledge","sport":"climbing"}},"1313718688":{"location":[50.6360331,16.5477472],"ts":"2024-09-06T09:41:34Z","tz":1,"tags":{"climbing:bolted":"yes","climbing:quality":"solid","climbing:rock":"limestone","climbing:sport":"yes","climbing:trad":"yes","height":"12","name":"Żmij","natural":"bare_rock","rock":"gneiss","source":"knowledge","sport":"climbing"}},"1313718739":{"location":[50.6361787,16.5473482],"ts":"2024-09-06T09:40:46Z","tz":1,"tags":{"climbing:quality":"solid","climbing:rock":"limestone","natural":"bare_rock","rock":"gneiss","source":"knowledge","sport":"climbing"}},"4376887694":{"location":[50.5391294,16.5673244],"ts":"2020-08-16T23:22:52Z","tz":1,"tags":{"addr:city":"Nowa Ruda","addr:housenumber":"1","addr:postcode":"57-402","addr:street":"Szybowa","height":"58.8","leisure":"sports_centre","name":"Ścianka wspinaczkowa Szyb Nowy I","opening_hours":"Mo-Su 10:00-20:00","operator":"CTS","phone":"+48 500 824 348","sport":"climbing"}}}