{"11986770":{"location":[50.9777948,14.0080044],"ts":"2020-12-06T18:06:00Z","tz":1,"tags":{"climbing":"crag","name":"Wehlener Gebiet","type":"site"}},"18387073":{"location":[50.9628271,13.7766939],"ts":"2024-12-08T19:33:23Z","tz":1,"tags":{"climbing":"crag","name":"Hummelstein","sport":"climbing","type":"site","wikimedia_commons":"File:Hummelstein, Dresden.jpg"}},"112607861":{"location":[51.0411823,13.7154282],"ts":"2025-03-10T10:12:47Z","tz":1,"tags":{"addr:city":"Dresden","addr:country":"DE","addr:housenumber":"42","addr:postcode":"01069","addr:street":"Zwickauer Straße","building":"industrial","building:levels":"2","check_date":"2025-03-10","climbing:boulder":"yes","climbing:sport":"yes","climbing:toprope":"yes","contact:website":"www.kletterarena-dresden.de","fee":"yes","indoor":"yes","leisure":"sports_centre","name":"Kletterarena Dresden","opening_hours":"Mo 15:00-22:00; Tu-Fr 10:00-22:00; Sa-Su 09:00-22:00; PH 09:00-22:00","outdoor":"yes","sport":"climbing","website":"https://www.kletterarena-dresden.de/","wheelchair":"yes"}},"255039235":{"location":[50.9595505,13.9670663],"ts":"2024-06-07T15:22:43Z","tz":1,"tags":{"abandoned:landuse":"quarry","access":"customers","climbing:bolted":"1.5","climbing:grade:uiaa:max":"VIII+","climbing:grade:uiaa:mean":"VI","climbing:grade:uiaa:min":"III","climbing:length":"18","climbing:orientation":"NE","climbing:quality":"solid","climbing:sport":"30","fee":"no","name":"Klettergarten Cunnersdorf","natural":"cliff","operator":"SBB Pirna","sport":"climbing","website":"https://www.sbb-pirna.de/index.php?page=klettergaerten"}},"260673427":{"location":[51.0413494,13.7154227],"ts":"2017-04-19T15:28:45Z","tz":1,"tags":{"leisure":"pitch","sport":"climbing"}},"266977833":{"location":[51.0696095,13.7532088],"ts":"2019-05-12T21:49:42Z","tz":1,"tags":{"addr:city":"Dresden","addr:country":"DE","addr:housenumber":"32","addr:postcode":"01099","addr:street":"Bischofsweg","climbing:boulder":"yes","email":"info@bouldercity.de","leisure":"sports_centre","name":"Bouldercity","official_name":"Bouldercity Dresden","opening_hours:url":"https://bouldercity-dresden.de/preise-und-infos/preise-und-oeffnungszeiten/preise-und-oeffnungszeiten.html","phone":"+49 351 2136950","sport":"climbing","survey:date":"2016-09-05","website":"https://www.bouldercity-dresden.de/"}},"294688688":{"location":[50.9822379,13.8452057],"ts":"2023-11-23T22:13:48Z","tz":1,"tags":{"addr:city":"Heidenau","addr:country":"DE","addr:housenumber":"32","addr:postcode":"01809","addr:street":"Weststraße","building":"yes","contact:email":"info@yoyo-kletterhalle.de","contact:facebook":"https://www.facebook.com/YOYO.Kletterhalle","contact:phone":"+49 3529 5356989","contact:website":"https://www.yoyo-kletterhalle.de/","leisure":"sports_centre","name":"YOYO Kletterhalle","opening_hours":"Mo-Fr 10:00-22:00; Sa,Su,PH 10:00-21:00; Dec 31 10:00-19:00; Dec 24-25 off; Jan 01 13:00-21:00","opening_hours:url":"https://www.yoyo-kletterhalle.de/preisezeiten/preisezeiten.html","operator":"climb concept","sport":"climbing","wheelchair":"yes"}},"307094192":{"location":[51.0509105,13.7673701],"ts":"2021-09-29T15:43:39Z","tz":1,"tags":{"leisure":"pitch","lit":"no","source":"Bing","sport":"climbing","surface":"sand","wheelchair":"yes"}},"308791529":{"location":[51.0477906,13.7191706],"ts":"2023-11-07T02:18:07Z","tz":1,"tags":{"addr:city":"Dresden","addr:country":"DE","addr:housenumber":"10","addr:postcode":"01159","addr:street":"Papiermühlengasse","building":"civic","indoor":"yes","leisure":"sports_centre","name":"SBB-Vereinszentrum","opening_hours":"Sa-Mo 09:00-22:00; Tu-Fr 09:00-23:00; PH 09:00-22:00","operator":"Sächsischer Bergsteigerbund e.V.","roof:shape":"flat","sport":"climbing","start_date":"2015-01-30","toilets":"yes","toilets:access":"customers","website":"https://bergsteigerbund.de/2015/kletterhalle/"}},"342983295":{"location":[50.9628316,13.7766319],"ts":"2024-12-08T16:51:24Z","tz":1,"tags":{"climbing":"area","climbing:abseil_point":"yes","climbing:bolted":"yes","climbing:grade:saxon:min":"III+","climbing:sport":"yes","climbing:summit_log":"yes","name":"Hummelstein","natural":"cliff","sport":"climbing","wikimedia_commons":"File:Hummelstein, Dresden.jpg"}},"382204708":{"location":[51.0067408,13.7900866],"ts":"2015-11-23T08:37:55Z","tz":1,"tags":{"climbing:bolted":"no","climbing:length":"5","climbing:toprope":"6","note":"Das ist wohl wirklich eine kleine Kletterwand. Oben sind Umlenker dran, aber keine Zwischensicherungen. Sind ja auch nur 4-5 Meter. Die Wand scheint öffentlich zugänglich zu sein. Ich werde sie demnächst mal testen.","outdoor":"yes","sport":"climbing"}},"401198517":{"location":[51.0475612,13.7193433],"ts":"2016-03-02T13:37:11Z","tz":1,"tags":{"barrier":"wall","climbing:bolted":"yes","climbing:orientation":"W;S;N","climbing:sport":"yes","fee":"yes","operator":"Sächsischer Bergsteigerbund e.V.","outdoor":"yes","sport":"climbing"}},"401198521":{"location":[51.0479189,13.7191101],"ts":"2023-11-07T02:17:18Z","tz":1,"tags":{"building:part":"yes","climbing:bolted":"yes","climbing:boulder":"yes","climbing:length:max":"18","climbing:sport":"yes","climbing:toprope":"yes","fee":"yes","height":"15","indoor":"yes","leisure":"sports_centre","name":"Deutscher Alpenverein Kletterzentrum","opening_hours":"Sa-Mo 09:00-22:00; Tu-Fr 09:00-23:00; PH 09:00-22:00","operator":"Sächsischer Bergsteigerbund e.V.","outdoor":"yes","roof:shape":"flat","sport":"climbing","start_date":"2015-01-30","website":"https://bergsteigerbund.de/2015/kletterhalle/"}},"492386733":{"location":[50.9880774,13.9460006],"ts":"2024-08-11T20:43:56Z","tz":1,"tags":{"access:offroad":"no","boundary":"protected_area","camping":"no","climbing":"no","horse":"no","leisure":"nature_reserve","name":"Wesenitzhang und -aue zwischen Pirna-Liebethal und Pirna-Copitz","openfire":"no","protect_class":"4","protection_title":"Naturschutzgebiet","website:regulation":"https://www.landratsamt-pirna.de/download/VO_NSG_Wesenitzhang_und_aue_zw_Pirna_Liebethal_und_Pirna_Copitz_vom_31_5_2022_SaechsGVBl.pdf","wikidata":"Q128841291"}},"495908591":{"location":[50.9594259,13.9365155],"ts":"2024-05-18T20:19:21Z","tz":1,"tags":{"building":"church","disused:amenity":"place_of_worship","leisure":"sports_centre","name":"ehem. Hospitalkirche","operator":"Sächsischer Bergsteigerbund","operator:short":"SBB","seamark:landmark:category":"tower","seamark:landmark:conspicuity":"conspicuous","seamark:landmark:function":"church","seamark:landmark:name":"Kirche Pirna","seamark:type":"landmark","sport":"climbing","wheelchair":"yes"}},"538818723":{"location":[51.0103121,13.7120719],"ts":"2020-12-04T08:45:29Z","tz":1,"tags":{"barrier":"retaining_wall","height":"8","material":"stone","sport":"climbing"}},"553852585":{"location":[50.9965941,13.9576373],"ts":"2023-11-07T02:18:19Z","tz":1,"tags":{"abandoned":"yes","abandoned:landuse":"quarry","climbing:bolted":"yes","climbing:quality":"solid","climbing:rock":"sandstone","leisure":"park","name":"Klettergarten Liebethal","operator":"Sächsischer Bergsteigerbund","sport":"climbing","website":"https://bergsteigerbund.de/2015/klettern/klettergarten-liebethaler-grund"}},"597437066":{"location":[50.963943,13.9658409],"ts":"2023-08-10T09:44:10Z","tz":1,"tags":{"climbing:grade:saxon:min":"VIIc","climbing:rock":"sandstone","climbing:summit_log":"yes","climbing:trad":"yes","name":"Postakegel","natural":"peak","sport":"climbing"}},"619219597":{"location":[51.0812011,13.7300323],"ts":"2024-01-11T17:13:07Z","tz":1,"tags":{"brand":"Intersport","brand:wikidata":"Q666888","check_date:opening_hours":"2024-01-11","climbing":"yes","name":"Intersport Mälzerei","opening_hours":"Mo-Fr 10:00-18:00; Sa 10:00-16:00","operator":"Intersport","shop":"sports","wheelchair":"yes"}},"670707363":{"location":[50.9950007,13.9559331],"ts":"2020-12-06T18:06:00Z","tz":1,"tags":{"climbing:grade:saxon:min":"IV","climbing:rock":"sandstone","climbing:summit_log":"yes","climbing:trad":"yes","name":"Buch","natural":"peak","sport":"climbing"}},"676241441":{"location":[50.960589,14.0574182],"ts":"2024-06-14T15:38:03Z","tz":1,"tags":{"climbing:grade:saxon:min":"III","climbing:rock":"sandstone","climbing:summit_log":"yes","climbing:trad":"yes","name":"Tümpelgrundturm","natural":"peak","sport":"climbing","summit:cross":"no","summit:register":"yes","website":"http://db-sandsteinklettern.gipfelbuch.de/weg.php?gipfelid=4511"}},"1116573872":{"location":[50.9682103,14.0469549],"ts":"2020-12-06T18:06:00Z","tz":1,"tags":{"climbing:grade:saxon:min":"II","climbing:rock":"sandstone","climbing:summit_log":"yes","climbing:trad":"yes","name":"Steinerner Bär","natural":"peak","sport":"climbing"}},"1138090372":{"location":[51.0460913,13.7352143],"ts":"2022-09-22T14:10:54Z","tz":1,"tags":{"addr:city":"Dresden","addr:housenumber":"15","addr:postcode":"01069","addr:street":"Prager Straße","branch":"Zentrumgalerie","brand":"SportScheck","brand:wikidata":"Q3494037","brand:wikipedia":"de:Sportscheck","climbing":"no","cycling":"yes","level":"0","name":"SportScheck","opening_hours":"Mo-Sa 10:00-20:00","operator":"SportScheck GmbH","shop":"sports","swimming":"yes","wheelchair":"yes","winter_sport":"yes"}},"1561627954":{"location":[50.9623818,14.0600756],"ts":"2020-12-06T18:06:00Z","tz":1,"tags":{"climbing:grade:saxon:min":"IV","climbing:rock":"sandstone","climbing:summit_log":"yes","climbing:trad":"yes","name":"Griesgrundwächter","natural":"peak","sport":"climbing","website":"http://db-sandsteinklettern.gipfelbuch.de/weg.php?gipfelid=4518"}},"1561627959":{"location":[50.960896,14.050132],"ts":"2020-12-06T18:06:00Z","tz":1,"tags":{"climbing:grade:saxon:min":"VIIa","climbing:rock":"sandstone","climbing:summit_log":"yes","climbing:trad":"yes","name":"Zwölfer","natural":"peak","sport":"climbing","website":"http://db-sandsteinklettern.gipfelbuch.de/weg.php?gipfelid=4510"}},"1639641112":{"location":[50.9681978,14.0468453],"ts":"2020-12-06T18:06:00Z","tz":1,"tags":{"climbing:grade:saxon:min":"IV","climbing:rock":"sandstone","climbing:summit_log":"yes","climbing:trad":"yes","name":"Höllengrundscheibe","natural":"peak","sport":"climbing"}},"1689190142":{"location":[50.9684303,14.0339749],"ts":"2020-12-06T18:06:00Z","tz":1,"tags":{"climbing:grade:saxon:min":"III","climbing:rock":"sandstone","climbing:summit_log":"yes","climbing:trad":"yes","name":"Bergfalkenturm","natural":"peak","sport":"climbing"}},"1689190155":{"location":[50.9696825,14.0348933],"ts":"2020-12-06T18:06:00Z","tz":1,"tags":{"climbing:grade:saxon:min":"IV","climbing:rock":"sandstone","climbing:summit_log":"yes","climbing:trad":"yes","name":"Einsamer Turm","natural":"peak","sport":"climbing"}},"1987162891":{"location":[50.9617068,14.0298191],"ts":"2020-12-06T18:06:00Z","tz":1,"tags":{"climbing:grade:saxon:min":"VI","climbing:rock":"sandstone","climbing:summit_log":"yes","climbing:trad":"yes","name":"Buschholzturm","natural":"peak","source":"bing","sport":"climbing"}},"1987162892":{"location":[50.9612877,14.0590108],"ts":"2020-12-06T18:06:00Z","tz":1,"tags":{"climbing:grade:saxon:min":"IV","climbing:rock":"sandstone","climbing:summit_log":"yes","climbing:trad":"yes","name":"Elbgucke","natural":"peak","source":"bing","sport":"climbing","website":"http://db-sandsteinklettern.gipfelbuch.de/weg.php?gipfelid=4517"}},"1987162893":{"location":[50.9610585,14.0584542],"ts":"2020-12-06T18:06:00Z","tz":1,"tags":{"climbing:grade:saxon:min":"IV","climbing:rock":"sandstone","climbing:summit_log":"yes","climbing:trad":"yes","name":"Erikascheibe","natural":"peak","source":"bing","sport":"climbing","website":"http://db-sandsteinklettern.gipfelbuch.de/weg.php?gipfelid=4515"}},"1987162894":{"location":[50.981278,14.0437853],"ts":"2020-12-06T18:06:00Z","tz":1,"tags":{"climbing:grade:saxon:min":"V","climbing:rock":"sandstone","climbing:summit_log":"yes","climbing:trad":"yes","name":"Kehllochscheibe","natural":"peak","source":"bing","sport":"climbing"}},"1987162896":{"location":[50.9609089,14.058405],"ts":"2020-12-06T18:06:00Z","tz":1,"tags":{"climbing:grade:saxon:min":"I","climbing:rock":"sandstone","climbing:summit_log":"yes","climbing:trad":"yes","name":"Tümpelgrundwand","natural":"peak","source":"bing","sport":"climbing","website":"http://db-sandsteinklettern.gipfelbuch.de/weg.php?gipfelid=4514"}},"1987162897":{"location":[50.9608958,14.0590543],"ts":"2024-08-17T11:44:07Z","tz":1,"tags":{"climbing:grade:saxon:min":"I","climbing:rock":"sandstone","climbing:summit_log":"yes","climbing:trad":"yes","name":"Wetterwarte","natural":"peak","source":"bing","sport":"climbing","summit:cross":"no","summit:register":"yes","website":"http://db-sandsteinklettern.gipfelbuch.de/weg.php?gipfelid=4516"}},"1987261111":{"location":[50.96123,14.0575392],"ts":"2020-12-06T18:06:00Z","tz":1,"tags":{"climbing:grade:saxon:min":"II","climbing:rock":"sandstone","climbing:summit_log":"yes","climbing:trad":"yes","name":"Gelbe Wand","natural":"peak","source":"bing","sport":"climbing","website":"http://db-sandsteinklettern.gipfelbuch.de/weg.php?gipfelid=4513"}},"1987261114":{"location":[50.9636801,14.054033],"ts":"2024-07-06T15:56:03Z","tz":1,"tags":{"access:conditional":"no @ (Jan 15-Aug 15)","climbing:grade:saxon:min":"IV","climbing:rock":"sandstone","climbing:summit_log":"yes","climbing:trad":"yes","name":"Tümpelgrundwächter","natural":"peak","source":"bing","sport":"climbing","website":"http://db-sandsteinklettern.gipfelbuch.de/weg.php?gipfelid=4512"}},"2395693280":{"location":[51.0612338,13.7280392],"ts":"2014-09-28T10:04:40Z","tz":1,"tags":{"artwork_type":"sculpture","name":"Kletterskulptur","sport":"climbing","tourism":"artwork"}},"2463244838":{"location":[51.0539519,13.7202885],"ts":"2024-06-25T11:44:13Z","tz":1,"tags":{"climbing:bouldering":"yes","climbing:sport":"no","climbing:toprope":"no","playground":"climbingwall","sport":"climbing"}},"3610968567":{"location":[51.0145218,14.0087383],"ts":"2020-12-18T21:38:32Z","tz":1,"tags":{"climbing:boulder":"yes","description":"Bouldermöglichkeit","name":"Breiter Stein","natural":"rock","sport":"climbing"}},"4167137223":{"location":[51.0799639,13.7601293],"ts":"2025-03-12T18:09:10Z","tz":1,"tags":{"addr:city":"Dresden","addr:housenumber":"96 Halle 8","addr:postcode":"01099","addr:street":"Königsbrücker Straße","amenity":"cafe","climbing:boulder":"yes","cuisine":"pizza;soup;sandwich","diet:gluten_free":"no","diet:vegan":"limited","diet:vegetarian":"yes","email":"info@boulderhalle-dresden.de","fee":"yes","internet_access":"wlan","leisure":"sports_centre","name":"Mandala Boulderhalle","opening_hours":"Mo-Fr 08:00-23:00; Sa, Su, PH 09:00-22:00","operator":"Robert Leistner & Gunter Gäbel","sport":"climbing","website":"https://boulderhalle-dresden.de/"}},"4919201409":{"location":[51.0490313,13.7351967],"ts":"2023-01-03T14:25:25Z","tz":1,"tags":{"addr:city":"Dresden","addr:country":"DE","addr:housenumber":"1","addr:postcode":"01067","addr:street":"Webergasse","brand":"SportScheck","brand:wikidata":"Q3494037","climbing":"yes","internet_access":"wlan","internet_access:fee":"no","level":"0;1;2","name":"SportScheck","opening_hours":"Mo-Sa 10:00-20:00; Su off","shop":"sports","website":"https://www.sportscheck.com","wheelchair":"yes"}},"7471934480":{"location":[50.9714378,14.0416453],"ts":"2020-05-03T16:51:28Z","tz":1,"tags":{"climbing:grade:saxon:max":"IXa","climbing:grade:saxon:min":"II","climbing:rock":"sandstone","climbing:summit_log":"yes","climbing:trad":"yes","name":"Versteckte Spitze","natural":"peak","sport":"climbing"}},"9082463093":{"location":[51.0160441,14.0090074],"ts":"2022-06-22T09:31:43Z","tz":1,"tags":{"climbing":"boulder","name":"Sloperblock","natural":"stone","sport":"climbing"}},"9082475270":{"location":[51.0156775,14.0101436],"ts":"2022-06-22T09:31:43Z","tz":1,"tags":{"climbing":"boulder","name":"Kreuzblock","natural":"stone","sport":"climbing"}},"9082478698":{"location":[51.0161743,14.0090056],"ts":"2022-06-22T09:31:43Z","tz":1,"tags":{"climbing":"boulder","name":"Miniblock","natural":"stone","sport":"climbing"}},"9082482486":{"location":[51.0160982,14.0090003],"ts":"2022-06-22T09:31:43Z","tz":1,"tags":{"climbing":"boulder","name":"Yeti","natural":"stone","sport":"climbing"}},"9082490137":{"location":[51.0156083,14.0101236],"ts":"2022-06-22T09:31:43Z","tz":1,"tags":{"climbing":"boulder","name":"Dunkelkammer","natural":"stone","sport":"climbing"}},"9082499977":{"location":[51.0160003,14.0090488],"ts":"2022-06-22T09:31:43Z","tz":1,"tags":{"climbing":"boulder","name":"Eckturm","natural":"stone","sport":"climbing"}},"9082499978":{"location":[51.0163079,14.0087981],"ts":"2022-06-22T09:31:43Z","tz":1,"tags":{"climbing:boulder":"yes","name":"Kidsblock","natural":"stone","sport":"climbing"}},"9082501066":{"location":[51.015529,14.0100207],"ts":"2022-06-22T09:31:43Z","tz":1,"tags":{"climbing":"boulder","name":"Waldblock","natural":"stone","sport":"climbing"}},"9082502757":{"location":[51.0160026,14.0090915],"ts":"2022-06-22T09:31:43Z","tz":1,"tags":{"climbing":"boulder","name":"Luftblock","natural":"stone","sport":"climbing"}},"9082503974":{"location":[51.0160711,14.0094254],"ts":"2022-06-22T09:31:43Z","tz":1,"tags":{"climbing":"boulder","name":"Dreiecksblock","natural":"stone","sport":"climbing"}},"9082510653":{"location":[51.0160637,14.0092933],"ts":"2022-06-22T09:31:43Z","tz":1,"tags":{"climbing":"boulder","name":"Krümel","natural":"stone","sport":"climbing"}},"9082514873":{"location":[51.0160155,14.0090307],"ts":"2022-06-22T09:31:43Z","tz":1,"tags":{"climbing":"boulder","name":"Lochfels","natural":"stone","sport":"climbing"}},"12287417030":{"location":[51.050379,13.7310513],"ts":"2025-03-10T16:04:27Z","tz":1,"tags":{"check_date":"2025-03-10","climbing:boulder":"yes","climbing:boulder:indoor":"yes","climbing:speed":"no","climbing:sport":"no","climbing:toprope":"no","email":"info@boulderhalle-dresden.de","fee":"yes","internet_access":"wlan","internet_access:fee":"no","internet_access:ssid":"Mandala_Gast","leisure":"sports_centre","min_age":"12","name":"Mandala Postplatz","opening_hours":"Mo-Fr 08:00-23:00; PH,Sa-Su 09:00-22:00","panoramax":"81dfb45d-008d-499a-a6d6-49cbae18b8d9","payment:cards":"yes","payment:cash":"yes","payment:qr_code":"yes","phone":"+49 351 5019022","service:climbing_shoes:rental":"yes","service:climbing_shoes:rental:fee":"yes","shower":"hot","sport":"climbing","start_date":"2024-11-09","website":"https://boulderhalle-dresden.de/","wheelchair":"yes"}},"12405119705":{"location":[50.9627404,13.7764628],"ts":"2024-12-08T16:37:57Z","tz":1,"tags":{"climbing":"route_bottom","name":"Subbotnik"}},"12405119706":{"location":[50.9627422,13.7764785],"ts":"2024-12-08T16:37:57Z","tz":1,"tags":{"climbing":"route_bottom","climbing:grade:saxon:mean":"8a","name":"Nachtisch"}},"12405119707":{"location":[50.9627419,13.776491],"ts":"2024-12-08T16:37:57Z","tz":1,"tags":{"climbing":"route_bottom","name":"Seitentreppe"}},"12405119708":{"location":[50.9627437,13.7765039],"ts":"2024-12-08T16:37:57Z","tz":1,"tags":{"climbing":"route_bottom","name":"Testpilot"}},"12405119709":{"location":[50.9627472,13.7765333],"ts":"2024-12-08T16:37:57Z","tz":1,"tags":{"climbing":"route_bottom","name":"Ich und Du"}},"12405119710":{"location":[50.9627551,13.7766005],"ts":"2024-12-08T16:37:57Z","tz":1,"tags":{"climbing":"route_bottom","climbing:grade:saxon:mean":"7a","climbing:length":"30","name":"Bienchen"}},"12405119711":{"location":[50.9627632,13.7766424],"ts":"2024-12-08T16:37:57Z","tz":1,"tags":{"climbing":"route_bottom","climbing:length":"32","name":"Teststrecke"}},"12405119712":{"location":[50.9627695,13.7766597],"ts":"2024-12-08T16:37:57Z","tz":1,"tags":{"climbing":"route_bottom","climbing:grade:saxon:mean":"7a","climbing:length":"32","name":"Da geht noch was"}},"12405119713":{"location":[50.9627774,13.7766855],"ts":"2024-12-08T16:37:57Z","tz":1,"tags":{"climbing":"route_bottom","name":"Hummelstiege"}},"12405119714":{"location":[50.9627888,13.7767137],"ts":"2024-12-08T16:37:57Z","tz":1,"tags":{"climbing":"route_bottom","climbing:length":"32","name":"Highpoint"}},"12405119715":{"location":[50.9627941,13.7767274],"ts":"2024-12-08T16:37:57Z","tz":1,"tags":{"climbing":"route_bottom","climbing:grade:saxon:mean":"8a","climbing:length":"32","name":"New Bolt"}},"12405119716":{"location":[50.9627984,13.7767374],"ts":"2024-12-08T16:37:57Z","tz":1,"tags":{"climbing":"route_bottom","climbing:grade:saxon:mean":"7c","name":"Viel Lärm um nichts"}},"12405119717":{"location":[50.9628063,13.7767584],"ts":"2024-12-08T16:37:57Z","tz":1,"tags":{"climbing":"route_bottom","climbing:grade:saxon:mean":"8a","climbing:length":"33","name":"Eis am Stiel"}},"12405119718":{"location":[50.9628139,13.7767785],"ts":"2024-12-08T16:37:57Z","tz":1,"tags":{"climbing":"route_bottom","climbing:grade:saxon:mean":"7c","name":"Heinz"}},"12405119719":{"location":[50.9628187,13.7767885],"ts":"2024-12-08T16:37:57Z","tz":1,"tags":{"climbing":"route_bottom","climbing:grade:saxon:mean":"7b","name":"Heinzelmännchen"}},"12405119720":{"location":[50.9628248,13.7767998],"ts":"2024-12-08T16:37:57Z","tz":1,"tags":{"climbing":"route_bottom","climbing:grade:saxon:mean":"7c","name":"Na so was"}},"12405119721":{"location":[50.9628291,13.7768111],"ts":"2024-12-08T16:37:57Z","tz":1,"tags":{"climbing":"route_bottom","name":"Hast du Hummeln"}},"12405119722":{"location":[50.9628393,13.7768256],"ts":"2024-12-08T16:37:57Z","tz":1,"tags":{"climbing":"route_bottom","climbing:grade:saxon:mean":"8a","name":"Zeit zu gehen"}},"12405119723":{"location":[50.9628504,13.7768365],"ts":"2024-12-08T16:37:57Z","tz":1,"tags":{"climbing":"route_bottom","climbing:grade:saxon:mean":"6","name":"Wintersonne"}},"12405119724":{"location":[50.9628702,13.7768699],"ts":"2024-12-08T16:37:57Z","tz":1,"tags":{"climbing":"route_bottom","climbing:grade:saxon:mean":"7a","name":"Eröffnungsstück"}},"12405119725":{"location":[50.9628811,13.776882],"ts":"2024-12-08T16:37:57Z","tz":1,"tags":{"climbing":"route_bottom","climbing:grade:saxon:mean":"8b","name":"Spinnenbein"}},"12405119726":{"location":[50.9628897,13.7768932],"ts":"2024-12-08T16:37:57Z","tz":1,"tags":{"climbing":"route_bottom","name":"Schwarze Spinne"}},"12405119727":{"location":[50.9629034,13.7769101],"ts":"2024-12-08T16:37:57Z","tz":1,"tags":{"climbing":"route_bottom","name":"Im Duett"}},"12405119728":{"location":[50.9629048,13.7769126],"ts":"2024-12-08T16:37:57Z","tz":1,"tags":{"climbing":"route_bottom","name":"Quad"}},"12405119729":{"location":[50.9629138,13.776925],"ts":"2024-12-08T16:37:57Z","tz":1,"tags":{"climbing":"route_bottom","climbing:grade:saxon:mean":"7a","name":"Schwarz-gelb"}},"12714185894":{"location":[51.0182473,14.008725],"ts":"2025-04-15T05:32:52Z","tz":1,"tags":{"climbing:grade:saxon:max":"IXa","climbing:grade:saxon:min":"I","climbing:length:min":"6 m","climbing:rock":"sandstone","climbing:summit_log":"yes","name":"Breiter Stein Turm","natural":"rock","sport":"climbing"}},"12749798340":{"location":[51.0150986,14.0085096],"ts":"2025-04-15T05:37:38Z","tz":1,"tags":{"climbing:grade:saxon:max":"V","climbing:grade:saxon:min":"I","climbing:length:min":"6 m","climbing:rock":"sandstone","climbing:summit_log":"yes","natural":"rock","sport":"climbing"}}}