{"293211602":{"location":[46.250924,13.7762074],"ts":"2024-07-23T12:31:15Z","tz":1,"tags":{"alt_name":"Dlan","climbing":"route","name":"Škrbinska plošča","natural":"bare_rock","sport":"climbing","website":"https://www.primorskestene.com/?mod=catalog&action=productDetails&action_id=328&language=en&lang=en","wikimedia_commons":"File:Škrbinska_plošča.jpg"}},"585241281":{"location":[46.1609372,13.774585],"ts":"2023-11-01T21:13:47Z","tz":1,"tags":{"ele":"400","name":"Senica","natural":"bare_rock","sport":"climbing","website":"https://plezanje.net/climbing/db/showCrag.asp?crag=764&p_ctx=long"}},"961893994":{"location":[46.2758689,13.883778],"ts":"2023-09-15T19:27:37Z","tz":1,"tags":{"name":"Pod skalco","natural":"cliff","sport":"climbing"}},"962166542":{"location":[46.1254916,13.9150571],"ts":"2024-07-23T12:23:13Z","tz":1,"tags":{"access":"yes","climbing:multipitch":"no","climbing:quality":"solid","climbing:rock":"limestone","climbing:sport":"yes","ele":"400","fee":"no","name":"Lutne skale - Sektor J","natural":"cliff","opening_hours":"24/7","sport":"climbing"}},"962166543":{"location":[46.1260762,13.9153192],"ts":"2024-07-23T12:23:13Z","tz":1,"tags":{"access":"yes","climbing:multipitch":"no","climbing:quality":"solid","climbing:rock":"limestone","climbing:sport":"yes","ele":"400","fee":"no","name":"Lutne skale - Sektor C","natural":"cliff","opening_hours":"24/7","sport":"climbing"}},"962191745":{"location":[46.2774138,13.895275],"ts":"2023-09-11T15:14:34Z","tz":1,"tags":{"name":"Peč","natural":"cliff","sport":"climbing"}},"1091572457":{"location":[46.275316,13.8858746],"ts":"2023-09-15T19:30:40Z","tz":1,"tags":{"natural":"cliff","sport":"climbing"}},"1104468812":{"location":[46.2699561,13.9046206],"ts":"2022-10-16T16:46:40Z","tz":1,"tags":{"name":"Dov","natural":"cliff","sport":"climbing"}},"1302573525":{"location":[46.1263063,13.9146144],"ts":"2024-07-23T12:23:13Z","tz":1,"tags":{"access":"yes","climbing:multipitch":"no","climbing:quality":"solid","climbing:rock":"limestone","climbing:sport":"yes","ele":"400","fee":"no","name":"Lutne skale - Sektor E","natural":"cliff","opening_hours":"24/7","sport":"climbing"}},"1302573529":{"location":[46.1262454,13.9141638],"ts":"2024-07-23T12:23:13Z","tz":1,"tags":{"access":"yes","climbing:multipitch":"no","climbing:quality":"solid","climbing:rock":"limestone","climbing:sport":"yes","ele":"400","fee":"no","name":"Lutne skale - Sektor L","natural":"cliff","opening_hours":"24/7","sport":"climbing"}},"1302573530":{"location":[46.126033,13.9143797],"ts":"2024-07-23T12:23:13Z","tz":1,"tags":{"access":"yes","climbing:multipitch":"no","climbing:quality":"solid","climbing:rock":"limestone","climbing:sport":"yes","ele":"400","fee":"no","name":"Lutne skale - Sektor K","natural":"cliff","opening_hours":"24/7","sport":"climbing"}},"1302573531":{"location":[46.1262189,13.9146768],"ts":"2024-07-23T12:23:13Z","tz":1,"tags":{"access":"yes","climbing:multipitch":"no","climbing:quality":"solid","climbing:rock":"limestone","climbing:sport":"yes","ele":"400","fee":"no","name":"Lutne skale - Sektor F","natural":"cliff","opening_hours":"24/7","sport":"climbing"}},"1302573532":{"location":[46.1260944,13.9146607],"ts":"2024-07-23T12:23:13Z","tz":1,"tags":{"access":"yes","climbing:multipitch":"no","climbing:quality":"solid","climbing:rock":"limestone","climbing:sport":"yes","ele":"400","fee":"no","name":"Lutne skale - Sektor G","natural":"cliff","opening_hours":"24/7","sport":"climbing"}},"1302573533":{"location":[46.1259284,13.9150121],"ts":"2024-07-19T19:27:02Z","tz":1,"tags":{"access":"yes","climbing:multipitch":"no","climbing:quality":"solid","climbing:rock":"limestone","climbing:sport":"yes","ele":"400","fee":"no","name":"Lutne skale - Sektor I","natural":"cliff","opening_hours":"24/7","sport":"climbing"}},"1302573534":{"location":[46.1260051,13.9147887],"ts":"2024-07-23T12:23:13Z","tz":1,"tags":{"access":"yes","climbing:multipitch":"no","climbing:quality":"solid","climbing:rock":"limestone","climbing:sport":"yes","ele":"400","fee":"no","name":"Lutne skale - Sektor H","natural":"cliff","opening_hours":"24/7","sport":"climbing"}},"1302573541":{"location":[46.1262993,13.9149342],"ts":"2024-07-19T19:27:02Z","tz":1,"tags":{"access":"yes","climbing:multipitch":"no","climbing:quality":"solid","climbing:rock":"limestone","climbing:sport":"yes","ele":"400","fee":"no","name":"Lutne skale - Sektor D","natural":"cliff","opening_hours":"24/7","sport":"climbing"}},"1302573542":{"location":[46.1259182,13.9154432],"ts":"2024-07-23T12:23:13Z","tz":1,"tags":{"access":"yes","climbing:multipitch":"no","climbing:quality":"solid","climbing:rock":"limestone","climbing:sport":"yes","ele":"400","fee":"no","name":"Lutne skale - Sektor C/I","natural":"cliff","opening_hours":"24/7","sport":"climbing"}},"1302573543":{"location":[46.125834,13.9159267],"ts":"2024-07-19T19:27:02Z","tz":1,"tags":{"access":"yes","climbing:multipitch":"no","climbing:quality":"solid","climbing:rock":"limestone","climbing:sport":"yes","ele":"400","fee":"no","name":"Lutne skale - Sektor B/III","natural":"cliff","opening_hours":"24/7","sport":"climbing"}},"1302573544":{"location":[46.1257639,13.9156598],"ts":"2024-07-19T19:27:02Z","tz":1,"tags":{"access":"yes","climbing:multipitch":"no","climbing:quality":"solid","climbing:rock":"limestone","climbing:sport":"yes","ele":"400","fee":"no","name":"Lutne skale - Sektor B/II","natural":"cliff","opening_hours":"24/7","sport":"climbing"}},"1302573545":{"location":[46.1258313,13.9155002],"ts":"2024-07-23T12:23:13Z","tz":1,"tags":{"access":"yes","climbing:multipitch":"no","climbing:quality":"solid","climbing:rock":"limestone","climbing:sport":"yes","ele":"400","fee":"no","name":"Lutne skale - Sektor B/I","natural":"cliff","opening_hours":"24/7","sport":"climbing"}},"1302573548":{"location":[46.1260362,13.9155096],"ts":"2024-07-19T19:27:02Z","tz":1,"tags":{"access":"yes","climbing:multipitch":"no","climbing:quality":"solid","climbing:rock":"limestone","climbing:sport":"yes","ele":"400","fee":"no","name":"Lutne skale - Sektor A","natural":"cliff","opening_hours":"24/7","sport":"climbing"}},"8888216773":{"location":[46.2742961,13.8856903],"ts":"2021-07-02T17:02:14Z","tz":1,"tags":{"leisure":"sports_centre","name":"Plezališče Bellevue","sport":"climbing"}}}