{"256955259":{"location":[45.6981914,13.7395097],"ts":"2023-10-30T00:42:44Z","tz":1,"tags":{"name":"Mani di Fatima","natural":"cliff","playground":"climbingwall","sport":"climbing","website":"https://www.triesteonsight.it/napoleonica/mano_di_fatima.htm"}},"2212990862":{"location":[45.6943385,13.7458522],"ts":"2013-05-22T08:16:22Z","tz":1,"tags":{"name":"Falesia Napoleonica","sport":"climbing"}},"2212990945":{"location":[45.6968383,13.7429501],"ts":"2017-06-23T18:31:39Z","tz":1,"tags":{"name":"Falesia Napoleonica","sport":"climbing"}},"3542528909":{"location":[45.8246461,13.9791234],"ts":"2023-02-07T09:20:13Z","tz":1,"tags":{"leisure":"sports_centre","name":"Alpinistični poligon","sport":"climbing"}},"6976698249":{"location":[45.7068793,13.8683542],"ts":"2024-09-13T20:04:58Z","tz":1,"tags":{"addr:city":"Sežana","addr:housenumber":"43","addr:postcode":"6210","addr:street":"Partizanska cesta","fee":"yes","leisure":"sports_centre","name":"Plus Climbing Sežana","sport":"climbing"}},"10083646414":{"location":[45.8218439,13.9817813],"ts":"2023-10-05T18:51:20Z","tz":1,"tags":{"leisure":"sports_centre","name":"Zadnje plosce","sport":"climbing"}},"10098286196":{"location":[45.6230629,13.8732651],"ts":"2023-12-28T09:57:53Z","tz":1,"tags":{"name":"Sokoli (Falchi, Falchetti)","sport":"climbing"}},"11222012071":{"location":[45.6781148,13.9667865],"ts":"2025-05-24T11:30:07Z","tz":1,"tags":{"name":"Risnik","sport":"climbing","website":"https://www.plezanje.net/plezalisce/risnik"}},"11222256622":{"location":[45.825138,13.9779467],"ts":"2023-10-05T18:51:20Z","tz":1,"tags":{"leisure":"sports_centre","name":"Picapolonica","sport":"climbing"}},"11462290007":{"location":[45.6238902,13.8728196],"ts":"2024-10-21T19:45:09Z","tz":1,"tags":{"leisure":"sports_hall","name":"Piaccola Ferrovia 1 e 2 (palestra di roccia)","sport":"climbing"}},"12843881437":{"location":[45.6662674,13.7721038],"ts":"2025-05-17T11:46:10Z","tz":1,"tags":{"fee":"no","leisure":"sports_centre","opening_hours":"24/7","sport":"climbing"}},"12845266125":{"location":[45.6255538,13.8035495],"ts":"2025-05-18T01:46:37Z","tz":1,"tags":{"leisure":"sports_centre","name":"Olimpic Rock","sport":"climbing"}}}