{"5813084":{"lat":41.8834977,"lon":-87.6194488,"ts":"2020-01-17T17:11:52Z","tz":-6,"tags":{"layer":"2","leisure":"pitch","name":"Climbing Park","sport":"climbing","tower:type":"climbing"}},"210268961":{"lat":41.880132,"lon":-87.6523691,"ts":"2024-12-17T14:20:41Z","tz":-6,"tags":{"addr:city":"Chicago","addr:housenumber":"100","addr:postcode":"60607","addr:state":"IL","addr:street":"South Morgan Street","addr:street:name":"Morgan","addr:street:prefix":"South","addr:street:type":"Street","branch":"West Loop","building":"yes","building:levels":"1","check_date":"2024-12-15","chicago:building_id":"358198","leisure":"sports_centre","name":"Brooklyn Boulders","opening_hours":"Mo-Fr 07:00-22:00; Sa-Su 09:00-20:00","operator":"Brooklyn Boulders","operator:type":"private","phone":"+1-312-268-0002","sport":"climbing","website":"https://wl.brooklynboulders.com/"}},"9556324745":{"lat":41.907987,"lon":-87.6495845,"ts":"2022-07-10T16:53:31Z","tz":-6,"tags":{"addr:city":"Chicago","addr:housenumber":"1460","addr:postcode":"60642","addr:state":"IL","addr:street":"North Dayton Street","building":"commercial","email":"lincolnpark@movementgyms.com","fee":"yes","leisure":"sports_centre","name":"Movement Lincoln Park","opening_hours":"Mo-Fr 06:00-23:00; Sa 08:00-20:00; Su 08:00-18:00","phone":"+1 (312) 579-4454","sport":"climbing","website":"https://movementgyms.com/lincoln-park/"}},"9850361534":{"lat":41.8964703,"lon":-87.7015534,"ts":"2023-04-27T03:27:41Z","tz":-6,"tags":{"addr:city":"Chicago","addr:housenumber":"2950","addr:postcode":"60622","addr:state":"IL","addr:street":"West Grand Avenue","leisure":"sports_centre","name":"First Ascent","opening_hours":"Mo-Fr 06:00-23:00; Sa, Su 10:00-20:00","phone":"+1 773 697 9743","sport":"climbing","website":"https://faclimbing.com/chicago/humboldt-park/"}},"11966801784":{"lat":41.9470151,"lon":-87.6576683,"ts":"2024-06-15T20:58:26Z","tz":-6,"tags":{"addr:city":"Chicago","addr:housenumber":"1115","addr:postcode":"60613","addr:state":"IL","addr:street":"West Addison Street","email":"Wrigleyville@movementgyms.com","leisure":"sports_centre","name":"Movement Wrigleyville","opening_hours":"Mo-Fr 06:00-23:00; Sa 08:00-20:00; Su 08:00-18:00","phone":"+1 872 817-9815","sport":"climbing"}},"12521010346":{"lat":41.9451229,"lon":-87.710378,"ts":"2025-01-21T17:21:17Z","tz":-6,"tags":{"addr:housenumber":"3516","addr:street":"North Spaulding Ave","name":"First Ascent Avondale","opening_hours":"Mo-Fr 06:00-23:00; Sa, Su 09:00-20:00","phone":"+1 773-564-9815","sport":"climbing","website":"https://faclimbing.com/chicago"}}}