{"530913479":{"location":[48.3299665,10.8951192],"ts":"2022-08-07T07:33:36Z","tz":1,"tags":{"name":"Boulderblock","place":"square","sport":"climbing"}},"530913489":{"location":[48.330321,10.8953929],"ts":"2018-10-19T10:37:27Z","tz":1,"tags":{"leisure":"sport","name":"Outdoor Kletterwand","sport":"climbing","surface":"gravel"}},"635958550":{"location":[48.3307991,10.8953947],"ts":"2018-10-19T10:37:25Z","tz":1,"tags":{"leisure":"sport","name":"Indoor Kletterwand","sport":"climbing"}},"919446601":{"location":[48.3367122,10.8755775],"ts":"2021-04-14T13:55:36Z","tz":1,"tags":{"leisure":"pitch","name":"Kletterwand","sport":"climbing"}},"1084372128":{"location":[48.3299732,10.8951145],"ts":"2022-08-07T07:50:50Z","tz":1,"tags":{"building":"yes","leisure":"sport","name":"Boulderblock","sport":"climbing"}},"1144593247":{"location":[48.3900011,10.8875133],"ts":"2024-05-27T12:51:29Z","tz":1,"tags":{"addr:city":"Augsburg","addr:country":"DE","addr:housenumber":"35","addr:postcode":"86153","addr:street":"Austraße","climbing":"boulder","email":"info@bloc-huette.com","fee":"yes","leisure":"sports_centre","name":"Bloc-Hütte Augsburg","opening_hours":"Mo-Tu 13:00-22:30; We-Sa 09:00-22:30; Su 09:00-21:30","phone":"+49 821 65059800","sport":"climbing","website":"https://bloc-huette.de/"}}}