{"4396541110":{"location":[48.0261068,10.8361495],"ts":"2016-09-11T19:18:08Z","tz":1,"tags":{"sport":"climbing"}},"12121855028":{"location":[48.0799488,10.8561893],"ts":"2025-07-30T14:23:55Z","tz":1,"tags":{"addr:city":"Kaufering","addr:country":"DE","addr:housenumber":"5a","addr:postcode":"86916","addr:street":"Viktor-Frankl-Stra√üe","climbing:autobelay:toprope":"all","climbing:boulder":"yes","climbing:sport":"yes","climbing:toprope":"yes","contact:email":"info@die-kletterei.de","contact:facebook":"https://m.facebook.com/Kletterei/","contact:phone":"+49 8191 6404740","fee":"yes","internet_access":"wlan","internet_access:fee":"no","leisure":"sports_centre","name":"Kletterei","opening_hours":"07:00-22:30","payment:cards":"yes","payment:cash":"yes","payment:qr_code":"no","service:climbing_belay_device:rental":"yes","service:climbing_harness:rental":"yes","service:climbing_rope:rental":"yes","service:climbing_shoes:rental":"yes","service:climbing_shoes:rental:fee":"yes","shower":"hot","sport":"climbing","website":"https://die-kletterei.de/"}}}