{"130395384":{"location":[46.6567162,10.5821955],"ts":"2019-03-02T13:16:24Z","tz":1,"tags":{"addr:city":"Schluderns - Sluderno","addr:city:de":"Schluderns","addr:city:it":"Sluderno","addr:housenumber":"2","addr:postcode":"39020","addr:street":"Auenweg - Via Au","addr:street:de":"Auenweg","addr:street:it":"Via Au","email":"schluderns @ alpenverein.it","leisure":"sports_centre","name":"Kletterhalle Schluderns","sport":"climbing","website":"http://www.kletterhalle.it/schluderns/"}},"427479204":{"location":[46.7420585,10.7949485],"ts":"2016-06-26T19:19:56Z","tz":1,"tags":{"name:de":"Klettergarten Marchegg","name:it":"Palestra di roccia Marchegg","natural":"cliff","sport":"climbing"}},"849886908":{"location":[46.6231968,10.8574453],"ts":"2020-09-21T18:06:05Z","tz":1,"tags":{"climbing:length":"25","climbing:length:min":"10","climbing:orientation":"S","climbing:quality":"solid","climbing:rock":"granite","climbing:sport":"yes","name":"Alpingeschichte - Storia delle Alpi","name:de":"Alpingeschichte","name:it":"Storia delle Alpi","natural":"cliff","sport":"climbing"}},"4899722259":{"location":[46.6231595,10.8567327],"ts":"2020-09-21T18:06:05Z","tz":1,"tags":{"climbing":"yes","climbing:rock":"yes","name":"Latsch Vegas","natural":"cliff","sport":"climbing","website":"https://www.vertical-life.info/de/crags/76"}},"4899733538":{"location":[46.5842615,10.6993283],"ts":"2024-12-23T11:06:12Z","tz":1,"tags":{"climbing":"crag","climbing:rock":"yes","climbing:sport":"yes","name":"Nesselwand","natural":"rock","sport":"climbing"}},"4899740621":{"location":[46.6327655,10.7761972],"ts":"2024-12-23T11:05:38Z","tz":1,"tags":{"climbing":"crag","climbing:rock":"yes","climbing:sport":"yes","name":"Priel","natural":"rock","sport":"climbing"}},"4899780914":{"location":[46.6317451,10.7136232],"ts":"2024-12-22T14:22:22Z","tz":1,"tags":{"climbing":"crag","name":"Klettergarten Allitz - Falesia di Arrampicata Alliz","name:de":"Klettergarten Allitz","name:it":"Falesia di Arrampicata Alliz","natural":"rock","source":"https://www.vertical-life.info/de/crags/727","sport":"climbing"}},"6695681204":{"location":[46.5713529,10.795253],"ts":"2019-08-08T19:16:03Z","tz":1,"tags":{"leisure":"sports_centre","sport":"climbing"}},"10221745327":{"location":[46.6290756,10.7815097],"ts":"2022-11-27T17:08:48Z","tz":1,"tags":{"leisure":"sports_centre","sport":"climbing"}}}