{"12390038":{"lat":50.8300172,"lon":14.7967627,"ts":"2021-03-02T21:55:36Z","tz":1,"tags":{"climbing":"crag","name":"Weißbachtal","type":"site"}},"14297778":{"lat":50.8140641,"lon":14.8343598,"ts":"2022-06-26T22:13:02Z","tz":1,"tags":{"climbing":"crag","name":"Horní Skály","type":"site"}},"14301894":{"lat":50.8192363,"lon":14.8239093,"ts":"2022-06-27T19:25:40Z","tz":1,"tags":{"climbing":"crag","name":"Krkavčí skály","name:de":"Rabensteine","type":"site"}},"52173643":{"lat":50.7831726,"lon":15.0648136,"ts":"2024-08-22T18:39:17Z","tz":1,"tags":{"building":"yes","building:ruian:type":"19","leisure":"sports_centre","name":"Boulder Point","ref:ruian:building":"27925978","source":"cuzk:ruian","sport":"climbing","wheelchair":"yes"}},"289916111":{"lat":50.7635589,"lon":15.0619301,"ts":"2020-10-10T13:56:30Z","tz":1,"tags":{"leisure":"pitch","name":"Horolezecká aréna","sport":"climbing","website":"http://www.horolezeckaarena.cz"}},"523118953":{"lat":50.8329107,"lon":14.7918852,"ts":"2021-03-02T21:55:36Z","tz":1,"tags":{"climbing:grade:saxon:min":"V","climbing:rock":"sandstone","name":"Heideturm","natural":"peak","sport":"climbing"}},"523130464":{"lat":50.834298,"lon":14.7986249,"ts":"2021-03-02T21:55:36Z","tz":1,"tags":{"climbing:grade:saxon:min":"II","climbing:rock":"sandstone","name":"Sächsische Dianawand","name:en":"Saxon Diana Wall","natural":"peak","sport":"climbing"}},"523131870":{"lat":50.834265,"lon":14.7988172,"ts":"2021-03-02T21:55:36Z","tz":1,"tags":{"climbing:grade:saxon:min":"I","climbing:rock":"sandstone","name":"Böhmische Dianawand","natural":"peak","sport":"climbing"}},"523135968":{"lat":50.8331217,"lon":14.7962388,"ts":"2021-03-02T21:55:36Z","tz":1,"tags":{"climbing:grade:saxon:min":"VI","climbing:rock":"sandstone","name":"Südlicher Uhustein","name:en":"Southern Eagle Owl","natural":"peak","sport":"climbing"}},"523170867":{"lat":50.8332626,"lon":14.7964276,"ts":"2021-03-02T21:55:36Z","tz":1,"tags":{"climbing:grade:saxon:min":"V","climbing:rock":"sandstone","name":"Nördlicher Uhustein","name:en":"Northern Eagle Owl","natural":"peak","sport":"climbing"}},"523172386":{"lat":50.833409,"lon":14.7966765,"ts":"2021-03-02T21:55:36Z","tz":1,"tags":{"climbing:grade:saxon:min":"IV","climbing:rock":"sandstone","name":"Thielknopf","natural":"peak","sport":"climbing"}},"537159140":{"lat":50.8273683,"lon":14.8014303,"ts":"2021-03-02T21:55:36Z","tz":1,"tags":{"climbing:grade:saxon:min":"II","climbing:rock":"sandstone","name":"Böhmisches Tor","name:cs":"Česká brána","natural":"peak","sport":"climbing"}},"653205124":{"lat":50.7708994,"lon":15.0912863,"ts":"2022-10-04T21:07:04Z","tz":1,"tags":{"landuse":"recreation_ground","name":"Lanové centrum","sport":"climbing"}},"1923782751":{"lat":50.8460954,"lon":14.7663161,"ts":"2021-03-02T21:14:34Z","tz":1,"tags":{"alt_name":"Kastell","climbing:grade:saxon:min":"II","climbing:rock":"sandstone","climbing:trad":"yes","name":"Hussitenriff","natural":"peak","source":"survey","sport":"climbing"}},"3009936540":{"lat":50.8262007,"lon":14.8016402,"ts":"2023-09-18T14:55:37Z","tz":1,"tags":{"climbing:grade:saxon:min":"IV","climbing:rock":"sandstone","ele":"441","name":"Grenzkogel","natural":"peak","sport":"climbing"}},"3009936543":{"lat":50.8230315,"lon":14.7998027,"ts":"2021-03-02T21:55:36Z","tz":1,"tags":{"climbing:rock":"sandstone","name":"Grüner Hund","natural":"peak","sport":"climbing"}},"3119061060":{"lat":50.846151,"lon":14.7667926,"ts":"2021-03-02T21:14:34Z","tz":1,"tags":{"climbing:grade:saxon:min":"II","climbing:rock":"sandstone","climbing:trad":"yes","name":"Bergfreinadel","natural":"peak","source":"survey","sport":"climbing","summit:register":"yes"}},"3119061061":{"lat":50.8467955,"lon":14.7680552,"ts":"2021-03-02T21:14:34Z","tz":1,"tags":{"alt_name":"Geldstein","climbing:grade:saxon:min":"I","climbing:rock":"sandstone","climbing:trad":"yes","name":"Roter Turm","natural":"peak","source":"survey","sport":"climbing","summit:register":"yes"}},"3119061062":{"lat":50.8470358,"lon":14.7676248,"ts":"2021-03-02T21:14:34Z","tz":1,"tags":{"climbing:grade:saxon:min":"I","climbing:rock":"sandstone","climbing:trad":"yes","name":"Rübezahlwand","natural":"peak","source":"survey","sport":"climbing"}},"3467210085":{"lat":50.8334802,"lon":14.8002311,"ts":"2021-03-02T21:55:36Z","tz":1,"tags":{"climbing:grade:saxon:min":"V","climbing:rock":"sandstone","name":"Weißbachturm","natural":"peak","sport":"climbing"}},"6190573234":{"lat":50.8480548,"lon":14.7673027,"ts":"2021-03-02T21:14:34Z","tz":1,"tags":{"climbing:grade:saxon:min":"I","climbing:rock":"sandstone","climbing:trad":"yes","name":"Töpferkrone","natural":"peak","sport":"climbing"}},"6190573235":{"lat":50.8484664,"lon":14.7675088,"ts":"2021-03-02T21:14:34Z","tz":1,"tags":{"climbing:grade:saxon:min":"II","climbing:rock":"sandstone","climbing:trad":"yes","name":"Rübezahlsspitze","natural":"peak","sport":"climbing"}},"6190619126":{"lat":50.8466535,"lon":14.7668105,"ts":"2021-03-02T21:14:34Z","tz":1,"tags":{"climbing:grade:saxon:min":"II","climbing:rock":"sandstone","climbing:trad":"yes","name":"Böhmischer Turm","natural":"cliff","sport":"climbing","summit:register":"yes"}},"6190619131":{"lat":50.8461428,"lon":14.7677489,"ts":"2021-03-02T21:14:34Z","tz":1,"tags":{"climbing:grade:saxon:min":"III","climbing:rock":"sandstone","climbing:trad":"yes","name":"Feuerstein","natural":"peak","sport":"climbing","summit:register":"yes"}},"6232648480":{"lat":50.834081,"lon":14.7986897,"ts":"2021-03-02T21:55:36Z","tz":1,"tags":{"alt_name":"Unterer Dianawand","climbing:grade:saxon:min":"II","climbing:rock":"sandstone","name":"Lessewand","natural":"cliff","sport":"climbing"}},"6403942879":{"lat":50.831319,"lon":14.795716,"ts":"2021-03-02T21:55:36Z","tz":1,"tags":{"climbing:grade:saxon:min":"II","climbing:rock":"sandstone","name":"Fuchs","natural":"peak","sport":"climbing"}},"6403985658":{"lat":50.8257365,"lon":14.8014304,"ts":"2023-09-18T15:02:30Z","tz":1,"tags":{"climbing:grade:saxon:min":"II","climbing:rock":"sandstone","ele":"448","name":"Kleiner Grenzkogel","natural":"peak","sport":"climbing"}},"6403985659":{"lat":50.8294719,"lon":14.7976035,"ts":"2021-03-02T21:55:36Z","tz":1,"tags":{"climbing:grade:saxon:min":"III","climbing:rock":"sandstone","name":"Weißbachspitze","natural":"peak","sport":"climbing"}},"6403985660":{"lat":50.829544,"lon":14.7977725,"ts":"2021-03-02T21:55:36Z","tz":1,"tags":{"climbing:grade:saxon:min":"II","climbing:rock":"sandstone","name":"Mehlsack","natural":"peak","sport":"climbing"}},"6403985661":{"lat":50.8301195,"lon":14.7972368,"ts":"2021-03-02T21:55:36Z","tz":1,"tags":{"climbing:grade:saxon:min":"II","climbing:rock":"sandstone","name":"Straßbergturm","natural":"peak","sport":"climbing"}},"6409700231":{"lat":50.7670582,"lon":15.0526751,"ts":"2019-04-16T16:17:55Z","tz":1,"tags":{"addr:city":"Liberec","addr:housename":"Šutr","addr:housenumber":"470/18","addr:postcode":"46007","addr:street":"Hrazená","contact:facebook":"www.facebook.com/Sutr.cz","contact:website":"http://www.sutr.cz","internet_access":"wlan","leisure":"sports_centre","name":"Šutr","sport":"climbing"}},"6814015370":{"lat":50.897876,"lon":14.785009,"ts":"2024-09-27T10:28:03Z","tz":1,"tags":{"access":"customers","addr:city":"Zittau","addr:country":"DE","addr:housenumber":"6","addr:postcode":"02763","addr:street":"Westpark","climbing:boulder":"yes","climbing:sport":"yes","fee":"yes","indoor":"yes","leisure":"sports_centre","name":"DAV Kletterzentrum Quacke","opening_hours":"Mo-Fr, PH 09:00-21:30; May-Sep Su 09:00-14:00; Sep-Apr Su 09:00-18:00","operator":"Sektion Zittau des Deutschen Alpenvereins e.V.","operator:type":"private","payment:cards":"yes","payment:cash":"yes","short_name":"Quacke","sport":"climbing","website":"https://www.quacke-zittau.de/"}},"7475674893":{"lat":50.8329121,"lon":14.797753,"ts":"2021-03-02T21:55:36Z","tz":1,"tags":{"climbing:grade:saxon:min":"II","climbing:rock":"sandstone","name":"Böhmisches Horn","natural":"peak","sport":"climbing"}},"9165736176":{"lat":50.86932,"lon":15.0978,"ts":"2021-10-11T19:27:27Z","tz":1,"tags":{"climbing:rock":"granite","climbing:sport":"yes","climbing:trad":"yes","name":"Lysé skály","name:cs":"Lysé skály","name:de":"Kahlstein","natural":"peak","source":"survey; gps; local knowing","sport":"climbing"}},"9165736177":{"lat":50.86888,"lon":15.10108,"ts":"2021-10-11T19:27:27Z","tz":1,"tags":{"climbing:rock":"granite","climbing:sport":"yes","climbing:summit_log":"yes","climbing:trad":"yes","name":"Morčoun","name:cs":"Morčoun","name:de":"Meerschwein","natural":"peak","source":"survey; gps; local knowing","sport":"climbing"}},"9165736178":{"lat":50.86945,"lon":15.10117,"ts":"2021-10-13T10:27:40Z","tz":1,"tags":{"climbing:rock":"granite","climbing:sport":"yes","climbing:trad":"yes","name":"Skalní Brána","name:cs":"Skalní Brána","name:de":"Felsentor","natural":"peak","source":"survey; gps; local knowing","sport":"climbing"}}}