{"18243395":{"location":[47.3600721,15.0802218],"ts":"2024-11-02T21:42:25Z","tz":1,"tags":{"climbing":"crag","name":"Häuselberg Leoben","site":"climbing","sport":"climbing","type":"site"}},"132007852":{"location":[47.3600721,15.0802218],"ts":"2014-02-16T20:44:11Z","tz":1,"tags":{"climbing:bolted":"yes","climbing:orientation":"S","climbing:quality":"solid","climbing:rock":"limestone","climbing:sport":"yes","natural":"cliff","sport":"climbing"}},"923526359":{"location":[47.3811979,15.1102961],"ts":"2021-08-01T17:47:30Z","tz":1,"tags":{"addr:city":"Leoben","addr:housenumber":"77","addr:postcode":"8700","addr:street":"Kärntner Straße","building":"yes","charge":"11 EUR","fee":"yes","leisure":"sports_centre","name":"Boulderpoint","opening_hours":"Sep-Jun Mo 14:00-22:00; Sep-Jun Tu-Su 10:00-22:00; Jul-Aug Mo 17:00-23:00; Jul-Aug Tu-Su 07:00-12:00,17:00-23:00","payment:cash":"yes","payment:coins":"yes","payment:credit_cards":"yes","payment:debit_cards":"yes","payment:maestro":"yes","sport":"climbing"}},"1050843689":{"location":[47.4054626,15.0344411],"ts":"2022-04-10T19:36:52Z","tz":1,"tags":{"climbing:sport":"yes","natural":"cliff","source":"geoimage.at","sport":"climbing"}},"1050843692":{"location":[47.4086613,15.0339643],"ts":"2022-04-10T19:36:52Z","tz":1,"tags":{"climbing:sport":"yes","name":"G'spitzte Wand","natural":"cliff","source":"geoimage.at","sport":"climbing"}},"7211560753":{"location":[47.2880355,15.061124],"ts":"2020-02-14T12:15:34Z","tz":1,"tags":{"climbing:sport":"yes","name":"Klettergarten Hinterlobming - Höllwandschläge","sport":"climbing"}}}