{"503678350":{"location":[48.4342556,11.6055623],"ts":"2023-11-04T14:20:06Z","tz":1,"tags":{"leisure":"sports_centre","name":"Kletterwand - Ampertalhalle Südwand","sport":"climbing","wheelchair":"no"}},"931380580":{"location":[48.391948,11.7418286],"ts":"2025-03-23T08:30:22Z","tz":1,"tags":{"access":"yes","addr:city":"Freising","addr:country":"DE","addr:housenumber":"3","addr:postcode":"85354","addr:street":"Seilerbrücklstraße","building":"yes","check_date":"2025-03-23","climbing:boulder":"yes","climbing:sport":"yes","indoor":"yes","internet_access":"wlan","internet_access:fee":"customers","leisure":"sports_centre","name":"Kletterzentrum Freising","office":"company","opening_hours":"Mo,Tu,Fr 16:00-21:45; We 10:00-21:45; Sa,Su 10:00-21:00","outdoor":"yes","phone":"+49 8161 548656","sport":"climbing","website":"https://www.kletterzentrum-freising.de/","wheelchair":"no"}},"1171258510":{"location":[48.2529792,11.6329983],"ts":"2025-05-29T11:32:17Z","tz":1,"tags":{"building":"yes","check_date":"2023-05-09","climbing":"boulder","description":"Mehrere Boulderwände mit geschraubten Griffen und Fallschutzkies.","fee":"no","fixme":"Form d. Kletterwand nur grob eingetragen","leisure":"sports_centre","mapillary":"2103068066842366","operator":"Deutscher Alpenverein","source":"survey","sport":"climbing","type":"site"}},"8711719815":{"location":[48.3197049,11.9047769],"ts":"2024-08-24T17:35:07Z","tz":1,"tags":{"addr:city":"Erding","addr:country":"DE","addr:housenumber":"9","addr:postcode":"85435","addr:street":"An der Melkstatt","club":"sport","email":"geschaeftsstelle@alpenverein-erding.de","name":"Sektion Alpenkranzl Erding des Deutschen Alpenvereins e.V.","opening_hours":"Mo,We 17:00-19:00","operator":"DAV Sektion Alpenkranzl Erding e.V.","phone":"+49 8122 3525","sport":"climbing","website":"https://aktiv.alpenverein-erding.de"}}}