{"9731321":{"location":[46.6217334,11.7743232],"ts":"2019-06-28T15:01:10Z","tz":1,"tags":{"climbing:bolted":"yes","climbing:quality":"solid","leisure":"sports_centre","name":"Klettergarten Zanser Alm","natural":"rock","sport":"climbing","tourism":"attraction"}},"108017972":{"location":[46.7923354,11.8817878],"ts":"2022-08-15T08:42:21Z","tz":1,"tags":{"alt_name":"Sonnenburg","climbing:bolted":"yes","climbing:length:max":"30","climbing:orientation":"s","climbing:routes":"45","fee":"no","name":"Burgkofel","natural":"cliff","outdoor":"yes","sport":"climbing","url":"https://www.thecrag.com/en/climbing/italy/alto-adige/castel-badia-loathnakofel-sonnenburg"}},"364263610":{"location":[46.7900855,11.9280087],"ts":"2022-08-20T08:46:17Z","tz":1,"tags":{"addr:city":"Bruneck - Brunico","addr:city:de":"Bruneck","addr:city:it":"Brunico","addr:housenumber":"36","addr:postcode":"39031","addr:street":"Josef-Ferrari-Straße  - Via Josef Ferrari","addr:street:de":"Josef-Ferrari-Straße","addr:street:it":"Via Josef Ferrari","alt_name":"Kletterzentrum Bruneck","building":"yes","fee":"yes","leisure":"sports_centre","name":"HELIKS Climbing Center","name:de":"HELIKS Kletterzentrum Bruneck","name:it":"HELIKS Centro Arrampicata Brunico","opening_hours":"Mo-Fr 12:00-22:30; Sa,Su,PH 09:00-20:30","sport":"climbing","website":"https://heliks.it/"}},"710055809":{"location":[46.6652699,11.82252],"ts":"2019-08-02T15:16:07Z","tz":1,"tags":{"name":"Klettergarten Würzjoch Peitlerkofel","natural":"cliff","sport":"climbing"}},"710348835":{"location":[46.7749762,11.6244521],"ts":"2024-09-04T21:25:52Z","tz":1,"tags":{"name":"Klettergarten Hohe Festung (Franzensfeste) - Falesia d'arrampicata Forte Alto (Fortezza)","name:de":"Klettergarten Hohe Festung (Franzensfeste)","name:it":"Falesia d'arrampicata Forte Alto (Fortezza)","natural":"bare_rock","sport":"climbing"}},"710348836":{"location":[46.7755218,11.6242978],"ts":"2024-09-04T21:25:52Z","tz":1,"tags":{"name":"Klettergarten Hohe Festung (Franzensfeste) - Falesia d'arrampicata Forte Alto (Fortezza)","name:de":"Klettergarten Hohe Festung (Franzensfeste)","name:it":"Falesia d'arrampicata Forte Alto (Fortezza)","natural":"bare_rock","sport":"climbing"}},"1809210239":{"location":[46.5614991,11.7727298],"ts":"2019-05-10T14:16:04Z","tz":1,"tags":{"name":"Busc dl Preve","sport":"climbing"}},"2384715617":{"location":[46.6959472,11.6402673],"ts":"2018-07-29T11:15:51Z","tz":1,"tags":{"climbing:grade:french:min":"4b","climbing:orientation":"S","climbing:sport":"yes","name":"Klettergarten Mahr - Arrampicata La Mara","name:de":"Klettergarten Mahr","name:it":"Arrampicata La Mara","sport":"climbing"}},"5040023153":{"location":[46.5993757,11.7750578],"ts":"2020-09-11T22:41:11Z","tz":1,"tags":{"climbing:grade:uiaa:max":"IV+","climbing:grade:uiaa:mean":"IV","climbing:length":"215","climbing:multipitch":"yes","climbing:pitches":"7","climbing:rock":"limestone","ele":"2280","name":"Piza da la Creusc - Elena-Führe (Südwand)","sport":"climbing"}},"5043678222":{"location":[46.6027666,11.7716038],"ts":"2020-09-11T22:41:11Z","tz":1,"tags":{"climbing:grade:uiaa:mean":"IV","climbing:length":"451","climbing:multipitch":"yes","climbing:pitches":"13","climbing:rock":"limestone","ele":"2440","name":"Süd. Vorgipfel des Torkofels - Dima-Führe (Westwand)","sport":"climbing"}},"5043695652":{"location":[46.5776128,11.7576121],"ts":"2020-09-11T22:41:11Z","tz":1,"tags":{"climbing:grade:uiaa:mean":"IV","climbing:length":"442","climbing:multipitch":"yes","climbing:pitches":"13","climbing:rock":"limestone","ele":"2000","name":"Juacturm - Hütten-Führe (Nordwestpfeiler)","sport":"climbing"}},"5043720073":{"location":[46.5660932,11.7725077],"ts":"2020-09-11T22:41:11Z","tz":1,"tags":{"climbing:grade:uiaa:mean":"IV","climbing:length":"164","climbing:multipitch":"yes","climbing:pitches":"6","climbing:rock":"limestone","ele":"1610","name":"Piz dai Schic - Rita-Führe (Südostwand)","sport":"climbing"}},"5043785239":{"location":[46.5969043,11.7783308],"ts":"2020-09-11T22:41:11Z","tz":1,"tags":{"climbing:grade:uiaa:mean":"IV","climbing:length":"190","climbing:multipitch":"yes","climbing:pitches":"7","climbing:rock":"limestone","ele":"2250","name":"Pitla Cansla - Sayonara-Führe (Westwand)","sport":"climbing"}},"6670897795":{"location":[46.6651179,11.8227944],"ts":"2019-08-02T13:55:35Z","tz":1,"tags":{"climbing:rock":"limestone","climbing:sport":"solid","name":"Klettergarten Würzjoch Peitlerkofel","outdoor":"yes","sport":"climbing"}},"6717927774":{"location":[46.5615939,11.7728094],"ts":"2022-06-06T11:08:25Z","tz":1,"tags":{"leisure":"sports_centre","name":"Palestra di Roccia Vallunga","name:de":"Klettergarten Langental","name:it":"Palestra di Roccia Vallunga","sport":"climbing","wheelchair":"no"}},"7744115560":{"location":[46.6988976,11.9267758],"ts":"2021-10-07T13:06:05Z","tz":1,"tags":{"access":"customers","building":"hotel","fee":"no","leisure":"sports_centre","name":"Dolomites Wall","sport":"climbing","wheelchair":"no"}},"9045655271":{"location":[46.5753217,11.7589061],"ts":"2021-08-29T17:56:20Z","tz":1,"tags":{"name":"Juacturm - Victoria-Führe (Südwestwand)","sport":"climbing"}},"11135039811":{"location":[46.7203221,11.6568287],"ts":"2023-08-21T21:07:19Z","tz":1,"tags":{"addr:housenumber":"9","addr:street":"Am Priel","climbing:boulder":"yes","climbing:toprope":"yes","contact:website":"https://www.vertikale.it","leisure":"sports_centre","level":"1","name":"Vertikale","name:de":"Vertikale Kletterzentrum Brixen","name:it":"Centro d'arrampicata Bressanone Vertikale","opening_hours":"Mo-Fr 12:00-22:30; Sa-Su, PH 10:00-20:30","sport":"climbing"}},"11923485265":{"location":[46.6991412,11.9480807],"ts":"2024-05-21T20:07:38Z","tz":1,"tags":{"climbing:sport":"yes","name":"Laboratorio","natural":"cliff","sport":"climbing","website":"https://www.thecrag.com/climbing/italy/alto-adige/area/1042490022"}}}