{"271946793":{"location":[46.5316,11.785186],"ts":"2009-08-17T16:46:48Z","tz":1,"tags":{"sport":"climbing"}},"460520578":{"location":[46.5390343,11.7733725],"ts":"2025-03-22T18:35:47Z","tz":1,"tags":{"name":"Falesia La Fabrik","natural":"cliff","note":"only for dry tooling","sport":"climbing"}},"507902521":{"location":[46.4712806,11.6887158],"ts":"2024-07-30T15:23:58Z","tz":1,"tags":{"climbing":"route","climbing:grade:french":"D+/TD-","climbing:grade:uiaa":"5","name":"Donatella - Spigolo delle Bregostane"}},"612391515":{"location":[46.4634136,11.6291088],"ts":"2025-05-04T01:16:58Z","tz":1,"tags":{"climbing":"route","climbing:grade:uiaa":"2+","highway":"path","sac_scale":"difficult_alpine_hiking","source":"survey","sport":"climbing"}},"1891803026":{"location":[46.3725992,11.6841828],"ts":"2021-09-02T14:15:11Z","tz":1,"tags":{"leisure":"sports_centre","name":"Palestra di roccia","sport":"climbing"}},"2414222839":{"location":[46.4206982,11.6034417],"ts":"2020-12-15T11:37:15Z","tz":1,"tags":{"ele":"1830","name":"Kaiserstein","sport":"climbing","tourism":"viewpoint"}},"2453549960":{"location":[46.5511751,11.871001],"ts":"2015-01-25T11:42:30Z","tz":1,"tags":{"man_made":"tower","sport":"climbing","tower:type":"climbing"}},"2983690662":{"location":[46.5560388,11.7562378],"ts":"2023-10-18T11:49:52Z","tz":1,"tags":{"addr:city":"Sëlva - Wolkenstein in Gröden - Selva di Val Gardena","addr:city:de":"Wolkenstein in Gröden","addr:city:it":"Selva di Val Gardena","addr:city:lld":"Sëlva","addr:country":"IT","addr:housenumber":"2","addr:postcode":"39048","addr:street":"Streda Nives","addr:street:de":"Straße Nives","addr:street:it":"Strada Nives","addr:street:lld":"Streda Nives","email":"info@gardenaguides.it","fee":"yes","leisure":"sports_centre","mobile":"+39 335 8377744","name":"Climbing Nives","name:de":"Kletterhalle Nives","name:en":"Climbing hall Nives","name:it":"Palestra d'arrampicata Nives","phone":"+39 0471 794133","sport":"climbing","website":"https://www.climbing-nives.it/"}},"3334623356":{"location":[46.4976615,11.8786538],"ts":"2015-02-06T18:24:32Z","tz":1,"tags":{"climbing:ice":"yes","man_made":"tower","sport":"climbing","tower:type":"climbing"}},"3680468224":{"location":[46.4756942,11.7464793],"ts":"2015-08-04T12:49:08Z","tz":1,"tags":{"sport":"climbing"}},"3724590815":{"location":[46.4475514,11.9026372],"ts":"2015-09-01T11:16:01Z","tz":1,"tags":{"sport":"climbing"}},"4654363990":{"location":[46.5467695,11.8750097],"ts":"2023-09-21T16:34:01Z","tz":1,"tags":{"check_date":"2023-09-21","leisure":"sports_centre","name":"Guide Alpine","name:en":"Mountain Guides","sport":"climbing","wheelchair":"yes"}},"4972695294":{"location":[46.5116904,11.7572958],"ts":"2020-07-07T20:12:12Z","tz":1,"tags":{"climbing:sport":"yes","name":"Sasso Della Palestra","natural":"rock","sport":"climbing"}},"4972695295":{"location":[46.5117312,11.7530262],"ts":"2024-07-30T08:43:54Z","tz":1,"tags":{"climbing:sport":"yes","name":"Sasso Renato","natural":"rock","sport":"climbing"}},"4972695297":{"location":[46.5108924,11.7543153],"ts":"2017-07-17T20:02:17Z","tz":1,"tags":{"climbing:sport":"yes","name":"Sasso Annalisa","natural":"rock","sport":"climbing"}},"4973226905":{"location":[46.4715438,11.6886533],"ts":"2017-07-16T08:29:43Z","tz":1,"tags":{"climbing":"route_top"}},"4973227030":{"location":[46.4710174,11.6886619],"ts":"2017-07-16T08:29:43Z","tz":1,"tags":{"climbing":"route_bottom"}},"4976059958":{"location":[46.5136335,11.7503944],"ts":"2019-05-21T21:33:21Z","tz":1,"tags":{"name":"Sasso Piccolo Cervin","natural":"rock","sport":"climbing"}},"4976059959":{"location":[46.5132956,11.7517898],"ts":"2024-07-30T08:43:54Z","tz":1,"tags":{"name":"Sasso Gabriel","natural":"rock","sport":"climbing"}},"4976059960":{"location":[46.5125807,11.7520089],"ts":"2024-07-30T08:43:54Z","tz":1,"tags":{"name":"Sasso Spaccato","natural":"rock","sport":"climbing"}},"5796953499":{"location":[46.449837,11.645481],"ts":"2018-07-30T21:09:59Z","tz":1,"tags":{"climbing:trad":"yes","name":"Pala Patéch","source":"survey","sport":"climbing"}},"5796953535":{"location":[46.4629058,11.6284273],"ts":"2023-09-06T21:18:08Z","tz":1,"tags":{"climbing:trad":"yes","name":"Torre Estrema, Südkante","name:de":"Torre Estrema, Südkante","natural":"yes","source":"survey","sport":"climbing"}},"5796953890":{"location":[46.4604362,11.6253698],"ts":"2018-07-30T21:10:00Z","tz":1,"tags":{"climbing:trad":"yes","name:de":"Stabelerturm, Normalweg","sport":"climbing"}},"5796953897":{"location":[46.4556284,11.6210085],"ts":"2018-08-04T11:15:01Z","tz":1,"tags":{"climbing:trad":"yes","name":"Rosengartenspitze Normalweg - Cima Catinaccio Via Normale","name:de":"Rosengartenspitze, Normalweg","sport":"climbing"}},"6473012816":{"location":[46.5121866,11.7529893],"ts":"2019-05-14T14:45:24Z","tz":1,"tags":{"name":"Zità di Sasc - Steinerne Stadt - Città dei Sassi","name:de":"Steinerne Stadt","name:it":"Città dei Sassi","name:lld":"Zità di Sasc","place":"locality","sport":"climbing","tourism":"attraction"}},"6743607131":{"location":[46.4565245,11.8608881],"ts":"2019-08-25T08:16:48Z","tz":1,"tags":{"name":"Passo Fedaia Sector B","sport":"climbing"}},"6743620904":{"location":[46.4567257,11.8602398],"ts":"2019-08-25T08:23:29Z","tz":1,"tags":{"name":"Passo Fedaia Sector C","sport":"climbing"}},"9904850478":{"location":[46.5411265,11.8369027],"ts":"2022-07-22T20:46:11Z","tz":1,"tags":{"name":"Blade Runner (Oscura della Luna)","sport":"climbing"}},"9904861801":{"location":[46.5410457,11.836336],"ts":"2022-07-22T20:46:11Z","tz":1,"tags":{"name":"De Profundis (Oscura della Luna)","sport":"climbing"}},"12082555069":{"location":[46.5111782,11.7537624],"ts":"2024-07-30T08:43:54Z","tz":1,"tags":{"climbing:sport":"yes","name":"Sasso Cucchi","natural":"rock","sport":"climbing"}},"12082555093":{"location":[46.5116901,11.7524425],"ts":"2024-07-30T08:43:54Z","tz":1,"tags":{"climbing:sport":"yes","name":"Sasso Murdok","natural":"rock","sport":"climbing"}},"12112963335":{"location":[46.4241806,11.9171351],"ts":"2024-08-15T16:57:32Z","tz":1,"tags":{"sport":"climbing"}},"12983543648":{"location":[46.5559351,11.7929609],"ts":"2025-07-06T20:02:37Z","tz":1,"tags":{"climbing:grade:uiaa:mean":"IV+","climbing:multipitch":"yes","climbing:rock":"limestone","name":"Picz Cucena V","sport":"climbing"}},"12983543651":{"location":[46.5580405,11.8091735],"ts":"2025-07-06T20:02:37Z","tz":1,"tags":{"climbing:grade:uiaa:mean":"IV+","climbing:multipitch":"yes","climbing:rock":"limestone","name":"Bolp Führe","sport":"climbing"}},"12983543653":{"location":[46.5579713,11.8073335],"ts":"2025-07-06T20:02:37Z","tz":1,"tags":{"climbing:grade:uiaa:mean":"IV+","climbing:multipitch":"yes","climbing:rock":"limestone","name":"Demetz","sport":"climbing"}},"12983543688":{"location":[46.5585233,11.8076829],"ts":"2025-07-06T20:02:37Z","tz":1,"tags":{"climbing":"abseil"}},"12983543689":{"location":[46.5585726,11.8078297],"ts":"2025-07-06T20:02:37Z","tz":1,"tags":{"climbing":"abseil"}},"13009091145":{"location":[46.5057534,11.7950217],"ts":"2025-07-18T12:28:12Z","tz":1,"tags":{"leisure":"sports_centre","name":"Falesia Pian Schiavaneis","sport":"climbing"}},"13009110064":{"location":[46.4522183,11.8320986],"ts":"2025-07-18T12:31:21Z","tz":1,"tags":{"leisure":"sports_centre","name":"Falesia Vernel","sport":"climbing"}},"13009121754":{"location":[46.494824,11.7483294],"ts":"2025-07-18T12:34:14Z","tz":1,"tags":{"leisure":"sports_centre","name":"Falesia Col Rodella","sport":"climbing"}}}