{"758622258":{"lat":26.9948777,"lon":99.688257,"ts":"2019-12-26T03:25:10Z","tz":8,"tags":{"height":"100","name":"Eldorado","natural":"cliff","sport":"climbing"}},"4923550137":{"lat":27.0324065,"lon":99.6761134,"ts":"2018-03-16T17:38:49Z","tz":8,"tags":{"name:en":"Dinner Wall","sport":"climbing"}},"4923550143":{"lat":27.0299222,"lon":99.6860167,"ts":"2018-03-16T17:38:50Z","tz":8,"tags":{"name:en":"Pandora","sport":"climbing"}},"4923550150":{"lat":27.016331,"lon":99.6758345,"ts":"2017-06-19T06:27:36Z","tz":8,"tags":{"sport":"climbing"}},"4923550159":{"lat":27.0355612,"lon":99.6960261,"ts":"2018-03-16T17:38:50Z","tz":8,"tags":{"name:en":"The Diamond","sport":"climbing"}},"4923550160":{"lat":27.0226783,"lon":99.6731093,"ts":"2018-03-16T17:38:50Z","tz":8,"tags":{"name:en":"The Holidays","sport":"climbing"}},"4923550172":{"lat":27.0169427,"lon":99.6726587,"ts":"2017-06-19T06:27:37Z","tz":8,"tags":{"sport":"climbing"}},"4923550177":{"lat":27.0214163,"lon":99.6798261,"ts":"2018-03-16T17:38:50Z","tz":8,"tags":{"name:en":"Lisu","sport":"climbing"}},"4923550182":{"lat":27.0241893,"lon":99.6988349,"ts":"2017-10-04T02:19:20Z","tz":8,"tags":{"sport":"climbing"}},"4923550193":{"lat":27.0407206,"lon":99.6905662,"ts":"2018-03-16T17:38:50Z","tz":8,"tags":{"name:en":"One Dragon","sport":"climbing"}},"4923571944":{"lat":27.0256029,"lon":99.7135785,"ts":"2018-03-16T17:38:49Z","tz":8,"tags":{"name:en":"Guardian Valley","sport":"climbing"}},"5146356939":{"lat":27.0212555,"lon":99.7142082,"ts":"2018-03-16T17:38:49Z","tz":8,"tags":{"name:en":"Faraway","sport":"climbing"}}}