{"923763503":{"lat":47.5094084,"lon":19.0872976,"ts":"2024-05-04T15:37:49Z","tz":1,"tags":{"climbing:boulder":"yes","fee":"no","leisure":"sports_centre","name":"mászófal","sport":"climbing"}},"1099364526":{"lat":47.4779854,"lon":19.0602133,"ts":"2022-09-30T15:03:15Z","tz":1,"tags":{"fee":"no","landuse":"recreation_ground","opening_hours":"24/7","sport":"climbing","surface":"sand"}},"1331147129":{"lat":47.4711722,"lon":19.0836767,"ts":"2025-03-17T17:33:51Z","tz":1,"tags":{"addr:city":"Budapest","addr:housenumber":"12-14","addr:postcode":"1097","addr:street":"Könyves Kálmán körút","alt_name":"BAB","contact:email":"info@babboulder.hu","contact:facebook":"https://www.facebook.com/boulderacademy/","contact:instagram":"https://www.instagram.com/boulderacademybudapest/","contact:mobile":"+36 20 471 2322","contact:website":"https://www.boulderacademy.hu/","indoor":"room","leisure":"sports_centre","level":"1","name":"Boulder Academy Budapest","opening_hours":"Mo-We,Fr 06:00-23:00; Th 14:00-23:00; Sa-Su 10:00-21:00","operator":"Duo-Pal Kft.","payment:cash":"no","payment:contactless":"yes","payment:credit_cards":"yes","payment:debit_cards":"yes","sport":"climbing"}},"9140200167":{"lat":47.5145273,"lon":19.1143988,"ts":"2024-03-03T20:14:41Z","tz":1,"tags":{"addr:city":"Budapest","addr:housenumber":"23","addr:postcode":"1149","addr:street":"Kövér Lajos utca","email":"info@fless.hu","facebook":"https://www.facebook.com/flessbudapest/","leisure":"sports_centre","name":"fless!","opening_hours":"Mo 08:00-22:00; Tu 14:00-22:00; We-Fr 08:00-22:00; Sa, Su 10:00-20:00","phone":"+36 30 126 8090","sport":"climbing","website":"https://fless.hu/"}},"9245412266":{"lat":47.4821414,"lon":19.1568119,"ts":"2024-03-03T20:24:17Z","tz":1,"tags":{"addr:city":"Budapest","addr:housenumber":"144","addr:postcode":"1106","addr:street":"Kada utca","check_date":"2023-04-04","internet_access":"wlan","internet_access:fee":"no","leisure":"sports_centre","name":"MAG47","opening_hours":"Mo-Fr 08:00-22:30; Sa,Su 09:00-21:00","payment:mastercard":"yes","payment:visa":"yes","sport":"climbing","website":"https://mag47.hu","wheelchair":"no"}},"10281257552":{"lat":47.4590771,"lon":19.0510303,"ts":"2024-10-11T20:22:11Z","tz":1,"tags":{"leisure":"fitness_centre","level":"2","name":"Flow boulder","opening_hours":"Mo-Fr 06:00-23:00; Sa-Su 08:00-22:00","operator":"Flow Climbing Zrt","payment:cash":"yes","payment:contactless":"yes","payment:credit_cards":"yes","payment:debit_cards":"yes","ref:HU:vatin":"27833126-2-43","sport":"climbing","toilets":"yes","toilets:access":"customers","website":"https://www.flowboulder.hu/"}},"12143761893":{"lat":47.5088586,"lon":19.0254205,"ts":"2024-08-29T08:25:22Z","tz":1,"tags":{"leisure":"sports_centre","name":"Gravity Boulder Bar","sport":"climbing"}},"12398475585":{"lat":47.4647498,"lon":19.0715557,"ts":"2024-12-13T12:58:56Z","tz":1,"tags":{"covered":"no","indoor":"no","leisure":"sports_centre","sport":"climbing"}},"12530244394":{"lat":47.4803976,"lon":19.0492042,"ts":"2025-02-05T13:47:29Z","tz":1,"tags":{"climbing:boulder":"yes","contact:website":"https://corvinussportcenter.hu/boulder/","leisure":"sports_centre","name":"Gravity Campus","opening_hours":"Mo-Th 06:00-23:00; Fr 11:00-23:00; Sa-Su 09:00-21:00","operator":"Gravity Campus Mászósport Kft.","payment:cash":"yes","payment:contactless":"yes","payment:credit_cards":"yes","payment:debit_cards":"yes","sport":"climbing"}},"12613157972":{"lat":47.4785757,"lon":19.028946,"ts":"2025-02-23T16:25:47Z","tz":1,"tags":{"addr:city":"Budapest","addr:housenumber":"77-79","addr:postcode":"1113","addr:street":"Bocskai út","contact:email":"climberry@climberry.hu","contact:website":"https://climberry.hu","fixme":"position","leisure":"fitness_centre","name":"Climberry","sport":"climbing"}}}