{"35336638":{"lat":49.1718045,"lon":9.2084174,"ts":"2023-10-08T10:32:23Z","tz":1,"tags":{"addr:city":"Heilbronn","addr:country":"DE","addr:housenumber":"17","addr:postcode":"74076","addr:street":"Lichtenbergerstraße","alt_name":"Kletterhalle","building":"industrial","climbing:boulder":"yes","climbing:sport":"yes","climbing:toprope":"yes","email":"info@dav-heilbronn.de","fax":"+49 7131 679966","name":"Kletterarena Heilbronn","phone":"+49 7131 679933","short_name":"Kletterarena","sport":"climbing","url":"www.diekletterarena.de","website":"https://www.dav-heilbronn.de"}},"166852260":{"lat":49.1575958,"lon":9.2788489,"ts":"2025-03-31T15:30:18Z","tz":1,"tags":{"addr:city":"Weinsberg","addr:postcode":"74189","addr:street":"Auf dem Schemelsberg","climbing:routes":"10","contact:email":"info@waldkletterpark-weinsberg.de","contact:facebook":"https://de-de.facebook.com/Waldkletterpark.Weinsberg","contact:instagram":"https://www.instagram.com/waldkletterpark_weinsberg/","contact:phone":"+49 71345370007","contact:website":"https://www.waldkletterpark-weinsberg.de/","currency:EUR":"yes","currency:others":"no","description":"Ein Waldkletterpark mit Parcours in verschiedenen Schwierigkeitsgraden für Kinder, Jugendliche und Erwachsene. Geeignet für Familien, Schulklassen, Vereine und Firmen-Events. Gesichertes Klettern zwischen Bäumen mit abwechslungsreichen Hindernissen.","fee":"yes","landuse":"recreation_ground","mobile":"+4917631373314","name":"Waldkletterpark Weinsberg","natural":"wood","opening_hours:url":"https://www.waldkletterpark-weinsberg.de/%C3%B6ffnungszeiten/","operator":"Natascha Kohlenberger","outdoor":"yes","payment:cash":"yes","payment:credit_cards":"yes","payment:cryptocurrencies":"no","payment:debit_cards":"yes","payment:electronic_purses":"yes","payment:paypal":"yes","source":"https://www.waldkletterpark-weinsberg.de/;survey;local knowledge","sport":"climbing","tourism":"theme_park"}},"713330337":{"lat":49.1713625,"lon":9.2090053,"ts":"2019-08-13T10:47:03Z","tz":1,"tags":{"building":"yes","height":"16","man_made":"tower","name":"DAV Kletterturm","sport":"climbing","tower:type":"climbing"}},"726998325":{"lat":49.171438,"lon":9.2086532,"ts":"2019-09-21T01:04:16Z","tz":1,"tags":{"climbing:boulder":"yes","leisure":"sports_centre","name":"Boulder Wand","sport":"climbing"}},"9498789440":{"lat":49.3219709,"lon":9.3656237,"ts":"2022-02-11T18:17:17Z","tz":1,"tags":{"climbing:boulder":"yes","natural":"stone","sport":"climbing"}}}