{"23058163":{"location":[48.7050838,9.4166866],"ts":"2023-06-08T15:31:49Z","tz":1,"tags":{"leisure":"pitch","lit":"no","name":"Outdoor-Kletteranlage \"Eiger\"","sport":"climbing"}},"26744542":{"location":[48.8135953,9.223541],"ts":"2020-09-11T22:41:11Z","tz":1,"tags":{"climbing:grade:uiaa:max":"7","climbing:grade:uiaa:min":"6","climbing:sport":"yes","contact:website":"http://www.alpenverein-stuttgart.de/index.php?id=293","man_made":"tower","name":"Cannstatter Pfeiler","operator":"Deutscher Alpenverein Sektion Stuttgart e. V.","sport":"climbing","tower:type":"climbing"}},"38691365":{"location":[48.6998664,9.4118639],"ts":"2009-08-07T20:52:23Z","tz":1,"tags":{"leisure":"pitch","name":"Hochseilgarten Wernau","operator":"Landvolkshochschule Wernau-Leutkirch","sport":"climbing","url":"www.hochseilgarten-wernau.de"}},"41455284":{"location":[48.7738703,9.3444102],"ts":"2021-04-04T23:28:53Z","tz":1,"tags":{"access":"permissive","name":"Klettergarten Stetten","natural":"cliff","sport":"climbing"}},"58379516":{"location":[48.7493359,9.1874814],"ts":"2025-05-13T19:51:10Z","tz":1,"tags":{"access":"customers","alt_name":"DAV Kletterzentrum Stuttgart","branch":"Stuttgart","brand":"DAV","charge":"16 €","climbing:boulder":"yes","climbing:speed":"yes","climbing:sport":"yes","climbing:toprope":"yes","contact:email":"info@kletterzentrum-stuttgart.de","contact:fax":"+49 711 3195867","contact:phone":"+49 711 3195866","contact:website":"https://www.kletterzentrum-stuttgart.de/","description":"Kletterhalle mit Außenbereich. Bouldern, Toprope und Vorstieg möglich. Betrieben von den DAV Sektionen Schwaben und Stuttgart.","fee":"yes","indoor":"yes","leisure":"sports_centre","name":"DAV-Kletterzentrum Stuttgart","opening_hours":"Mo-Fr 13:00-23:00; Tu,Th 09:00-23:00; PH,Sa,Su 09:00-22:00","outdoor":"yes","payment:cash":"yes","payment:debit_cards":"yes","service:climbing_belay_device:rental":"yes","service:climbing_harness:rental":"yes","service:climbing_rope:rental":"yes","service:climbing_shoes:rental":"yes","service:climbing_shoes:rental:fee":"yes","sport":"climbing"}},"158228553":{"location":[48.7221428,9.2649029],"ts":"2012-04-06T15:18:35Z","tz":1,"tags":{"leisure":"pitch","sport":"climbing"}},"200608837":{"location":[48.8354288,9.3642622],"ts":"2023-11-15T22:24:53Z","tz":1,"tags":{"addr:city":"Korb","addr:housenumber":"12","addr:postcode":"71404","addr:street":"Maybachstraße","building":"house","leisure":"sports_centre","name":"Active Garden - Kletterhalle","sport":"climbing"}},"289161107":{"location":[48.8123876,9.2362697],"ts":"2021-06-25T16:21:16Z","tz":1,"tags":{"description":"Kletterwand","leisure":"pitch","lit":"no","sport":"climbing"}},"388600782":{"location":[48.8132879,9.1906429],"ts":"2019-03-05T06:32:05Z","tz":1,"tags":{"addr:city":"Stuttgart","addr:country":"DE","addr:housenumber":"4","addr:postcode":"70376","addr:street":"Bergheide","email":"aktivparkBergheide@caritas-stuttgart.de","fax":"+49 711 5537952","landuse":"recreation_ground","leisure":"high_ropes_course","name":"Aktivpark Bergheide","operator":"Caritasverband Stuttgart e.V.","phone":"+49 711 814300","sport":"climbing","website":"https://www.aktivparkbergheide.de/"}},"397375470":{"location":[48.8119413,9.2117509],"ts":"2024-02-02T12:47:04Z","tz":1,"tags":{"leisure":"pitch","lit":"no","sport":"climbing","surface":"gravel"}},"412871459":{"location":[48.7768626,9.1693628],"ts":"2022-08-17T13:11:15Z","tz":1,"tags":{"fee":"yes","leisure":"sports_centre","name":"Cityrock","sport":"climbing","website":"https://www.cityrock.de/","wheelchair":"yes"}},"425391779":{"location":[48.8009092,9.2343752],"ts":"2016-06-16T19:12:21Z","tz":1,"tags":{"leisure":"pitch","sport":"climbing"}},"567451763":{"location":[48.8564306,9.4008188],"ts":"2020-11-14T08:33:27Z","tz":1,"tags":{"climbing:bolted":"yes","climbing:boulder":"yes","climbing:sport":"yes","name":"Klettergarten Haselstein","natural":"cliff","sport":"climbing"}},"762440463":{"location":[48.9017317,9.4753889],"ts":"2022-07-26T21:04:16Z","tz":1,"tags":{"climbing:boulder":"yes","leisure":"sports_centre","name":"Boulderanlage","sport":"climbing"}},"926086514":{"location":[48.8157513,9.1556579],"ts":"2024-11-15T00:16:15Z","tz":1,"tags":{"access":"yes","alt_name":"Kletteranlage","climbing":"area","climbing:boulder":"yes","fee":"no","height":"3","name":"Boulderblock Schelm 48","panoramax:1":"9bccb66b-4716-4191-9a8c-28036eba4897","panoramax:2":"fc2d8446-8f3b-4590-80ce-afb1f9f45507","playground":"climbingwall","sport":"climbing","url":"http://www.dynamoo.de/Bouldern_in_Stuttgart_Apfel_1.html"}},"953032234":{"location":[48.798479,9.1836617],"ts":"2021-06-10T14:16:29Z","tz":1,"tags":{"access":"private","leisure":"pitch","sport":"climbing","surface":"tartan"}},"992324883":{"location":[48.7776259,9.3383987],"ts":"2021-10-12T21:23:41Z","tz":1,"tags":{"leisure":"sports_centre","name":"Boulderanlage im Tal","sport":"climbing"}},"1254157218":{"location":[48.6938744,9.3114431],"ts":"2024-02-23T18:30:10Z","tz":1,"tags":{"building":"yes","leisure":"sports_centre","sport":"climbing"}},"2012774424":{"location":[48.8345647,9.1634091],"ts":"2025-05-10T15:02:03Z","tz":1,"tags":{"access":"customers","charge":"16 €","check_date":"2022-11-11","climbing:autobelay:sport":"yes","climbing:autobelay:toprope":"yes","climbing:boulder":"yes","climbing:speed":"yes","climbing:sport":"yes","climbing:toprope":"yes","email":"info@rockerei-stuttgart.de","fee":"yes","internet_access":"wlan","internet_access:fee":"customers","leisure":"sports_centre","name":"DAV Kletter- und Boulderzentrum Schwaben - Rockerei","opening_hours":"Mo 13:00-23:00; Tu-We 09:00-23:00; Th 13:00-23:00; Fr 09:00-23:00; Sa-Su 09:00-22:00; PH 09:00-22:00","panoramax":"bd0972c5-e646-4cb1-9735-fa793ad53125;2870aed0-33ac-4502-9a4c-e3c0e7fdd1af; 6a991907-c9c8-4b0b-92af-92ca8ade13b1;eecfa40d-9b80-46fe-9494-cabc716f68b5;a8290b6e-1255-41b8-9e75-bb13a01c3a30;13f670dd-95c6-4972-adf1-edacd16d6e7c","panoramax:2":"9e2aa422-d2f5-4e2f-94cb-45ef7cd2653e;9b46def3-c47b-47a7-996b-8f4dd40553b6","panoramax:3":"ef2540a2-c4e8-46cd-aa60-cba133d53990; ea31f240-5976-45cf-8417-90d9404288c5;1b393d6f-9f04-458d-819b-3a825e1bc632; a57c100a-b996-4378-b5ef-d05f917d66c3; 59269c35-383d-4a29-b891-c7267cb7d350; efa8071e-441e-428e-b752-dea75104d3f5","panoramax:4":"36daac6f-ab48-4f1c-8658-10840370fa76; aad6ead3-a69c-4dfe-9c80-9de752520198; d9e0b605-2f8a-4c1a-966d-efdd263cd3c2;c8318eac-80f3-4c30-bfeb-a92e7712a726;18732759-9000-47bf-ae63-4735430b075d;053d1cdd-afe1-4e8f-9229-09733c3d8c89","payment:mastercard":"yes","payment:visa":"yes","phone":"+49 711 69972736","service:climbing_belay_device:rental":"yes","service:climbing_harness:rental":"yes","service:climbing_rope:rental":"yes","service:climbing_shoes:rental":"yes","service:climbing_shoes:rental:fee":"yes","short_name":"Rockerei","shower":"yes","sport":"climbing","website":"https://www.rockerei-stuttgart.de","wikidata":"Q116223466"}},"2245076445":{"location":[48.7738465,9.3443887],"ts":"2021-07-01T11:16:50Z","tz":1,"tags":{"access":"permissive","climbing:bolted":"yes","climbing:boulder":"yes","climbing:grade:uiaa:max":"10","climbing:grade:uiaa:min":"4","climbing:orientation":"N","climbing:quality":"solid","climbing:rock":"sandstone","climbing:sport":"yes","leisure":"sports_centre","name":"Klettergarten Stetten","opening_hours:covid19":"off","sport":"climbing","website":"https://remstal.alpenverein-stuttgart.de/die-remstaeler.html","wikidata":"Q93963889"}},"2313037514":{"location":[48.8302933,9.2017372],"ts":"2023-11-15T22:04:17Z","tz":1,"tags":{"name":"Kletterwand","playground":"climbingwall","sport":"climbing","wheelchair":"yes"}},"5462056443":{"location":[48.8563591,9.4009301],"ts":"2021-02-21T06:13:23Z","tz":1,"tags":{"climbing:bolted":"yes","climbing:boulder":"yes","climbing:rock":"sandstone","climbing:sport":"yes","name":"Klettergarten Haselstein","natural":"cliff","sport":"climbing"}},"7218339549":{"location":[48.8923245,9.2168722],"ts":"2022-08-14T06:38:06Z","tz":1,"tags":{"access":"customers","addr:city":"Ludwigsburg","addr:country":"DE","addr:housenumber":"66","addr:postcode":"71638","addr:street":"Fuchshofstraße","climbing:boulder":"yes","email":"info@griffwerk-klettern.de","fee":"yes","leisure":"sports_centre","name":"Griffwerk Klettern & Bouldern","phone":"+49 7141 6893120","sport":"climbing","website":"https://griffwerk-klettern.de/"}},"8618033917":{"location":[48.9017324,9.4754362],"ts":"2022-12-20T08:31:08Z","tz":1,"tags":{"climbing":"route_bottom","ele":"287.04","sport":"climbing"}},"8664761717":{"location":[48.7772662,9.3388258],"ts":"2021-04-30T11:23:48Z","tz":1,"tags":{"climbing":"route_bottom","ele":"349.03","sport":"climbing"}},"9952059279":{"location":[48.8354234,9.3642564],"ts":"2022-08-14T06:33:50Z","tz":1,"tags":{"access":"customers","climbing:boulder":"yes","fee":"yes","name":"Active Garden Waiblingen","sport":"climbing","url":"https://active-garden.de/boulderhalle-waiblingen"}}}