{"14465757":{"location":[47.2405459,9.4185384],"ts":"2022-08-16T12:40:46Z","tz":1,"tags":{"climbing":"area","name":"Kreuzberg III Kletterrouten","sport":"climbing","type":"site"}},"37675686":{"location":[47.104109,9.4906606],"ts":"2024-05-15T09:34:16Z","tz":1,"tags":{"climbing":"crag","climbing:rock":"limestone","climbing:sport":"yes","name":"Klettergarten Brochne Burg","sport":"climbing","url":"https://www.thecrag.com/99596565","wikidata":"Q125811946"}},"318862297":{"location":[47.1056318,9.2139045],"ts":"2020-07-15T18:01:25Z","tz":1,"tags":{"climbing:boulder":"yes","landuse":"forest","leisure":"pitch","name":"Bouldersektor Steibrächer","sport":"climbing"}},"328547579":{"location":[47.2188199,9.351075],"ts":"2024-08-21T07:19:20Z","tz":1,"tags":{"climbing":"crag","climbing:multipitch":"yes","climbing:sport":"yes","climbing:trad":"yes","name":"Schafbergwand","natural":"bare_rock","sport":"climbing","wikidata":"Q125807714"}},"428413740":{"location":[47.1049031,9.3280926],"ts":"2024-05-06T07:25:59Z","tz":1,"tags":{"climbing":"crag","climbing:rock":"limestone","climbing:sport":"yes","height":"40","name":"Paschga","natural":"cliff","sport":"climbing","url":"https://www.thecrag.com/en/climbing/switzerland/alpen/sarganserland/area/276429975","wikidata":"Q125802887"}},"441675757":{"location":[47.2297766,9.3151377],"ts":"2009-07-14T13:57:55Z","tz":1,"tags":{"leisure":"pitch","name":"Familienroute","sport":"climbing"}},"441675758":{"location":[47.2294557,9.3157066],"ts":"2015-11-06T19:38:12Z","tz":1,"tags":{"leisure":"pitch","name":"Via Gandor","sport":"climbing"}},"495491996":{"location":[47.0636729,9.4311621],"ts":"2023-06-02T06:14:21Z","tz":1,"tags":{"ele":"1413","name":"Ghutlet Gonzen","natural":"peak","source":"https://www.sac-cas.ch/de/huetten-und-touren/sac-tourenportal/3383","sport":"climbing"}},"555394745":{"location":[47.2552344,9.4249728],"ts":"2024-05-23T17:31:48Z","tz":1,"tags":{"blind":"no","climbing":"crag","climbing:sport":"yes","name":"Stiefelwand","playground":"climbingwall","sport":"climbing","wheelchair":"no","wikidata":"Q125840019"}},"582618991":{"location":[47.1055721,9.2139834],"ts":"2020-07-15T18:01:25Z","tz":1,"tags":{"climbing:boulder":"yes","leisure":"pitch","natural":"stone","source":"survey 04.2018","sport":"climbing"}},"771088946":{"location":[47.1019281,9.4856073],"ts":"2024-12-12T19:03:51Z","tz":1,"tags":{"access":"permissive","climbing":"crag","climbing:rock":"limestone","climbing:sport":"yes","name":"Magletsch","natural":"cliff","sport":"climbing","url":"https://www.thecrag.com/en/climbing/switzerland/alpen/sarganserland/area/1398617799","wikidata":"Q125821116"}},"1086610378":{"location":[47.2406362,9.4183018],"ts":"2023-05-08T07:24:35Z","tz":1,"tags":{"climbing":"route","climbing:grade:french:max":"4c","climbing:grade:french:min":"3c","highway":"path","name":"Schmales Südrippli","sac_scale":"difficult_alpine_hiking"}},"1086610380":{"location":[47.2405997,9.418449],"ts":"2023-05-08T07:24:35Z","tz":1,"tags":{"climbing":"route","climbing:grade:french:max":"3c","climbing:grade:french:min":"2b","highway":"path","name":"Breites Südrippli","sac_scale":"difficult_alpine_hiking"}},"1086681044":{"location":[47.2403532,9.4179622],"ts":"2023-05-08T07:24:35Z","tz":1,"tags":{"climbing":"route","climbing:grade:french:max":"3b","climbing:grade:french:min":"2c","highway":"path","sac_scale":"difficult_alpine_hiking"}},"1086681045":{"location":[47.2405286,9.418668],"ts":"2023-05-08T07:24:35Z","tz":1,"tags":{"climbing":"route","climbing:grade:french:max":"5c","climbing:grade:french:min":"3a","highway":"path","name":"Sandürliweg","sac_scale":"difficult_alpine_hiking"}},"1086681046":{"location":[47.2404778,9.4183228],"ts":"2023-05-08T07:24:35Z","tz":1,"tags":{"climbing":"route","climbing:grade:french:max":"5c","climbing:grade:french:min":"4c","highway":"path","name":"Saxer Höhenweg"}},"1086681047":{"location":[47.240518,9.4182494],"ts":"2023-05-08T07:24:35Z","tz":1,"tags":{"climbing":"route","climbing:grade:french:max":"6a","climbing:grade:french:min":"5b","highway":"path","name":"Schwartenpfeiler","sac_scale":"difficult_alpine_hiking"}},"1275488683":{"location":[47.1509738,9.3771593],"ts":"2024-05-06T12:16:06Z","tz":1,"tags":{"climbing":"crag","climbing:bolted":"yes","climbing:orientation":"NNW","climbing:rock":"limestone","climbing:sport":"yes","height":"40","name":"Voralpsee","natural":"cliff","sport":"climbing","url":"https://www.thecrag.com/en/climbing/switzerland/alpen/sarganserland/area/717869337","wikidata":"Q125803150"}},"1278881070":{"location":[47.1020463,9.3546606],"ts":"2024-05-06T08:21:21Z","tz":1,"tags":{"area":"yes","name":"St. Jöri sports climbing","sport":"climbing","website":"https://www.thecrag.com/en/climbing/switzerland/alpen/sarganserland/area/276430443","wikidata":"Q125803608"}},"1280773209":{"location":[47.15374,9.2853109],"ts":"2024-05-08T06:12:39Z","tz":1,"tags":{"climbing":"crag","climbing:rock":"limestone","climbing:sport":"yes","name":"Zuestoll","sport":"climbing","wikidata":"Q125824924"}},"1307834705":{"location":[47.1356261,9.1535634],"ts":"2024-08-14T20:06:40Z","tz":1,"tags":{"climbing":"crag","name":"Unterbetlis","natural":"cliff","sport":"climbing","url":"https://www.thecrag.com/en/climbing/switzerland/alpen/appenzeller-alpen/area/10135229322"}},"1313147274":{"location":[47.1240306,9.1417733],"ts":"2024-09-04T05:29:33Z","tz":1,"tags":{"climbing:orientation":"NE","climbing:rock":"limestone","climbing:sport":"yes","name":"Aquarium","natural":"cliff","outdoor":"yes","sport":"climbing","url":"https://www.thecrag.com/en/climbing/switzerland/alpen/glarner-alpen/area/2763820281"}},"2218409174":{"location":[47.0674914,9.4337448],"ts":"2025-03-26T15:20:44Z","tz":1,"tags":{"ele":"1829","name":"Gonzen","natural":"peak","sport":"climbing","summit:cross":"yes","wikidata":"Q16633","wikipedia":"en:Gonzen"}},"2643613777":{"location":[47.064224,9.4306584],"ts":"2023-06-02T06:12:53Z","tz":1,"tags":{"ele":"1450","name":"Annegrethli","sport":"climbing","summit:cross":"yes"}},"2643616619":{"location":[47.0651703,9.432257],"ts":"2022-07-30T20:35:20Z","tz":1,"tags":{"ele":"1509","name":"Breiter Turm","natural":"peak","sport":"climbing"}},"3821454242":{"location":[47.2287344,9.3145988],"ts":"2020-03-03T07:23:25Z","tz":1,"tags":{"leisure":"pitch","name":"Klettergarten Stoss","sport":"climbing"}},"4404889342":{"location":[47.2316743,9.3177894],"ts":"2016-09-16T21:16:55Z","tz":1,"tags":{"leisure":"pitch","name":"De Chli Bär","sport":"climbing"}},"4451370592":{"location":[47.0490385,9.4486622],"ts":"2023-11-04T03:15:23Z","tz":1,"tags":{"indoor":"yes","leisure":"sports_centre","name":"Sportkletterhalle Sargans","name:de":"Sportkletterhalle Sargans","phone":"+41817230130","sport":"climbing","website":"https://www.sportkletterhalle.ch/"}},"5166612324":{"location":[47.0523248,9.4770178],"ts":"2024-05-06T08:11:20Z","tz":1,"tags":{"climbing:sport":"yes","name":"Klettergarten Balzers","sport":"climbing","url":"https://www.thecrag.com/en/climbing/switzerland/balzers","wikidata":"Q125803187"}},"9947067963":{"location":[47.2181749,9.3484656],"ts":"2022-08-11T09:59:05Z","tz":1,"tags":{"climbing:grade:french:max":"5c","climbing:grade:french:min":"4","climbing:multipitch":"yes","climbing:routes":"1","climbing:trad":"yes","ele":"1600","name":"Wildhauser Schafbergkante","sport":"climbing"}},"9956354999":{"location":[47.2404048,9.4178326],"ts":"2022-08-16T07:28:19Z","tz":1,"tags":{"climbing":"route_bottom"}},"9956947741":{"location":[47.2471837,9.4246443],"ts":"2022-08-16T12:55:19Z","tz":1,"tags":{"sport":"climbing"}},"10778978165":{"location":[47.1723624,9.482648],"ts":"2024-05-08T09:02:59Z","tz":1,"tags":{"leisure":"sports_centre","name":"Sparta Bouldering","opening_hours":"Mo,We 09:30-22:30; Tu,Th,Fr 11:30-22:30; PH,Sa,Su 09:30-18:00","sport":"climbing","website":"https://www.sparta-bouldering.com/","wikidata":"Q125843442"}},"11662315768":{"location":[47.1961329,9.310684],"ts":"2024-05-08T08:14:49Z","tz":1,"tags":{"access":"yes","addr:city":"Unterwasser","addr:housenumber":"14","addr:postcode":"9657","addr:street":"Hauptstrasse","description":"Boulderhalle","email":"info@boulderbox.ch","leisure":"sports_centre","name":"Boulderbox","opening_hours":"Mo-Su 07:00-22:30","operator":"Genossenschaft Tennishalle Unterwasser","operator:type":"cooperative","phone":"+41 71 999 30 30","source":"survey","sport":"climbing","website":"https://www.boulderbox.ch","wheelchair":"no","wikidata":"Q125843250"}},"11883053314":{"location":[47.0659596,9.4656561],"ts":"2024-10-23T16:06:45Z","tz":1,"tags":{"climbing":"area","climbing:grade:french:mean":"5+","climbing:grade:french:min":"4","climbing:length":"20","climbing:length:max":"50","climbing:orientation":"SE","climbing:rock":"limestone","climbing:sport":"50","name":"Schollberg","sport":"climbing","type":"site","url":"https://www.thecrag.com/518526063","wikidata":"Q125802229"}},"11883272923":{"location":[47.0632979,9.4212945],"ts":"2024-12-23T10:04:18Z","tz":1,"tags":{"climbing":"crag","climbing:rock":"limestone","climbing:sport":"yes","name":"Katzenbach unten","sport":"climbing","wikidata":"Q125805798"}}}