{"332691589":{"location":[45.5160207,9.222503],"ts":"2021-08-31T11:01:59Z","tz":1,"tags":{"building":"yes","building:levels":"2","leisure":"sports_hall","sport":"climbing"}},"472055425":{"location":[45.5158834,9.2229748],"ts":"2021-08-31T11:01:59Z","tz":1,"tags":{"building":"yes","building:levels":"2","leisure":"sports_hall","sport":"climbing"}},"774463784":{"location":[45.3756911,9.1731061],"ts":"2016-09-15T20:21:10Z","tz":1,"tags":{"leisure":"sports_centre","name":"La Parete Rossa","sport":"climbing"}},"868590865":{"location":[45.4707587,9.287973],"ts":"2020-11-09T09:28:31Z","tz":1,"tags":{"access":"permissive","leisure":"pitch","sport":"climbing"}},"3333723673":{"location":[45.5439986,9.2416685],"ts":"2024-07-18T01:01:16Z","tz":1,"tags":{"sport":"climbing"}},"3501039779":{"location":[45.3756768,9.1729931],"ts":"2015-05-13T04:23:04Z","tz":1,"tags":{"addr:city":"Pieve Emanuele","addr:housenumber":"103","addr:postcode":"20090","addr:street":"Via Campania","leisure":"sports_centre","name":"Associazione La Parete Rossa","phone":"+39 02 90427359","sport":"climbing"}},"5656358597":{"location":[45.4530351,9.2519801],"ts":"2023-12-27T17:49:12Z","tz":1,"tags":{"addr:city":"Milano","addr:housenumber":"11","addr:postcode":"20138","addr:street":"Via Gaudenzio Fantoli","leisure":"sports_centre","name":"Rockspot","opening_hours":"Mo-Tu 10:00-24:00; We 08:00-24:00; Th-Fr 10:00-24:00; Sa-Su 10:00-20:00","phone":"+39 02 92801976","sport":"climbing","website":"http://www.rockspot.it/home/"}},"5961900633":{"location":[45.5160489,9.2228263],"ts":"2024-02-25T09:48:56Z","tz":1,"tags":{"addr:housenumber":"25","addr:street":"Via Giovanni Livraghi","leisure":"sports_centre","name":"Manga Climbing","opening_hours":"Mo-Fr 10:00-23:00, 09:00-18:00; Sa, Su 10:00-19:30","phone":"+390227080665","sport":"climbing","website":"https://www.mangaclimbing.it/"}},"6535433047":{"location":[45.3604216,9.2177739],"ts":"2023-09-13T15:35:39Z","tz":1,"tags":{"name":"Salewa","opening_hours":"Mo-Su 10:00-21:00","shop":"sports","sport":"climbing","wheelchair":"yes"}},"7563078399":{"location":[45.5446039,9.2609053],"ts":"2020-05-27T14:23:22Z","tz":1,"tags":{"leisure":"sports_centre","sport":"climbing"}},"12319659300":{"location":[45.5670772,9.3375841],"ts":"2024-11-06T23:14:07Z","tz":1,"tags":{"addr:city":"Agrate Brianza","addr:housenumber":"27","addr:postcode":"20864","addr:street":"Via Archimede","contact:facebook":"https://www.facebook.com/BoulderCoClimbingGym/","contact:instagram":"https://www.instagram.com/bouldereco__official/","email":"info@bouldereco.com","fee":"yes","leisure":"sports_centre","name":"Boulder & Co.","phone":"+390398963046","sport":"climbing","website":"https://www.bouldereco.com/"}}}