{"866074083":{"location":[38.4382767,27.1465512],"ts":"2023-11-25T12:13:23Z","tz":2,"tags":{"building":"yes","name":"İDADİK İzmir Dağcılık ve Doğa Sporları İhtisas Kulübü","sport":"climbing"}},"12542547881":{"location":[38.3639038,27.2968377],"ts":"2025-01-29T20:00:47Z","tz":2,"tags":{"name":"Magara-TATU","name:tr":"Mağara-TATU","natural":"cliff","sport":"climbing"}},"12542547882":{"location":[38.3636039,27.2964676],"ts":"2025-01-29T20:00:47Z","tz":2,"tags":{"name":"Agil","name:tr":"Ağıl","natural":"cliff","sport":"climbing"}},"12542547891":{"location":[38.3637096,27.2961233],"ts":"2025-01-29T20:00:47Z","tz":2,"tags":{"name":"Onyuz-Yilan","name:tr":"Önyüz-Yılan","natural":"cliff","sport":"climbing"}},"12542547892":{"location":[38.3638556,27.2956285],"ts":"2025-01-29T20:00:47Z","tz":2,"tags":{"name":"Onyuz-Tetris","name:tr":"Önyüz-Tetris","natural":"cliff","sport":"climbing"}},"12542547899":{"location":[38.3643409,27.2970999],"ts":"2025-01-29T20:00:47Z","tz":2,"tags":{"name":"Sir Kapisi","name:tr":"Sır Kapısı","natural":"cliff","sport":"climbing"}},"12542547900":{"location":[38.3638716,27.2970751],"ts":"2025-01-29T20:00:47Z","tz":2,"tags":{"name":"Vadi-Othello","natural":"cliff","sport":"climbing"}},"12542547901":{"location":[38.3639745,27.2967906],"ts":"2025-01-29T20:00:47Z","tz":2,"tags":{"name":"Magara-Odin","name:tr":"Mağara-Odin","natural":"cliff","sport":"climbing"}},"12542547902":{"location":[38.3640027,27.2965775],"ts":"2025-01-29T20:00:47Z","tz":2,"tags":{"name":"Magara-Deli Kasap","name:tr":"Mağara-Deli Kasap","natural":"cliff","sport":"climbing"}},"12542547903":{"location":[38.3639389,27.2963613],"ts":"2025-01-29T20:00:47Z","tz":2,"tags":{"name":"Magara-Krokodil","name:tr":"Mağara-Krokodil","natural":"cliff","sport":"climbing"}},"12542547904":{"location":[38.3640845,27.2951218],"ts":"2025-01-29T20:00:47Z","tz":2,"tags":{"name":"Onyuz-Kaptan Hook","name:tr":"Önyüz-Kaptan Hook","natural":"cliff","sport":"climbing"}},"12542547905":{"location":[38.3642482,27.294902],"ts":"2025-01-29T20:00:47Z","tz":2,"tags":{"name":"Onyuz-Hudaverdi","name:tr":"Önyüz-Hüdaverdi","natural":"cliff","sport":"climbing"}},"12542547906":{"location":[38.3643879,27.294713],"ts":"2025-01-29T20:00:47Z","tz":2,"tags":{"name":"Onyuz-Afro","name:tr":"Önyüz-Afro","natural":"cliff","sport":"climbing"}},"12542547907":{"location":[38.3648032,27.2946339],"ts":"2025-01-29T20:00:47Z","tz":2,"tags":{"name":"Onyuz-Mummy","name:tr":"Önyüz-Mummy","natural":"cliff","sport":"climbing"}}}