{"456936689":{"lat":25.9257167,"lon":56.0903388,"ts":"2024-04-11T14:51:47Z","tz":4,"tags":{"climbing":"crag","climbing:rock":"limestone","image":"https://commons.wikimedia.org/wiki/File:Wadi_Rahabah_-_Wadi_Rahba_-_2_-_Stardust_Climbing_Crag.jpg","name":"Stardust Climbing Crag","name:en":"Stardust Climbing Crag","name:es":"Stardust Climbing Crag","name:fr":"Stardust Climbing Crag","natural":"cliff","sport":"climbing","url":"https://theuaeboltfund.com/topos/"}},"4531632551":{"lat":25.9257038,"lon":56.0899796,"ts":"2018-02-22T04:31:38Z","tz":4,"tags":{"name":"Stardust","name:en":"Stardust","sport":"climbing","url":"https://theuaeboltfund.com/topos/"}},"4531719092":{"lat":25.8953967,"lon":56.1110065,"ts":"2018-02-22T04:31:38Z","tz":4,"tags":{"climbing":"crag","climbing:rock":"limestone","name":"Waterfall Crag","name:en":"Waterfall Crag","natural":"cliff","sport":"climbing"}},"4531719093":{"lat":25.8115596,"lon":56.0419882,"ts":"2018-02-21T07:28:27Z","tz":4,"tags":{"climbing":"crag","climbing:rock":"limestone","name":"DiskWorld","name:en":"DiskWorld","natural":"cliff","sport":"climbing"}},"4531719096":{"lat":25.89159,"lon":56.1008597,"ts":"2018-02-22T04:31:39Z","tz":4,"tags":{"climbing":"crag","climbing:rock":"limestone","name":"Cleavage","name:en":"Cleavage","natural":"cliff","sport":"climbing"}}}