{"316164654":{"lat":54.3645507,"lon":9.9122229,"ts":"2017-09-25T01:50:25Z","tz":1,"tags":{"alt_name":"Teufelsstein","climbing:boulder":"yes","name":"Düvelstein","natural":"stone","sport":"climbing","tourism":"attraction","wikidata":"Q1272453","wikipedia":"de:Düvelstein (Großkönigsförde)"}},"438376797":{"lat":54.3154061,"lon":10.112097,"ts":"2019-11-04T12:55:17Z","tz":1,"tags":{"addr:city":"Kiel","addr:housenumber":"10","addr:postcode":"24114","addr:street":"Calvinstraße","climbing:boulder":"yes","leisure":"pitch","name":"Kieler Kletter Keller","sport":"climbing","website":"https://kielerkletterkeller.de/"}},"536026573":{"lat":54.3439369,"lon":10.1126814,"ts":"2017-10-27T10:00:27Z","tz":1,"tags":{"fixme":"Exakte Lage und Größe ermitteln","indoor":"yes","leisure":"pitch","level":"0","name":"Kletteranlage","sport":"climbing"}},"677256821":{"lat":54.3314765,"lon":10.193872,"ts":"2023-10-03T09:59:53Z","tz":1,"tags":{"description":"Neuer Kletterturm und Boulderpilz in Kiel für und vom DAV","leisure":"sports_centre","name":"Kletterturm und Boulderpilz","operator":"Deutscher Alpenverein Sektion Kiel e.V.","operator:type":"association","sport":"climbing","website":"https://www.dav-kiel.de/der-neue-kletterturm/"}},"711140909":{"lat":54.309202,"lon":10.0314511,"ts":"2023-09-10T13:33:57Z","tz":1,"tags":{"addr:city":"Melsdorf","addr:housenumber":"7","addr:postcode":"24109","addr:street":"Otto-Flath-Straße","building":"yes","contact:email":"info@kletterbar-kiel.de","contact:phone":"+49 4340 4989696","contact:website":"https://kletterbar-kiel.de","description":"Kletterhalle","leisure":"sports_centre","name":"KletterBar Kiel","opening_hours":"Mo-Fr 10:00-23:00; Sa,Su,PH 09:00-22:00","sport":"climbing","wikidata":"Q114133349"}},"743193876":{"lat":54.3385628,"lon":10.1187156,"ts":"2025-02-22T22:40:00Z","tz":1,"tags":{"addr:city":"Kiel","addr:housenumber":"40","addr:postcode":"24118","addr:street":"Grasweg","brand":"urban apes","check_date":"2025-02-22","climbing:boulder":"yes","contact:email":"kiel@urbanapes.de","contact:website":"https://www.urbanapes.de/kiel","internet_access":"no","leisure":"sports_centre","level":"0","lit":"yes","name":"Urban Apes","old_name":"Nordbloc","opening_hours":"Mo-Fr 09:00-23:00; Sa-Su,PH 11:00-22:00","payment:cash":"no","payment:credit_cards":"yes","payment:debit_cards":"yes","phone":"+49 431 70579270","sport":"climbing","wheelchair":"yes","wikidata":"Q114065486"}},"1212710146":{"lat":54.3315331,"lon":10.1937546,"ts":"2023-10-03T10:04:27Z","tz":1,"tags":{"building":"yes","leisure":"sports_centre","sport":"climbing"}},"1212710147":{"lat":54.331366,"lon":10.1938743,"ts":"2023-10-03T10:04:27Z","tz":1,"tags":{"building":"yes","leisure":"sports_centre","sport":"climbing"}}}