{"32541122":{"location":[53.597216,9.9531862],"ts":"2025-04-12T16:33:33Z","tz":1,"tags":{"leisure":"sports_centre","name":"DAV Kletterzentrum","sport":"climbing"}},"43068332":{"location":[53.6386542,10.1603626],"ts":"2019-03-31T14:50:57Z","tz":1,"tags":{"access":"customers","fee":"yes","leisure":"climbing","name":"Kletterwald Hamburg","outdoor":"yes","sport":"climbing","website":"https://www.kletterwald-hamburg.com/"}},"83469083":{"location":[53.5971843,9.952804],"ts":"2020-04-16T12:45:16Z","tz":1,"tags":{"building":"sports_centre","leisure":"sports_centre","name":"DAV Kletterzentrum","sport":"climbing"}},"83469085":{"location":[53.5975505,9.9533547],"ts":"2025-04-12T15:34:58Z","tz":1,"tags":{"addr:city":"Hamburg","addr:country":"DE","addr:housenumber":"4","addr:postcode":"22529","addr:street":"Döhrnstraße","alt_name":"DAV Kletterzentrum","building":"yes","check_date":"2023-01-22","climbing:boulder":"no","climbing:speed":"yes","climbing:sport":"yes","climbing:toprope":"yes","climbing:trad":"no","contact:facebook":"DAVHamburgundNiederelbe","contact:instagram":"dav_hamburg","fee":"yes","leisure":"sports_centre","name":"Deutscher Alpenverein, Sektion Hamburg und Niederelbe","opening_hours":"Mo-Fr 10:00-22:00; Sa-Su,PH 09:00-22:00","payment:cash":"yes","payment:debit_cards":"yes","service:climbing_belay_device:rental":"yes","service:climbing_rope:rental":"yes","service:climbing_shoes:rental":"yes","sport":"climbing","website":"https://www.dav-hamburg.de/kletterzentrum/","wheelchair":"limited"}},"83469086":{"location":[53.5974269,9.9530924],"ts":"2023-07-09T09:54:39Z","tz":1,"tags":{"building":"yes","fee":"yes","leisure":"sports_centre","name":"Kletterturm 1","sport":"climbing"}},"145812027":{"location":[53.6622613,9.9799673],"ts":"2022-10-03T08:38:30Z","tz":1,"tags":{"addr:city":"Norderstedt","addr:housenumber":"14","addr:postcode":"22848","addr:street":"Gutenbergring","building":"industrial","climbing:boulder":"yes","climbing:sport":"yes","climbing:toprope":"no","description":"Schloss für den Spind selber mitbringen +49 152 57122769","email":"norderstedt@urbanapes.de","leisure":"sports_centre","name":"Urban Apes Boulderwerk Norderstedt","opening_hours":"Mo-Th 15:00-23:00; PH,Fr-Su 10:00-22:00; Dec 24-26,Jan 1 off","payment:cash":"no","payment:girocard":"yes","payment:maestro":"yes","payment:mastercard":"yes","payment:v_pay":"yes","payment:visa":"yes","phone":"+49 40 320 405 82","source":"website","sport":"climbing","start_date":"2019-06","website":"https://www.urbanapes.de/norderstedt/","wheelchair":"yes"}},"293522866":{"location":[53.5618309,9.9600986],"ts":"2024-10-20T15:30:07Z","tz":1,"tags":{"access":"members","club":"sport","email":"info@kilimanschanzo.de","name":"Kilimanschanzo","phone":"+49 40 25 485 429","sport":"climbing","website":"https://www.kilimanschanzo.de/"}},"407803674":{"location":[53.5446182,9.8956554],"ts":"2025-01-27T08:51:46Z","tz":1,"tags":{"addr:city":"Hamburg","addr:country":"DE","addr:postcode":"22605","addr:street":"Hans-Leip-Ufer","circumference":"19.7 m","climbing:boulder":"yes","climbing:rock":"granite","description:de":"Großer, in der Elster-Eiszeit vor ca. 320 000 Jahren durch Gletscher hergebrachter schwedischer Granitstein","description:en":"large ice-age granitic foundling (217t)","geological":"glacial_erratic","height":"4.7 m","image":"http://commons.wikimedia.org/wiki/File:Findling.Alter_Schwede.wmt.jpg","name":"Alter Schwede","natural":"stone","seamark:landmark:category":"boulder","seamark:type":"landmark","sport":"climbing","tourism":"attraction","wheelchair":"yes","wikidata":"Q14552143","wikipedia":"de:Alter Schwede (Hamburg)"}},"1029686198":{"location":[53.6214518,9.9007449],"ts":"2024-10-14T02:02:23Z","tz":1,"tags":{"access":"yes","leisure":"pitch","sport":"climbing"}},"1103303546":{"location":[53.5773556,10.080113],"ts":"2024-03-23T08:58:43Z","tz":1,"tags":{"addr:city":"Hamburg","addr:country":"DE","addr:housenumber":"87-89","addr:postcode":"22041","addr:street":"Wandsbeker Zollstraße","climbing:boulder":"yes","climbing:toprope":"no","contact:email":"hamburg@urbanapes.de","contact:phone":"+49 40 60953050","contact:website":"https://www.urbanapes.de/hamburg","internet_access":"wlan","internet_access:fee":"no","internet_access:password":"bowling0815","internet_access:ssid":"Boulderquartier Gäste 5g","leisure":"sports_centre","level":"0;1","name":"urban apes Boulderquartier Hamburg","opening_hours":"Mo-Th 11:00-23:00; Fr-Su 10:00-22:00","operator":"urban apes Boulderquartier Hamburg GmbH","sport":"climbing","website":"https://www.urbanapes.de/hamburg-ost/","wheelchair":"no"}},"1423904063":{"location":[53.5683257,9.956588],"ts":"2024-09-04T07:22:59Z","tz":1,"tags":{"addr:housenumber":"4","addr:postcode":"20259","addr:street":"Eppendorfer Weg","alt_name":"das Weltbouldercafé","climbing:boulder":"yes","int_name":"Salon du Bloc","leisure":"sports_centre","name":"Salon du Bloc","opening_hours":"Mo-Th 15:00-24:00; Fr 15:00-22:00; Sa 16:00-22:00; Su 12:00-22:00","sport":"climbing","website":"https://salondubloc.de/","wheelchair":"limited"}},"2891810228":{"location":[53.5569692,9.9489557],"ts":"2020-07-21T22:29:16Z","tz":1,"tags":{"name":"Kletteraugust","sport":"climbing","website":"https://haus-drei.de/projekte-2/kletteraugust/"}},"2989461018":{"location":[53.5631115,9.9130305],"ts":"2025-02-12T07:37:22Z","tz":1,"tags":{"addr:city":"Hamburg","addr:country":"DE","addr:housenumber":"18","addr:postcode":"22761","addr:street":"Gasstraße","climbing:boulder":"yes","climbing:toprope":"no","contact:facebook":"flashhde","contact:instagram":"flashh_boulderspot","email":"moin@flashh.de","leisure":"sports_centre","name":"FLASHH","opening_hours":"Mo-Fr 10:00-23:00; Sa-Su 09:00-22:00","phone":"+494038041270","sport":"climbing","website":"https://www.flashh.de","wheelchair":"yes"}},"9219948593":{"location":[53.5992593,9.9163979],"ts":"2023-06-29T18:26:27Z","tz":1,"tags":{"addr:city":"Hamburg","addr:country":"DE","addr:housenumber":"565","addr:postcode":"22525","addr:street":"Kieler Straße","check_date":"2023-01-22","climbing:boulder":"yes","climbing:toprope":"no","contact:email":"hamburgwest@urbanapes.de","contact:facebook":"urbanapes.hh.west","contact:instagram":"urbanapes.hh.west","contact:phone":"+49 40 609 530 50","contact:website":"https://www.urbanapes.de/hamburg-west/","fee":"yes","leisure":"sports_centre","level":"1","name":"urban apes Hamburg West","opening_hours":"Mo-Th 11:00-23:00; Fr-Su 10:00-22:00","operator":"urban apes Hamburg West GmbH","payment:cash":"no","sport":"climbing","wheelchair":"no"}},"9449787924":{"location":[53.5563008,9.9698943],"ts":"2025-02-16T13:37:11Z","tz":1,"tags":{"check_date":"2025-01-13","climbing:boulder":"yes","climbing:toprope":"no","contact:email":"hamburgmitte@urbanapes.de","contact:mobile":"+49 1520 284 19 08","contact:website":"https://www.urbanapes.de/hamburg-stpauli","dog":"no","fee":"yes","leisure":"sports_centre","name":"urban apes Hamburg St.Pauli","opening_hours":"Mo 10:00-23:00; Th-Tu 08:00-23:00; Fr-Su,PH 10:00-22:00","operator":"urban apes Hamburg Mitte GmbH","payment:cash":"no","payment:girocard":"yes","payment:maestro":"yes","payment:mastercard":"yes","payment:visa":"yes","payment:visa_debit":"yes","phone":"+49 1520 2841908","sport":"climbing","website":"https://www.urbanapes.de/hamburg-stpauli/","wheelchair":"no"}},"12398821312":{"location":[53.5540145,10.0208859],"ts":"2025-02-09T11:38:51Z","tz":1,"tags":{"addr:city":"Hamburg","addr:housenumber":"17","addr:postcode":"20097","addr:street":"Beim Strohhause","climbing:boulder":"yes","email":"kontakt@boulderwelt-hamburg.de","fee":"yes","leisure":"sports_centre","name":"Boulderwelt Hamburg","opening_date":"2025-01-10","opening_hours":"Mo-Fr 07:00-23:00; Sa,Su,PH 08:00-23:00","sport":"climbing","website":"https://www.boulderwelt-hamburg.de/","wheelchair":"yes"}}}