{"18546985":{"location":[51.5574096,10.0704643],"ts":"2025-01-13T16:51:12Z","tz":1,"tags":{"climbing":"area","name":"Ebergötzener Gebiet","sport":"climbing","type":"site"}},"104232913":{"location":[51.6002304,9.951491],"ts":"2019-10-06T09:16:51Z","tz":1,"tags":{"landuse":"quarry","sport":"climbing"}},"260465566":{"location":[51.4571289,10.0316575],"ts":"2023-04-11T16:21:39Z","tz":1,"tags":{"fee":"no","name":"Schaukelwand","natural":"cliff","outdoor":"yes","sport":"climbing"}},"260794760":{"location":[51.4628564,10.0249499],"ts":"2023-04-11T16:18:46Z","tz":1,"tags":{"climbing:orientation":"S","climbing:sport":"5","fee":"no","name":"Schlageterstein","natural":"cliff","outdoor":"yes","sport":"climbing"}},"441675277":{"location":[51.518792,9.9301614],"ts":"2022-04-22T15:40:33Z","tz":1,"tags":{"access":"private","height":"3 m","leisure":"playground","name":"Kletterfelsen","natural":"rock","sport":"climbing"}},"746650595":{"location":[51.4551721,10.0302868],"ts":"2022-05-23T13:21:36Z","tz":1,"tags":{"climbing:boulder":"yes","climbing:trad":"yes","name":"Appenroder Wand","sport":"climbing"}},"777526323":{"location":[51.5557455,10.0719542],"ts":"2025-01-13T16:51:12Z","tz":1,"tags":{"climbing":"crag","height":"6","name":"Bergfreundeturm","natural":"cliff","sport":"climbing"}},"1064917619":{"location":[51.5589288,10.0728129],"ts":"2025-01-13T16:51:12Z","tz":1,"tags":{"climbing":"crag","name":"Steinbruch Mühlenwald","natural":"cliff","sport":"climbing"}},"1064917620":{"location":[51.5590724,10.0731384],"ts":"2025-01-13T16:51:12Z","tz":1,"tags":{"climbing":"crag","name":"Steinbruchwächter","natural":"cliff","sport":"climbing"}},"2424054100":{"location":[51.465553,10.0095645],"ts":"2022-05-23T13:21:36Z","tz":1,"tags":{"climbing:boulder":"no","climbing:rock":"sandstone","climbing:trad":"no","contact:website":"http://felsinfo.alpenverein.de/felsinfo/goettinger_wald/reinhaeuser_wald/2979","name":"Knubbelwand","natural":"rock","sport":"climbing"}},"2472257309":{"location":[51.5502305,9.952578],"ts":"2023-09-11T20:54:39Z","tz":1,"tags":{"addr:city":"Göttingen","addr:country":"DE","addr:housenumber":"2","addr:postcode":"37075","addr:street":"Sprangerweg","contact:phone":"+49 551 3910337","contact:website":"https://my.sport.uni-goettingen.de/roxx/","leisure":"sports_hall","name":"RoXx-Kletterzentrum","opening_hours":"Mo-Fr 10:00-23:00; Sa,Su 10:00-21:30","operator":"RoxX Kletterhalle","sport":"climbing","wheelchair":"yes","wikidata":"Q114053768"}},"6420446437":{"location":[51.5470273,9.907777],"ts":"2024-04-27T17:05:52Z","tz":1,"tags":{"addr:city":"Göttingen","addr:housenumber":"13","addr:postcode":"37079","addr:street":"Levinstraße","contact:phone":"+49 551 82091060","contact:website":"https://boulderningoettingen.de/","email":"kontakt@boulderningoettingen.de","leisure":"sports_hall","name":"BiG Bouldern in Göttingen","opening_hours":"Mo - Fr 10:00 - 22:00 Uhr; Sa, So, Feiertage 10:00 - 21:00 Uhr","phone":"+49 551 82091060","sport":"climbing","survey:date":"2019-04-20","website":"https://boulderningoettingen.de/infos/","wikidata":"Q114138853"}},"6654679118":{"location":[51.4541186,10.0313234],"ts":"2022-05-23T13:21:36Z","tz":1,"tags":{"climbing:boulder":"yes","climbing:trad":"yes","contact:website":"http://felsinfo.alpenverein.de/felsinfo/goettinger_wald/reinhaeuser_wald/3045","name":"Rote Wand","sport":"climbing"}},"7256045345":{"location":[51.5586201,10.0674962],"ts":"2025-01-13T16:51:12Z","tz":1,"tags":{"climbing":"crag","name":"Lochturm","natural":"cliff","sport":"climbing"}},"7312260708":{"location":[51.4656244,10.0089666],"ts":"2022-05-23T13:21:36Z","tz":1,"tags":{"climbing:boulder":"no","climbing:rock":"sandstone","climbing:trad":"no","contact:website":"http://felsinfo.alpenverein.de/felsinfo/goettinger_wald/reinhaeuser_wald/2978","name":"Wampe","natural":"rock","sport":"climbing"}},"7312262225":{"location":[51.4650367,10.0137783],"ts":"2022-05-23T13:21:36Z","tz":1,"tags":{"climbing:boulder":"yes","climbing:rock":"sandstone","climbing:trad":"yes","contact:website":"http://felsinfo.alpenverein.de/felsinfo/goettinger_wald/reinhaeuser_wald/3041","name":"Hauwand","natural":"rock","sport":"climbing"}},"9764421648":{"location":[51.4529105,10.0279078],"ts":"2022-05-23T13:21:36Z","tz":1,"tags":{"climbing:boulder":"yes","climbing:rock":"sandstone","climbing:trad":"yes","contact:website":"http://felsinfo.alpenverein.de/felsinfo/goettinger_wald/reinhaeuser_wald/2983","name":"Wegelagerer","natural":"rock","sport":"climbing"}},"9764421649":{"location":[51.4562866,10.0137243],"ts":"2022-05-23T13:21:36Z","tz":1,"tags":{"climbing:boulder":"yes","climbing:rock":"sandstone","climbing:trad":"yes","contact:website":"http://felsinfo.alpenverein.de/felsinfo/goettinger_wald/reinhaeuser_wald/2973","name":"5. Zwerg","natural":"rock","sport":"climbing"}},"9764421650":{"location":[51.4562482,10.0136465],"ts":"2022-05-23T13:21:36Z","tz":1,"tags":{"climbing:boulder":"yes","climbing:rock":"sandstone","climbing:trad":"yes","contact:website":"http://felsinfo.alpenverein.de/felsinfo/goettinger_wald/reinhaeuser_wald/2972","name":"4. Zwerg","natural":"rock","sport":"climbing"}},"9764421651":{"location":[51.456158,10.0134426],"ts":"2022-05-23T13:21:36Z","tz":1,"tags":{"climbing:boulder":"yes","climbing:rock":"sandstone","climbing:trad":"yes","contact:website":"http://felsinfo.alpenverein.de/felsinfo/goettinger_wald/reinhaeuser_wald/4819","name":"3. Zwerg","natural":"rock","sport":"climbing"}},"9764421652":{"location":[51.4561145,10.0133702],"ts":"2022-05-23T13:21:36Z","tz":1,"tags":{"climbing:boulder":"yes","climbing:rock":"sandstone","climbing:trad":"yes","contact:website":"http://felsinfo.alpenverein.de/felsinfo/goettinger_wald/reinhaeuser_wald/4818","name":"2. Zwerg","natural":"rock","sport":"climbing"}},"9764421653":{"location":[51.4559875,10.0132173],"ts":"2022-05-23T13:21:36Z","tz":1,"tags":{"climbing:boulder":"yes","climbing:rock":"sandstone","climbing:trad":"yes","contact:website":"http://felsinfo.alpenverein.de/felsinfo/goettinger_wald/reinhaeuser_wald/2971","name":"1. Zwerg","natural":"rock","sport":"climbing"}},"9764421658":{"location":[51.4628795,10.0181258],"ts":"2022-05-23T13:21:36Z","tz":1,"tags":{"climbing:boulder":"yes","climbing:trad":"yes","contact:website":"http://felsinfo.alpenverein.de/felsinfo/goettinger_wald/reinhaeuser_wald/3042","name":"Faulenseewand","natural":"rock","sport":"climbing"}},"9764421659":{"location":[51.471072,10.0178897],"ts":"2022-05-23T13:21:36Z","tz":1,"tags":{"climbing:boulder":"yes","climbing:trad":"no","name":"Bettenroder Klippen","natural":"rock","source":"node 8806616905","sport":"climbing"}},"9764421660":{"location":[51.470392,10.0034782],"ts":"2022-05-23T13:21:36Z","tz":1,"tags":{"climbing:boulder":"no","climbing:trad":"no","contact:website":"http://felsinfo.alpenverein.de/felsinfo/goettinger_wald/reinhaeuser_wald/4916","name":"Bärentalwand","natural":"rock","sport":"climbing"}},"11676848792":{"location":[51.5502872,9.9534322],"ts":"2024-02-29T14:36:29Z","tz":1,"tags":{"leisure":"pitch","name":"Freiluft-Boulderwand","sport":"climbing"}}}