{"82513380":{"location":[48.8402308,10.082775],"ts":"2022-09-08T10:29:01Z","tz":1,"tags":{"addr:city":"Aalen","addr:country":"DE","addr:housenumber":"17","addr:postcode":"73430","addr:street":"Parkstraße","building":"yes","climbing:boulder":"yes","climbing:length:max":"16","climbing:rock":"yes","email":"halle@alpenverein-aalen.de","leisure":"sports_centre","name":"Reiner-Schwebel-Kletterhalle","opening_hours":"Mo off; Tu-Fr 16:30-22:30; Apr-Sep: Sa,Su, PH 14:00-20:00; Oct-Mar: Sa 13:00-21:00; Oct-Mar: Su, PH 10:00-21:00","phone":"+49 7361 8908374","sport":"climbing","website":"https://kletterhalle-aalen.de"}},"261402363":{"location":[48.8238151,10.0267185],"ts":"2025-01-18T11:13:32Z","tz":1,"tags":{"addr:city":"Essingen","addr:housenumber":"3","addr:postcode":"73457","addr:street":"Schnaitbergstraße","building":"industrial","climbing":"boulder","climbing:boulder":"yes","fee":"yes","leisure":"sports_centre","name":"DAV Boulderzentrum Ostalb","opening_hours":"Mo-Fr 14:00-23:00; Sa-Su 09:00-22:00; PH open \"like Sunday\"","operator":"Alpenverein Schwaben","payment:apple_pay":"yes","payment:cash":"no","payment:contactless":"yes","payment:credit_cards":"yes","payment:debit_cards":"yes","payment:girocard":"yes","payment:google_pay":"yes","sport":"climbing","start_date":"2024-12-21","website":"https://www.alpenverein-schwaben.de/boulderzentrum-ostalb"}},"1287699784":{"location":[48.7097828,9.8897432],"ts":"2022-06-09T11:19:09Z","tz":1,"tags":{"climbing:bolted":"yes","climbing:length":"20","climbing:multipitch":"no","climbing:sport":"yes","name":"Beutelfels","natural":"rock","note":"flexible Sperrzeiten beachten","sport":"climbing","website":"http://felsinfo.alpenverein.de/felsinfo/schwaebische_alb/klettergebiet_auswaehlen/1431","wikidata":"Q58017480"}},"1670552153":{"location":[48.7887946,9.9443132],"ts":"2021-05-16T20:43:54Z","tz":1,"tags":{"name":"Rosenstein Westfelsen","natural":"yes","sport":"climbing"}},"3186221672":{"location":[48.7888823,9.9480791],"ts":"2020-04-30T07:01:50Z","tz":1,"tags":{"name":"Rosenstein Sophienfels (Mittelfels)","natural":"yes","sport":"climbing"}},"5236909602":{"location":[48.7345919,10.1163797],"ts":"2022-05-29T17:39:56Z","tz":1,"tags":{"climbing:bolted":"yes","climbing:rock":"limestone","climbing:sport":"yes","name":"Großer Herwartstein","natural":"rock","sport":"climbing"}},"7449583963":{"location":[48.7353197,10.1149496],"ts":"2022-05-29T17:39:56Z","tz":1,"tags":{"climbing:bolted":"yes","climbing:rock":"limestone","climbing:sport":"yes","name":"Kleiner Herwartstein","natural":"rock","sport":"climbing"}},"7453859747":{"location":[48.797411,10.1074583],"ts":"2025-03-30T16:12:49Z","tz":1,"tags":{"alt_name":"Loachfelsen","climbing:bolted":"yes","climbing:rock":"limestone","climbing:routes":"16","climbing:sport":"yes","name":"Lohstein","natural":"rock","sport":"climbing"}},"7465897125":{"location":[48.7954355,9.9672097],"ts":"2020-04-30T07:01:50Z","tz":1,"tags":{"name":"Rosenstein Ostfels","natural":"yes","sport":"climbing"}},"8653265589":{"location":[48.8016659,10.1049442],"ts":"2022-05-29T17:36:08Z","tz":1,"tags":{"climbing:bolted":"yes","climbing:rock":"limestone","climbing:routes":"8","climbing:sport":"yes","name":"Langertstein","natural":"rock","sport":"climbing"}}}