{"475418433":{"lat":34.2697738,"lon":-118.6056106,"ts":"2022-03-15T05:24:18Z","tz":-8,"tags":{"climbing":"boulder","climbing:rock":"sandstone","name":"Boulder 1","natural":"bare_rock"}},"475418436":{"lat":34.2695773,"lon":-118.605531,"ts":"2022-03-15T05:24:18Z","tz":-8,"tags":{"climbing":"boulder","climbing:rock":"sandstone","name":"Slant Rock","natural":"bare_rock"}},"475418440":{"lat":34.2696776,"lon":-118.6050468,"ts":"2017-02-18T04:29:27Z","tz":-8,"tags":{"climbing":"boulder","climbing:rock":"sandstone","name":"Bone Chipper","natural":"bare_rock"}},"475418444":{"lat":34.2695135,"lon":-118.6044611,"ts":"2017-02-18T04:29:27Z","tz":-8,"tags":{"climbing":"boulder","climbing:rock":"sandstone","name":"Amphitheater","natural":"bare_rock"}},"475418447":{"lat":34.2691625,"lon":-118.6037443,"ts":"2017-02-18T04:29:27Z","tz":-8,"tags":{"climbing":"boulder","climbing:rock":"sandstone","name":"Turlock","natural":"bare_rock"}},"475418448":{"lat":34.2692539,"lon":-118.6036635,"ts":"2017-02-18T04:29:27Z","tz":-8,"tags":{"climbing":"boulder","climbing:rock":"sandstone","name":"B1 Boulder","natural":"bare_rock"}},"475418449":{"lat":34.2704288,"lon":-118.6030712,"ts":"2017-02-18T04:29:27Z","tz":-8,"tags":{"climbing":"boulder","climbing:rock":"sandstone","name":"Slap Rock","natural":"bare_rock"}},"475418458":{"lat":34.2702665,"lon":-118.6030456,"ts":"2017-02-18T04:29:28Z","tz":-8,"tags":{"climbing":"boulder","climbing:rock":"sandstone","name":"Spiral Rock","natural":"bare_rock"}},"475418459":{"lat":34.2705275,"lon":-118.602842,"ts":"2017-02-18T04:29:28Z","tz":-8,"tags":{"climbing":"boulder","climbing:rock":"sandstone","name":"Split Rock","natural":"bare_rock"}},"1288762972":{"lat":34.2362187,"lon":-118.5651948,"ts":"2024-06-01T18:19:54Z","tz":-8,"tags":{"addr:city":"Chatsworth","addr:housenumber":"19801","addr:postcode":"91311","addr:state":"CA","addr:street":"Nordhoff Place","addr:unit":"110","building":"yes","leisure":"sports_centre","name":"Boulderdash San Fernando Valley","sport":"climbing"}}}