{"156894813":{"location":[-33.4408239,-70.6359268],"ts":"2021-05-31T10:56:06Z","tz":-4,"tags":{"building":"roof","leisure":"sports_centre","sport":"climbing"}},"735004879":{"location":[-33.5707831,-70.5977146],"ts":"2024-11-12T20:21:10Z","tz":-4,"tags":{"addr:city":"Puente Alto","addr:street":"Avenida Ejército Libertador","leisure":"sports_centre","panoramax":"91f670f9-8751-48f0-8c49-d6010659e8b7","sport":"climbing"}},"905486032":{"location":[-33.6993951,-70.5623934],"ts":"2021-02-09T15:48:02Z","tz":-4,"tags":{"addr:city":"Pirque","addr:street":"Alcalde Hernán Prieto","leisure":"sports_centre","name":"Muro Pirque","sport":"climbing"}},"921469365":{"location":[-33.4429631,-70.6263789],"ts":"2024-11-12T20:21:10Z","tz":-4,"tags":{"access":"customers","addr:city":"Providencia","addr:housenumber":"875","addr:street":"Avenida Italia","building":"house","fee":"yes","leisure":"sports_centre","name":"Casa Boulder Escalada","name:en":"Casa Boulder Climbing","name:fr":"Casa Boulder Bloc Escalade","panoramax":"ab1017a4-0753-4a2e-af5e-20591400cdc6","payment:cash":"yes","payment:debit_cards":"yes","sport":"climbing"}},"8025465685":{"location":[-33.5554922,-70.3789009],"ts":"2023-12-10T16:01:25Z","tz":-4,"tags":{"name":"Torrecillas, escalada multi largos","name:en":"Climbing Top: Torrecillas","natural":"rock","sport":"climbing"}},"8987100710":{"location":[-33.5822128,-70.379309],"ts":"2021-10-18T18:20:05Z","tz":-4,"tags":{"ele":"1240","name":"Los Manyos","natural":"rock","sport":"climbing"}},"11407636395":{"location":[-33.5575369,-70.3809268],"ts":"2023-12-10T16:01:25Z","tz":-4,"tags":{"climbing":"route_bottom","climbing:multipitch":"yes","direction":"260","name":"Climbing Bottom: Torrecillas","sport":"climbing","tourism":"viewpoint"}},"11407636396":{"location":[-33.5623594,-70.3876798],"ts":"2023-12-10T16:01:25Z","tz":-4,"tags":{"climbing":"boulder","description":"Might be Torrecillas II, not sure.","name":"Torrecillas III","natural":"rock","sport":"climbing"}},"11407636448":{"location":[-33.5689751,-70.3955858],"ts":"2023-12-10T16:01:25Z","tz":-4,"tags":{"climbing":"boulder","natural":"rock","sport":"climbing"}}}