{"2806165141":{"location":[50.8016131,5.6831007],"ts":"2014-04-21T14:15:56Z","tz":1,"tags":{"note":"2 Umlenker mit Drehwirbeln, Ausstieg oben problemlos.","sport":"climbing"}},"2844424810":{"location":[50.8955914,5.9567253],"ts":"2024-02-14T10:19:02Z","tz":1,"tags":{"addr:city":"Heerlen","addr:housenumber":"14","addr:postcode":"6411RS","addr:street":"In de Cramer","charge":"11,50 euro","description":"Bouldering gym","fee":"yes","leisure":"sports_centre","name":"Climbing corner","opening_hours":"Mo-Su 10:00-23:00","payment:cash":"yes","payment:contactless":"yes","payment:debit_cards":"yes","phone":"+31 45 208 4235","source":"BAG","source:date":"2014-05-07","sport":"climbing","start_date":"01-05-2022","website":"https://www.theclimbingcorner.com"}},"5542869229":{"location":[50.8567362,5.6821958],"ts":"2024-04-21T07:42:55Z","tz":1,"tags":{"addr:city":"Maastricht","addr:housenumber":"2b","addr:postcode":"6219PD","addr:street":"Lage Frontweg","email":"info@radiumboulders.nl","leisure":"sports_centre","name":"Radium Boulders","opening_hours":"Mo-Su 09:00-23:00","phone":"+31 43 208 2001","sport":"climbing","website":"https://www.radiumboulders.nl/"}}}