{"304831004":{"lat":49.4595042,"lon":5.9647299,"ts":"2022-08-11T16:33:34Z","tz":1,"tags":{"natural":"cliff","sport":"climbing","website":"https://www.ffme.fr/site/falaise-fiche/1435.html"}},"490686611":{"lat":49.4596593,"lon":5.9645251,"ts":"2024-08-25T13:48:51Z","tz":1,"tags":{"access":"no","climbing:grade:french:max":"7a","climbing:grade:french:mean":"6a","climbing:grade:french:min":"3","climbing:length:max":"27","climbing:length:min":"6","climbing:rock":"limestone","climbing:sport":"yes","climbing:toprope":"yes","emergency":"yes","fee":"no","landuse":"recreation_ground","noexit":"yes","sport":"climbing","website":"https://www.ffme.fr/site/falaise-fiche/1435.html"}},"660256077":{"lat":49.5163793,"lon":5.9271723,"ts":"2024-07-20T14:10:49Z","tz":1,"tags":{"addr:city":"Soleuvre","addr:housenumber":"12","addr:postcode":"4413","addr:street":"Rue Jean Anen","building":"yes","charge":"15.00 EUR","climbing:boulder":"limited","climbing:speed":"no","climbing:sport":"yes","climbing:toprope":"yes","contact:facebook":"https://www.facebook.com/RedRockClimbing/","contact:instagram":"https://www.instagram.com/redrock_climbingcenter/","fee":"yes","leisure":"sports_centre","name":"Redrock Climbing Center","opening_hours":"Jul 15-Sep 09 Mo-Fr 14:00-22:00; Jul 15-Sep 09 Sa,Su,PH 09:00-19:00; Sep 10-Jul 14 Mo,We,Fr 16:00-22:00; Sep 10-Jul 14 Tu,Th 10:00-22:00; Sep 10-Jul 14 Sa,Su,PH 09:00-19:00","phone":"+352 26 59 08 79","ref:caclr":"240056","service:climbing_belay_device:rental":"yes","service:climbing_harness:rental":"yes","service:climbing_rope:rental":"yes","service:climbing_shoes:rental":"yes","service:climbing_shoes:rental:fee":"yes","sport":"climbing","website":"https://redrock-climbingcenter.lu/"}},"777892865":{"lat":49.4598311,"lon":5.9640734,"ts":"2022-08-11T16:33:34Z","tz":1,"tags":{"natural":"cliff","sport":"climbing","website":"https://www.ffme.fr/site/falaise-fiche/1435.html"}},"1264570433":{"lat":49.4940371,"lon":5.9675964,"ts":"2025-03-13T17:38:39Z","tz":1,"tags":{"addr:city":"Esch-sur-Alzette","addr:housenumber":"41","addr:postcode":"4024","addr:street":"Rue de Belval","building":"yes","climbing":"boulder","contact:facebook":"https://www.facebook.com/blocx.luxembourg","contact:instagram":"https://www.instagram.com/blocx.luxembourg","email":"climb@blocx.lu","fee":"yes","leisure":"sports_centre","name":"BlocX - Urban Fitness","opening_hours":"Mo-Fr 10:00-22:00; Sa-Su 9:00-22:00","phone":"+352 27 38 01 62","sport":"climbing","start_date":"2023-11-10","website":"https://blocx.lu/"}}}