{"8516330":{"location":[45.6897945,5.846843],"ts":"2023-01-16T19:43:34Z","tz":1,"tags":{"climbing":"route","name":"Via Ferrata Roc du Cornillon","route":"via_ferrata","type":"route","via_ferrata_scale":"3"}},"163512828":{"location":[45.59356,5.9195575],"ts":"2012-05-13T23:48:04Z","tz":1,"tags":{"building":"yes","leisure":"sports_centre","name":"Salle Benoît Chamoux","source":"cadastre-dgi-fr source : Direction Générale des Impôts - Cadastre. Mise à jour : 2011","sport":"climbing"}},"265570746":{"location":[45.638424,5.8720276],"ts":"2025-02-22T17:13:35Z","tz":1,"tags":{"addr:housenumber":"10","building":"yes","fee":"yes","leisure":"sports_centre","name":"Climb-Up","sport":"climbing","website":"https://chambery.climb-up.fr/"}},"870816063":{"location":[45.7993031,5.8676875],"ts":"2010-08-20T18:09:35Z","tz":1,"tags":{"sport":"climbing"}},"1307618868":{"location":[45.7825733,5.6334059],"ts":"2022-04-01T19:06:19Z","tz":1,"tags":{"name":"Contrevoz - Essieu","sport":"climbing"}},"3058124707":{"location":[45.7154984,5.7203558],"ts":"2014-09-03T21:44:48Z","tz":1,"tags":{"natural":"cliff","sport":"climbing"}},"6391713950":{"location":[45.710006,5.7980674],"ts":"2024-08-17T16:34:41Z","tz":1,"tags":{"alt_name":"Site d'escalade La Falaise de Lierre","climbing:grade:french:max":"7b","climbing:grade:french:min":"4","climbing:length:max":"30 meters","climbing:orientation":"west","climbing:rock":"limestone","ele":"465","leisure":"sports_centre","name":"Site d’escalade de Haut-Somont","natural":"cliff","sport":"climbing"}},"6598367079":{"location":[45.7327165,5.8948436],"ts":"2024-06-08T20:33:46Z","tz":1,"tags":{"climbing:grade:french:max":"7a","climbing:grade:french:min":"3b","climbing:length:max":"25 meters","climbing:orientation":"west","climbing:rock":"limestone","ele":"300","leisure":"sports_centre","name":"Site d’escalade de la Baie de Grésine","sport":"climbing"}},"7127821285":{"location":[45.6384667,5.872103],"ts":"2023-11-03T10:51:42Z","tz":1,"tags":{"email":"chambery@climb-up.fr","leisure":"sports_centre","name":"Climb-Up","opening_hours":"Mo-Fr 10:00-23:00; Sa-Su 10:00-20:00","phone":"+33 4 79 85 39 70","shop":"outdoor","sport":"climbing","website":"https://chambery.climb-up.fr/"}},"8121657504":{"location":[45.6189304,5.8879666],"ts":"2025-03-28T14:22:50Z","tz":1,"tags":{"addr:city":"Voglans","addr:housenumber":"40","addr:postcode":"73420","addr:street":"Rue de la Françon","contact:facebook":"https://www.facebook.com/LaZipetteEscalade","contact:instagram":"https://www.instagram.com/lazipetteescalade/","email":"lazipette.escalade@gmail.com","fee":"yes","leisure":"sports_centre","name":"La Zipette","opening_hours":"Mo-Fr 10:00-22:00; Sa-Su 10:00-19:00; PH 10:00-19:00","phone":"+33 4 56571291","sport":"climbing","website":"https://lazipette.fr/"}},"8677075116":{"location":[45.6669739,5.6443557],"ts":"2021-04-28T17:55:38Z","tz":1,"tags":{"natural":"cliff","sport":"climbing"}},"9471053104":{"location":[45.588055,5.9258334],"ts":"2022-02-03T09:53:38Z","tz":1,"tags":{"name":"Côte rousse","sport":"climbing"}},"9992405477":{"location":[45.6897829,5.8468612],"ts":"2022-09-01T09:45:29Z","tz":1,"tags":{"sport":"climbing"}},"9992405478":{"location":[45.7746064,5.8728412],"ts":"2024-09-27T19:09:24Z","tz":1,"tags":{"climbing:multipitch":"yes","name":"La Chambotte","sport":"climbing"}},"9992405479":{"location":[45.7731986,5.868087],"ts":"2024-05-28T13:30:54Z","tz":1,"tags":{"leisure":"sports_centre","name":"Brison","sport":"climbing"}},"9992405480":{"location":[45.7861315,5.8630025],"ts":"2024-12-09T07:30:34Z","tz":1,"tags":{"name":"La Pierre du Quart","sport":"climbing"}},"9992405481":{"location":[45.7892596,5.8626386],"ts":"2022-09-01T09:45:29Z","tz":1,"tags":{"name":"Chindrieux","sport":"climbing"}},"9992405482":{"location":[45.7943654,5.8672152],"ts":"2022-09-01T09:45:29Z","tz":1,"tags":{"name":"Cessens","sport":"climbing"}},"9992405483":{"location":[45.8052266,5.8649176],"ts":"2022-09-01T09:45:29Z","tz":1,"tags":{"name":"Le Sapeney","sport":"climbing"}},"9992405484":{"location":[45.6779869,5.9612787],"ts":"2022-09-01T09:45:29Z","tz":1,"tags":{"name":"Mouxy","sport":"climbing"}},"10607689622":{"location":[45.599302,5.9378053],"ts":"2024-05-09T10:53:19Z","tz":1,"tags":{"climbing:grade:french:max":"d8","climbing:grade:french:min":"d5","name":"Dry Tooling","ref:camptocamp":"727007","sport":"climbing"}},"11093069817":{"location":[45.7794611,5.8711175],"ts":"2023-08-06T09:51:11Z","tz":1,"tags":{"name":"Climbing","sport":"climbing"}}}