{"9882966":{"location":[45.4255832,5.8474998],"ts":"2021-10-31T13:14:54Z","tz":1,"tags":{"climbing":"route","name":"Via Ferrata de la Roche Veyrand","route":"via_ferrata","type":"route","via_ferrata_scale":"5"}},"10323202":{"location":[45.3911309,5.9411517],"ts":"2022-09-26T20:28:15Z","tz":1,"tags":{"access":"no","climbing":"route","name":"Via Ferrata Rocher de l'Envers","route":"via_ferrata","type":"route","via_ferrata_scale":"3"}},"111406291":{"location":[45.5591573,5.9656117],"ts":"2025-03-09T11:14:29Z","tz":1,"tags":{"addr:postcode":"73490","addr:street":"Rue de la Concorde","building":"yes","leisure":"sports_hall","name":"Gymnase Municipal","source":"cadastre-dgi-fr source : Direction Générale des Impôts - Cadastre. Mise à jour : 2011","sport":"climbing"}},"140045876":{"location":[45.341542,5.8338856],"ts":"2022-05-31T13:25:11Z","tz":1,"tags":{"name":"Rocher du mollard","natural":"cliff","sport":"climbing"}},"155478459":{"location":[45.4375128,5.8821046],"ts":"2023-07-16T17:04:34Z","tz":1,"tags":{"natural":"cliff","sport":"climbing","wikidata":"Q120305096"}},"218115401":{"location":[45.5658981,5.7330193],"ts":"2021-09-28T10:34:38Z","tz":1,"tags":{"description":"Ancienne carrière avec voies d'escalade et mini via-ferrata.","leisure":"climbing","name":"Mur d'escalade du Banchet","natural":"cliff","sport":"climbing"}},"235735972":{"location":[45.3956122,5.9522562],"ts":"2024-07-20T21:45:07Z","tz":1,"tags":{"climbing:sport":"10","natural":"bare_rock","sport":"climbing"}},"235735977":{"location":[45.3947669,5.9515722],"ts":"2024-07-20T21:45:07Z","tz":1,"tags":{"climbing:sport":"yes","natural":"cliff","sport":"climbing"}},"235735987":{"location":[45.3959388,5.9527165],"ts":"2024-07-20T21:45:07Z","tz":1,"tags":{"climbing:sport":"3","natural":"bare_rock","sport":"climbing"}},"262838752":{"location":[45.4113201,5.9302142],"ts":"2017-07-04T16:49:48Z","tz":1,"tags":{"name":"Des Poils et des Cornes","sport":"climbing"}},"293895982":{"location":[45.4446901,5.9280252],"ts":"2014-07-22T18:27:29Z","tz":1,"tags":{"climbing":"yes","climbing:boulder":"yes","natural":"stone"}},"293895983":{"location":[45.4447373,5.9279301],"ts":"2014-07-22T18:27:29Z","tz":1,"tags":{"climbing":"yes","climbing:boulder":"yes","natural":"stone"}},"410338406":{"location":[45.5632877,5.8907113],"ts":"2024-03-02T21:42:14Z","tz":1,"tags":{"description":"Mur d'escalade extérieur artificiel de Cognin","leisure":"sports_centre","opening_hours":"24/7","sport":"climbing"}},"733932232":{"location":[45.4555907,5.8443782],"ts":"2024-02-10T17:39:58Z","tz":1,"tags":{"name":"La Cochette","natural":"cliff","sport":"climbing"}},"733937407":{"location":[45.5104492,5.8325703],"ts":"2024-03-22T15:20:57Z","tz":1,"tags":{"natural":"cliff","sport":"climbing"}},"1194691746":{"location":[45.3416685,5.8815587],"ts":"2023-08-07T08:02:51Z","tz":1,"tags":{"climbing":"route","fixme":"exact position?"}},"1195529578":{"location":[45.3451424,5.8826999],"ts":"2023-08-07T06:58:53Z","tz":1,"tags":{"climbing":"route"}},"1195529579":{"location":[45.3435671,5.8819299],"ts":"2023-08-07T06:58:53Z","tz":1,"tags":{"climbing":"route"}},"1528393082":{"location":[45.4834097,5.8643798],"ts":"2011-12-02T14:32:05Z","tz":1,"tags":{"sport":"climbing"}},"2437913326":{"location":[45.3959854,5.9526637],"ts":"2013-08-29T20:34:08Z","tz":1,"tags":{"sport":"climbing"}},"3102610629":{"location":[45.3613102,5.6717192],"ts":"2018-08-16T05:17:54Z","tz":1,"tags":{"leisure":"sports_centre","name":"Site d'escalade des Gorges du Crossey","sport":"climbing"}},"9471032174":{"location":[45.3625,5.6702779],"ts":"2022-02-03T09:53:33Z","tz":1,"tags":{"name":"Les gorges de Crossey","sport":"climbing"}},"9471039695":{"location":[45.578333,5.8244445],"ts":"2025-02-22T17:13:35Z","tz":1,"tags":{"name":"Col de l'Épine","sport":"climbing"}},"9471049210":{"location":[45.515278,5.8538888],"ts":"2022-02-03T09:53:37Z","tz":1,"tags":{"name":"Saint Thibaud de Couze","sport":"climbing"}},"9471060530":{"location":[45.413611,5.6788888],"ts":"2022-02-03T09:53:33Z","tz":1,"tags":{"name":"Saint Aupre","sport":"climbing"}},"10003790185":{"location":[45.5749316,5.9585536],"ts":"2025-03-16T22:10:59Z","tz":1,"tags":{"addr:housenumber":"340","addr:postcode":"73230","addr:street":"Chemin des Carrières","email":"contact@wattabloc.com","leisure":"sports_centre","name":"Wattabloc","phone":"+33 9 54 87 62 56","sport":"climbing","website":"https://www.wattabloc.com/","wheelchair":"limited"}},"10691029335":{"location":[45.5706044,5.9201541],"ts":"2023-02-24T15:14:47Z","tz":1,"tags":{"leisure":"sports_centre","name":"Mur d'escalade de la Gare","sport":"climbing"}},"12065328012":{"location":[45.3955631,5.9519517],"ts":"2024-07-20T21:45:07Z","tz":1,"tags":{"climbing:boulder":"yes","natural":"rock","sport":"climbing"}},"12216110447":{"location":[45.3644497,5.6647967],"ts":"2024-10-06T13:38:47Z","tz":1,"tags":{"climbing:bolted":"yes","climbing:bolts":"15","climbing:length":"135","climbing:orientation":"NE","climbing:pitches":"5","name":"Pâtes ou Crossey ?","sport":"climbing"}}}