{"31808447":{"location":[32.9023013,-117.1777051],"ts":"2022-10-01T04:44:55Z","tz":-8,"tags":{"access":"customers","addr:housenumber":"10110","addr:postcode":"92121","addr:street":"Mesa Rim Road","brand":"Mesa Rim","brand:wikidata":"Q110690909","building":"yes","climbing:boulder":"yes","fee":"yes","internet_access":"wlan","leisure":"sports_centre","name":"Mesa Rim Climbing & Fitness Center","name:en":"Mesa Rim Climbing & Fitness Center","phone":"+18582014411","sangis:OBJECTID":"11115","sangis:TYPE":"Industrial","source":"SanGIS Footprints_Nonresidential_SD public domain (http://www.sangis.org/)","sport":"climbing","type":"industrial","website":"https://mesarim.com/"}},"31839349":{"location":[32.9017124,-117.177829],"ts":"2022-01-26T18:05:50Z","tz":-8,"tags":{"addr:city":"San Diego","addr:country":"US","addr:housenumber":"10070","addr:postcode":"92121","addr:state":"CA","addr:street":"Mesa Rim Road","addr:unit":"D","brand":"Mesa Rim","brand:wikidata":"Q110690909","building":"yes","building_type":"industrial","fee":"yes","leisure":"sports_centre","name":"Mesa Rim Climbing Academy","sangis:OBJECTID":"10668","sangis:TYPE":"Industrial","source":"SanGIS Footprints_Nonresidential_SD public domain (http://www.sangis.org/)","sport":"climbing","website":"https://mesarim.com/academy"}},"402834254":{"location":[33.135999,-117.1576936],"ts":"2022-10-01T04:43:19Z","tz":-8,"tags":{"access":"customers","addr:city":"San Marcos","addr:housenumber":"285","addr:postcode":"92078","addr:state":"CA","addr:street":"Industrial Street","brand":"Mesa Rim","brand:wikidata":"Q110690909","building":"commercial","climbing:boulder":"yes","climbing:speed":"yes","description":"Indoor climbing gym with bouldering, top-rope, and lead climbing. There is also a gym.","email":"hellonorthcity@mesarim.com","fee":"yes","leisure":"sports_centre","name":"Mesa Rim (North City)","opening_hours":"Mo-Fr 06:00-22:00; Sa-Su 08:00-21:00","phone":"+1 760 593 1020","sport":"climbing","website":"https://mesarim.com/northcity/"}},"4047904538":{"location":[33.1366331,-117.132921],"ts":"2022-01-26T02:43:28Z","tz":-8,"tags":{"addr:city":"San Marcos","addr:housenumber":"992","addr:postcode":"92069","addr:state":"CA","addr:street":"Rancheros Drive","brand":"Vertical Hold","brand:wikidata":"Q110690928","building":"commercial","fee":"yes","leisure":"sports_centre","name":"Vertical Hold","sport":"climbing","website":"https://www.verticalhold.com/"}}}