{"11573529":{"location":[43.5370935,-5.7020779],"ts":"2025-03-06T20:41:22Z","tz":1,"tags":{"addr:city":"Gijón/Xixón","building":"yes","ine:municipio":"Gijón/Xixón","leisure":"sports_centre","name":"Rocódromo Mata Jove","sport":"climbing"}},"1196100517":{"location":[43.3647963,-5.8338784],"ts":"2024-06-07T08:34:29Z","tz":1,"tags":{"addr:city":"Oviedo / Uviéu","addr:housenumber":"2","addr:street":"Calle Ronda","building":"yes","leisure":"sports_centre","name":"El Roko","opening_hours":"Mo-Fr 10:00-22:00; Sa-Su 10:00-14:00,16:00-22:00","phone":"985021944","sport":"climbing","website":"http://elroko.es"}},"4682488127":{"location":[43.3722631,-5.8270246],"ts":"2022-12-24T14:10:11Z","tz":1,"tags":{"leisure":"sports_centre","sport":"climbing"}},"5663494452":{"location":[43.3511951,-5.8505654],"ts":"2021-12-26T21:22:27Z","tz":1,"tags":{"leisure":"sports_centre","name":"Rocódromo","sport":"climbing"}},"9662295744":{"location":[43.4971487,-5.6552799],"ts":"2022-05-28T09:42:18Z","tz":1,"tags":{"addr:street":"Camín del Molín del Río 16, 33391 Gijón, Asturias","name":"Boulder Moss Gijón","phone":"+34 665998578","sport":"climbing","website":"https://www.bouldermoss.org/"}},"11543426593":{"location":[43.3649538,-5.8334291],"ts":"2024-09-01T12:13:02Z","tz":1,"tags":{"addr:city":"Oviedo","addr:housenumber":"2","addr:postcode":"33010","addr:street":"Calle Ronda","club":"sport","name":"El Roko","opening_hours":"Mo-Su 10:00-22:00","phone":"985021944","sport":"climbing","website":"http://elroko.com/"}},"12143672538":{"location":[43.3730828,-5.8514774],"ts":"2024-08-29T07:22:15Z","tz":1,"tags":{"leisure":"sports_centre","name":"Torresamper Climbing Center","sport":"climbing"}}}