{"19377150":{"location":[34.0279796,-116.1445364],"ts":"2025-07-22T05:54:19Z","tz":-8,"tags":{"climbing":"crag","name":"Gunsmoke Area","site":"climbing","sport":"climbing","type":"site"}},"19377154":{"location":[34.0252252,-116.1564018],"ts":"2025-07-22T05:54:19Z","tz":-8,"tags":{"climbing":"crag","name":"West Face","site":"climbing","sport":"climbing","type":"site"}},"19377180":{"location":[34.0245235,-116.1798622],"ts":"2025-07-22T06:19:22Z","tz":-8,"tags":{"climbing":"crag","name":"Lower Freeway Wall","site":"climbing","sport":"climbing","type":"site"}},"19377181":{"location":[34.0233586,-116.1785911],"ts":"2025-07-22T06:16:16Z","tz":-8,"tags":{"climbing":"area","name":"Freeway Wall","site":"climbing","sport":"climbing","type":"site"}},"338191048":{"location":[34.0296231,-116.1810342],"ts":"2023-01-15T15:20:22Z","tz":-8,"tags":{"name":"Roadside Rock","natural":"bare_rock","sport":"climbing"}},"338191049":{"location":[34.0301872,-116.1823157],"ts":"2023-01-15T15:20:22Z","tz":-8,"tags":{"name":"Lizard's Hangout","natural":"bare_rock","sport":"climbing"}},"338192251":{"location":[34.0331511,-116.1848274],"ts":"2023-01-16T15:34:05Z","tz":-8,"tags":{"natural":"bare_rock","sport":"climbing"}},"338192511":{"location":[34.032523,-116.1867139],"ts":"2023-01-16T15:34:05Z","tz":-8,"tags":{"natural":"bare_rock","sport":"climbing"}},"338193173":{"location":[34.0391671,-116.1877771],"ts":"2023-01-15T15:20:22Z","tz":-8,"tags":{"name":"Erotic Dome","natural":"bare_rock","sport":"climbing"}},"338197944":{"location":[34.051902,-116.1814137],"ts":"2021-09-26T14:39:40Z","tz":-8,"tags":{"name":"Mustang Ranch","natural":"bare_rock","sport":"climbing"}},"338197945":{"location":[34.0537228,-116.1810843],"ts":"2021-09-26T14:39:40Z","tz":-8,"tags":{"name":"Bear Island","natural":"bare_rock","sport":"climbing"}},"338203302":{"location":[34.0227106,-116.1738228],"ts":"2023-01-15T15:20:22Z","tz":-8,"tags":{"name":"The Milepost","natural":"bare_rock","sport":"climbing"}},"422107526":{"location":[34.0232787,-116.1751047],"ts":"2023-01-15T15:20:22Z","tz":-8,"tags":{"name":"Pinyon Crag","natural":"bare_rock","sport":"climbing"}},"669445771":{"location":[34.0209928,-116.1627414],"ts":"2023-01-16T12:28:43Z","tz":-8,"tags":{"name":"Rock Hudson","natural":"bare_rock","sport":"climbing"}},"914775203":{"location":[34.0279796,-116.1445364],"ts":"2025-07-22T05:54:19Z","tz":-8,"tags":{"climbing":"route","climbing:boulder":"yes","name":"Gunsmoke","sport":"climbing"}},"1013196111":{"location":[34.0965868,-116.1521031],"ts":"2021-12-24T06:28:44Z","tz":-8,"tags":{"name":"Morbid Mound","natural":"bare_rock","sport":"climbing"}},"1013196112":{"location":[34.0993409,-116.1628587],"ts":"2021-12-24T06:39:37Z","tz":-8,"tags":{"name":"Grain Central Station","natural":"bare_rock","sport":"climbing"}},"1013196113":{"location":[34.1002879,-116.1589534],"ts":"2021-12-17T22:34:02Z","tz":-8,"tags":{"name":"Grain Silo","natural":"bare_rock","sport":"climbing"}},"1014988240":{"location":[34.0945193,-116.1563282],"ts":"2022-10-18T14:26:18Z","tz":-8,"tags":{"name":"Pixie Rock","natural":"bare_rock","sport":"climbing"}},"1056546934":{"location":[34.0233586,-116.1785911],"ts":"2025-07-22T06:16:16Z","tz":-8,"tags":{"climbing":"crag","name":"Upper Freeway Wall","natural":"cliff"}},"1066740432":{"location":[34.0218551,-116.1756524],"ts":"2024-12-23T09:25:14Z","tz":-8,"tags":{"climbing":"crag","climbing:trad":"yes","name":"Playhouse Rock","natural":"cliff","sport":"climbing"}},"1103901886":{"location":[34.0275942,-116.1511144],"ts":"2022-10-14T17:14:02Z","tz":-8,"tags":{"name":"Poker Face","natural":"cliff","sport":"climbing"}},"1128083604":{"location":[34.0986624,-116.1625598],"ts":"2023-01-19T19:23:03Z","tz":-8,"tags":{"natural":"bare_rock","note":"Erik Murdock's NPS survey lists #673 \"Grain Silo, The\" at this location (Easting 577310, Northing 3773215), but it seems more likely that it's actually the formation to the East, so I removed the name from this one.","sport":"climbing"}},"1133030318":{"location":[34.0943883,-116.1561128],"ts":"2023-01-18T03:09:47Z","tz":-8,"tags":{"name":"Pixie Boulder","natural":"stone","sport":"climbing"}},"1133036786":{"location":[34.1096593,-116.1722177],"ts":"2023-01-18T04:30:53Z","tz":-8,"tags":{"name":"The Monkey's Paw","natural":"bare_rock","sport":"climbing"}},"1133036787":{"location":[34.1065502,-116.1716706],"ts":"2023-01-18T04:30:53Z","tz":-8,"tags":{"name":"Little Top","natural":"bare_rock","sport":"climbing"}},"1133359504":{"location":[34.0859975,-116.1449008],"ts":"2023-01-19T05:01:29Z","tz":-8,"tags":{"name":"Iceberg Boulder","natural":"stone","sport":"climbing"}},"1228875730":{"location":[34.0626184,-116.2263172],"ts":"2023-12-05T16:01:23Z","tz":-8,"tags":{"climbing":"boulder","climbing:url:mountainproject":"https://www.mountainproject.com/v/105789385","climbing:url:openbeta":"https://openbeta.io/area/444dfce9-35c6-5f7c-969d-b9b2399e2c65","climbing:url:thecrag":"https://www.thecrag.com/1011443412","name":"Chocolate Boulder 1","natural":"stone","sport":"climbing"}},"1228875731":{"location":[34.0626477,-116.2263681],"ts":"2023-12-05T16:01:23Z","tz":-8,"tags":{"climbing":"boulder","climbing:url:mountainproject":"https://www.mountainproject.com/v/105789402","climbing:url:openbeta":"https://openbeta.io/area/a3dce89b-79e2-50c2-8276-eedd41fd8a87","climbing:url:thecrag":"https://www.thecrag.com/1011443646","name":"Chocolate Chip","natural":"stone","sport":"climbing"}},"1228875732":{"location":[34.0626667,-116.2264014],"ts":"2023-12-05T16:01:23Z","tz":-8,"tags":{"climbing":"boulder","climbing:url:mountainproject":"https://www.mountainproject.com/v/105789821","climbing:url:openbeta":"https://openbeta.io/area/a3d47eb4-ded9-52ba-b6e2-871aa46b8f47","climbing:url:thecrag":"https://www.thecrag.com/1011443490","name":"Chocolate Boulder 2","natural":"stone","sport":"climbing"}},"1228875733":{"location":[34.0626984,-116.2263914],"ts":"2023-12-05T16:01:23Z","tz":-8,"tags":{"climbing":"boulder","climbing:url:mountainproject":"https://www.mountainproject.com/v/105789805","climbing:url:openbeta":"https://openbeta.io/area/b8edd990-bb79-5e43-8ea6-bbbb8e238d8e","climbing:url:thecrag":"https://www.thecrag.com/1011443568","name":"Chocolate Boulder 3","natural":"stone","sport":"climbing"}},"1233215836":{"location":[34.0245887,-116.1798622],"ts":"2025-07-22T06:19:22Z","tz":-8,"tags":{"climbing":"route","climbing:grade:yds_class":"5.4","climbing:length":"30","climbing:pitches":"1","name":"False False Smooth as Milk","sport":"climbing"}},"1368881112":{"location":[34.0808026,-116.2459755],"ts":"2025-03-20T18:56:08Z","tz":-8,"tags":{"name":"Embryo Boulder","natural":"bare_rock","sport":"climbing"}},"1368883807":{"location":[34.0764418,-116.2431486],"ts":"2025-03-20T18:56:08Z","tz":-8,"tags":{"name":"Scratch-N-Sniff Boulder","natural":"bare_rock","sport":"climbing"}},"1368883812":{"location":[34.07532,-116.2420229],"ts":"2025-03-20T18:56:08Z","tz":-8,"tags":{"name":"Grainy Boulder","natural":"bare_rock","sport":"climbing"}},"1368884014":{"location":[34.0402728,-116.1972844],"ts":"2025-03-22T08:36:26Z","tz":-8,"tags":{"name":"TrashCan Rock","natural":"bare_rock","sport":"climbing"}},"1368887426":{"location":[34.0406693,-116.1980468],"ts":"2025-03-19T01:31:17Z","tz":-8,"tags":{"name":"Forgotton Boulders","natural":"bare_rock","sport":"climbing"}},"1368887427":{"location":[34.0408465,-116.1980417],"ts":"2025-03-19T01:31:17Z","tz":-8,"tags":{"name":"Zen Boulders","natural":"bare_rock","sport":"climbing"}},"1368904750":{"location":[34.0297931,-116.1976188],"ts":"2025-03-19T01:33:48Z","tz":-8,"tags":{"name":"Dover Cliffs Boulder","natural":"bare_rock","sport":"climbing"}},"1368904751":{"location":[34.0289203,-116.2002057],"ts":"2025-03-19T01:33:48Z","tz":-8,"tags":{"name":"White Cliffs of Dover","natural":"bare_rock","sport":"climbing"}},"1368904752":{"location":[34.0286894,-116.1981426],"ts":"2025-03-19T01:33:48Z","tz":-8,"tags":{"name":"Courthouse","natural":"bare_rock","sport":"climbing"}},"1368905947":{"location":[34.0309236,-116.204606],"ts":"2025-03-22T08:36:27Z","tz":-8,"tags":{"name":"Johnny Lange Crags","natural":"bare_rock","sport":"climbing"}},"1368905948":{"location":[34.0334488,-116.2018226],"ts":"2025-03-19T01:42:17Z","tz":-8,"tags":{"name":"Hound Rock","natural":"bare_rock","sport":"climbing"}},"1368905949":{"location":[34.0337275,-116.2016289],"ts":"2025-03-19T01:42:17Z","tz":-8,"tags":{"name":"Baskerville Rock","natural":"bare_rock","sport":"climbing"}},"1368905950":{"location":[34.0340935,-116.2018543],"ts":"2025-03-19T01:42:17Z","tz":-8,"tags":{"name":"Baskerville Boulders","natural":"bare_rock","sport":"climbing"}},"1368905954":{"location":[34.0247876,-116.1968989],"ts":"2025-03-19T01:42:17Z","tz":-8,"tags":{"name":"Kaleidoscope Wall","natural":"bare_rock","sport":"climbing"}},"1368905955":{"location":[34.0180544,-116.1908823],"ts":"2025-03-19T01:42:17Z","tz":-8,"tags":{"name":"Ranger Station Rock","natural":"bare_rock","sport":"climbing"}},"1370342009":{"location":[34.0164055,-116.1709999],"ts":"2025-03-22T15:14:39Z","tz":-8,"tags":{"name":"Barrel of Monkeys","natural":"bare_rock","sport":"climbing"}},"1370342013":{"location":[34.0167021,-116.1718842],"ts":"2025-03-22T15:14:39Z","tz":-8,"tags":{"name":"The Brown Wall","natural":"bare_rock","sport":"climbing"}},"1370342015":{"location":[34.0174538,-116.1730522],"ts":"2025-03-22T15:14:39Z","tz":-8,"tags":{"name":"Savy Dome","natural":"bare_rock","sport":"climbing"}},"1370342758":{"location":[34.01785,-116.1722797],"ts":"2025-03-22T15:19:30Z","tz":-8,"tags":{"name":"Melon Boulder","natural":"bare_rock","sport":"climbing"}},"1370342759":{"location":[34.0170763,-116.1744042],"ts":"2025-03-22T15:19:30Z","tz":-8,"tags":{"name":"Upper Cow Rock","natural":"bare_rock","sport":"climbing"}},"1370343737":{"location":[34.0176943,-116.1747541],"ts":"2025-03-22T15:27:09Z","tz":-8,"tags":{"name":"lower cow rock","natural":"bare_rock","sport":"climbing"}},"1370343738":{"location":[34.0177055,-116.1754435],"ts":"2025-03-22T15:27:09Z","tz":-8,"tags":{"name":"Alps Rock","natural":"bare_rock","sport":"climbing"}},"1370343739":{"location":[34.0180211,-116.175056],"ts":"2025-03-22T15:27:09Z","tz":-8,"tags":{"name":"worthwhile pile","natural":"bare_rock","sport":"climbing"}},"1370343740":{"location":[34.0182179,-116.1753161],"ts":"2025-03-22T15:27:09Z","tz":-8,"tags":{"name":"Slanta Claus Rock","natural":"bare_rock","sport":"climbing"}},"1370343741":{"location":[34.0185814,-116.1755937],"ts":"2025-03-22T15:27:09Z","tz":-8,"tags":{"name":"Short Rock","natural":"bare_rock","sport":"climbing"}},"1370343742":{"location":[34.018787,-116.1787976],"ts":"2025-03-22T15:27:09Z","tz":-8,"tags":{"name":"Santas Workshop","natural":"bare_rock","sport":"climbing"}},"1370343743":{"location":[34.0187568,-116.1803295],"ts":"2025-03-22T15:27:09Z","tz":-8,"tags":{"name":"Alanis (Morrisette) Wall","natural":"bare_rock","sport":"climbing"}},"1370343746":{"location":[34.0191521,-116.1808585],"ts":"2025-03-22T15:28:18Z","tz":-8,"tags":{"name":"Sparky Slab","natural":"bare_rock","sport":"climbing"}},"1370343865":{"location":[34.0191625,-116.1806243],"ts":"2025-03-22T15:28:18Z","tz":-8,"tags":{"name":"Tire Tread Wll","natural":"bare_rock","sport":"climbing"}},"1370344043":{"location":[34.0204454,-116.1799159],"ts":"2025-03-22T15:30:42Z","tz":-8,"tags":{"name":"Imaginary Voyage Formation","natural":"bare_rock","sport":"climbing"}},"2207048571":{"location":[34.0245218,-116.1550684],"ts":"2021-03-08T17:15:15Z","tz":-8,"tags":{"name":"Pope's Crack","natural":"cliff","sport":"climbing"}},"2207052682":{"location":[34.0251469,-116.158634],"ts":"2021-03-08T17:15:15Z","tz":-8,"tags":{"name":"Fun Stuff","natural":"cliff","sport":"climbing"}},"2266990769":{"location":[34.0252252,-116.1564018],"ts":"2025-07-22T05:54:19Z","tz":-8,"tags":{"climbing":"route","name":"Stitcher Quits","sport":"climbing"}},"4419896693":{"location":[34.1346947,-116.315583],"ts":"2023-12-05T18:04:26Z","tz":-8,"tags":{"addr:city":"Joshua Tree","addr:housenumber":"61795","addr:postcode":"92252","addr:state":"CA","addr:street":"29 Palms Highway","name":"Nomad Ventures","name:en":"Nomad Ventures","phone":"+17603664684","shop":"outdoor","sport":"climbing","website":"https://nomadventures.com/"}},"4551157397":{"location":[34.0924079,-116.156922],"ts":"2021-12-17T21:05:19Z","tz":-8,"tags":{"name":"King Otto's Castle","sport":"climbing"}},"4551157418":{"location":[34.0932186,-116.156735],"ts":"2021-12-17T21:05:19Z","tz":-8,"tags":{"name":"Center Crag","sport":"climbing"}},"4551157502":{"location":[34.0963538,-116.164451],"ts":"2023-01-03T22:33:59Z","tz":-8,"tags":{"name":"Wall of Absurdities","natural":"cliff","sport":"climbing"}},"4551157623":{"location":[34.0963799,-116.164993],"ts":"2023-01-03T22:33:59Z","tz":-8,"tags":{"name":"Empire Wall","natural":"cliff","sport":"climbing"}},"5275798525":{"location":[34.0846782,-116.1381488],"ts":"2017-12-10T18:27:19Z","tz":-8,"tags":{"name":"Joshua Tree","sport":"climbing"}},"8497636731":{"location":[34.0222803,-116.1775889],"ts":"2021-03-08T17:15:15Z","tz":-8,"tags":{"name":"Alf's ArÃªte","natural":"cliff","sport":"climbing"}},"8497636782":{"location":[34.0247327,-116.1586726],"ts":"2021-03-08T17:15:15Z","tz":-8,"tags":{"name":"Big Mo","natural":"cliff","sport":"climbing"}},"8497636790":{"location":[34.0249973,-116.1560529],"ts":"2021-03-08T17:15:15Z","tz":-8,"tags":{"name":"Heart and Sole","natural":"cliff","sport":"climbing"}},"8497678017":{"location":[34.0388111,-116.1473103],"ts":"2021-03-08T17:33:58Z","tz":-8,"tags":{"name":"Figures on a Landscape","natural":"cliff","sport":"climbing"}},"8497678018":{"location":[34.0384796,-116.146879],"ts":"2021-03-08T17:33:58Z","tz":-8,"tags":{"name":"Solid Gold","natural":"cliff","sport":"climbing"}},"9347413460":{"location":[34.0962576,-116.164094],"ts":"2023-01-03T22:33:59Z","tz":-8,"tags":{"name":"Africa Face","natural":"cliff","sport":"climbing"}},"9347583007":{"location":[34.0970597,-116.1604206],"ts":"2021-12-17T22:34:02Z","tz":-8,"tags":{"name":"Hodgepodge Rock","sport":"climbing"}},"9347588496":{"location":[34.0963573,-116.1576413],"ts":"2021-12-17T22:34:02Z","tz":-8,"tags":{"name":"Circle Crag","sport":"climbing"}},"9347588525":{"location":[34.0961947,-116.1565913],"ts":"2021-12-24T06:07:14Z","tz":-8,"tags":{"name":"Jamie's Wall","sport":"climbing"}},"10101714764":{"location":[34.0950722,-116.1650143],"ts":"2024-01-29T16:33:09Z","tz":-8,"tags":{"ele":"1072","name":"Moosedog Tower","natural":"peak","sport":"climbing"}},"10111496317":{"location":[34.0934651,-116.1562114],"ts":"2022-10-18T14:26:18Z","tz":-8,"tags":{"name":"Billboard Buttress","natural":"cliff","sport":"climbing"}},"10111496318":{"location":[34.0933907,-116.155787],"ts":"2022-10-18T14:26:18Z","tz":-8,"tags":{"name":"Bilbo Buttress","natural":"cliff","sport":"climbing"}},"10111496319":{"location":[34.0934303,-116.1550998],"ts":"2022-10-18T14:26:18Z","tz":-8,"tags":{"name":"Willit Pillar","natural":"cliff","sport":"climbing"}},"10111496320":{"location":[34.0939723,-116.154963],"ts":"2022-10-18T14:26:18Z","tz":-8,"tags":{"name":"Varnished Wall","natural":"cliff","sport":"climbing"}},"10111496321":{"location":[34.0936343,-116.1543652],"ts":"2022-10-18T14:26:18Z","tz":-8,"tags":{"name":"Indian Palisades Corridor","natural":"cliff","sport":"climbing"}},"10111496322":{"location":[34.0931021,-116.1544608],"ts":"2022-10-18T14:26:18Z","tz":-8,"tags":{"name":"Dark Shadows Rock","natural":"cliff","sport":"climbing"}},"10564111834":{"location":[34.1000872,-116.1768284],"ts":"2023-01-18T04:30:53Z","tz":-8,"tags":{"fixme":"position estimated","name":"The Gossip Column","natural":"cliff","sport":"climbing"}},"10564111835":{"location":[34.0898454,-116.1578572],"ts":"2023-01-18T04:30:53Z","tz":-8,"tags":{"fixme":"position estimated","name":"Wonder Bluffs","natural":"cliff","sport":"climbing"}},"10564111836":{"location":[34.0937643,-116.1688951],"ts":"2023-01-18T04:30:53Z","tz":-8,"tags":{"fixme":"position estimated","name":"Jailhouse Rock","natural":"cliff","sport":"climbing"}},"10564111837":{"location":[34.0904896,-116.1565509],"ts":"2023-01-18T04:30:53Z","tz":-8,"tags":{"fixme":"position estimated","name":"Condor Rock","natural":"cliff","sport":"climbing"}},"10564111838":{"location":[34.0952457,-116.1641904],"ts":"2023-01-18T04:30:53Z","tz":-8,"tags":{"fixme":"position estimated","name":"Illustrated Man Wall","natural":"cliff","sport":"climbing"}},"10564111839":{"location":[34.0935794,-116.1617263],"ts":"2023-01-18T04:30:53Z","tz":-8,"tags":{"fixme":"position estimated","name":"Palmreader Wall","natural":"cliff","sport":"climbing"}},"10564111840":{"location":[34.0937926,-116.1624572],"ts":"2023-01-18T04:30:53Z","tz":-8,"tags":{"fixme":"position estimated","name":"Corona Wall","natural":"cliff","sport":"climbing"}},"10564111841":{"location":[34.0935249,-116.1624317],"ts":"2023-01-18T04:30:53Z","tz":-8,"tags":{"fixme":"position estimated","name":"Dos Equis Wall","natural":"cliff","sport":"climbing"}},"10564111842":{"location":[34.0937509,-116.1627569],"ts":"2023-01-18T04:30:53Z","tz":-8,"tags":{"fixme":"position estimated","name":"The Tooth","natural":"cliff","sport":"climbing"}},"10564111843":{"location":[34.1072714,-116.1869813],"ts":"2023-01-18T04:30:53Z","tz":-8,"tags":{"name":"The Iron Sausage","natural":"cliff","sport":"climbing"}},"10564111844":{"location":[34.1054353,-116.1745673],"ts":"2023-01-18T04:30:53Z","tz":-8,"tags":{"name":"Boy Scout Trail Cliffs","natural":"cliff","sport":"climbing"}},"10566874827":{"location":[34.0796091,-116.1479411],"ts":"2023-01-19T05:01:29Z","tz":-8,"tags":{"fixme":"position estimated","name":"Cactus City","natural":"cliff","sport":"climbing"}},"10566874828":{"location":[34.0802578,-116.144768],"ts":"2023-01-19T05:01:29Z","tz":-8,"tags":{"fixme":"position estimated","name":"Upper Dodge City","natural":"cliff","sport":"climbing"}},"10566874829":{"location":[34.0808043,-116.1420536],"ts":"2023-01-19T05:01:29Z","tz":-8,"tags":{"fixme":"position estimated","name":"Lower Dodge City","natural":"cliff","sport":"climbing"}},"10566874830":{"location":[34.0806699,-116.1399856],"ts":"2023-01-19T05:01:29Z","tz":-8,"tags":{"fixme":"position estimated","name":"The Mini-Mall","natural":"cliff","sport":"climbing"}},"10566874831":{"location":[34.0815996,-116.1411028],"ts":"2023-01-19T05:01:29Z","tz":-8,"tags":{"fixme":"position estimated","name":"Black Tower","natural":"cliff","sport":"climbing"}},"10566874832":{"location":[34.0818651,-116.1413938],"ts":"2023-01-19T05:01:29Z","tz":-8,"tags":{"fixme":"position estimated","name":"Ponderosa Wall","natural":"cliff","sport":"climbing"}},"10566874833":{"location":[34.0835141,-116.1421449],"ts":"2025-05-09T15:58:37Z","tz":-8,"tags":{"name":"Corral Wall","natural":"cliff","sport":"climbing"}},"10566874834":{"location":[34.0852817,-116.1422273],"ts":"2023-01-19T05:01:29Z","tz":-8,"tags":{"fixme":"position estimated","name":"Ghost Town","natural":"cliff","sport":"climbing"}},"10566874840":{"location":[34.0839233,-116.1569358],"ts":"2023-01-19T05:01:29Z","tz":-8,"tags":{"fixme":"position estimated","name":"Afro Awareness Week","natural":"cliff","sport":"climbing"}},"10566874841":{"location":[34.0859003,-116.1573261],"ts":"2023-01-19T05:01:29Z","tz":-8,"tags":{"fixme":"position estimated","name":"Cove Canyon Dome","natural":"cliff","sport":"climbing"}},"10566874842":{"location":[34.0865523,-116.1557885],"ts":"2023-01-19T05:01:29Z","tz":-8,"tags":{"fixme":"position estimated","name":"Ancient Kingdom","natural":"cliff","sport":"climbing"}},"10566874843":{"location":[34.0878218,-116.1565509],"ts":"2023-01-19T05:01:29Z","tz":-8,"tags":{"fixme":"position estimated","name":"Shuttle Rock","natural":"cliff","sport":"climbing"}},"10566874844":{"location":[34.0936726,-116.1608988],"ts":"2023-01-19T05:01:29Z","tz":-8,"tags":{"fixme":"position estimated","name":"Clump Canyon","natural":"cliff","sport":"climbing"}},"10568525667":{"location":[34.0801955,-116.1469049],"ts":"2023-01-19T19:42:01Z","tz":-8,"tags":{"fixme":"position estimated","name":"Roundup Rock","natural":"cliff","sport":"climbing"}},"11396334705":{"location":[34.0622835,-116.2263063],"ts":"2023-12-05T16:01:23Z","tz":-8,"tags":{"climbing":"boulder","climbing:url:mountainproject":"https://www.mountainproject.com/v/109989763","climbing:url:openbeta":"https://openbeta.io/area/0ba74d89-f9b5-58aa-afca-6a32284e207a","climbing:url:thecrag":"https://www.thecrag.com/1011443334","name":"Choc-o-Roach","natural":"stone","sport":"climbing"}},"11396334706":{"location":[34.0628841,-116.2260196],"ts":"2023-12-05T16:01:23Z","tz":-8,"tags":{"climbing":"boulder","climbing:url:mountainproject":"https://www.mountainproject.com/v/109989622","climbing:url:openbeta":"https://openbeta.io/area/ade94966-a423-5a13-83d4-583168c83d79","climbing:url:thecrag":"https://www.thecrag.com/1011443724","name":"Chocolate Roof","natural":"stone","sport":"climbing"}},"11396549207":{"location":[34.134487,-116.3156498],"ts":"2023-12-05T18:04:26Z","tz":-8,"tags":{"addr:city":"Joshua Tree","addr:housenumber":"61795","addr:postcode":"92252","addr:state":"CA","addr:street":"29 Palms Highway","climbing:rental":"crashpad","name":"High Gravity Rentals","opening_hours":"24/7","operator":"High Gravity Rentals","outdoor":"yes","payment:credit_cards":"yes","shop":"rental","sport":"climbing"}},"11442643601":{"location":[34.0246362,-116.1799454],"ts":"2023-12-22T03:37:03Z","tz":-8,"tags":{"climbing":"route_bottom"}},"11442643602":{"location":[34.0245413,-116.1797791],"ts":"2023-12-22T03:37:03Z","tz":-8,"tags":{"climbing":"route_top"}},"11442643603":{"location":[34.0244108,-116.1798826],"ts":"2023-12-22T03:37:03Z","tz":-8,"tags":{"climbing":"route","climbing:grade:yds_class":"5.6","climbing:length":"20","climbing:pitches":"1","name":"Silkworm","sport":"climbing"}}}