{"15767612":{"location":[43.8271575,5.3858321],"ts":"2023-04-25T21:27:59Z","tz":1,"tags":{"climbing":"area","climbing:url:thecrag":"https://www.thecrag.com/12490303","name":"Escalade Buoux","sport":"climbing","type":"site"}},"121653505":{"location":[43.8233379,5.3827472],"ts":"2025-02-23T07:51:40Z","tz":1,"tags":{"name":"Falaise de Buoux","natural":"cliff","source":"bing","sport":"climbing"}},"536716035":{"location":[43.8290109,5.3934127],"ts":"2022-08-22T13:24:32Z","tz":1,"tags":{"name":"Falaise de Buoux","natural":"cliff","sport":"climbing"}},"943236315":{"location":[43.8242646,5.3755653],"ts":"2023-04-25T21:27:59Z","tz":1,"tags":{"natural":"cliff","source":"bing","sport":"climbing"}},"1244171808":{"location":[43.6766155,5.5034212],"ts":"2024-01-29T18:49:01Z","tz":1,"tags":{"addr:city":"Pertuis","addr:housenumber":"37","addr:postcode":"84120","addr:street":"Rue François Gernelle","building":"yes","fee":"yes","leisure":"sports_centre","name":"Bloc session","opening_hours":"Mo-Fr 12:00-22:00; Sa-Su 14:00-19:00","payment:cash":"yes","payment:credit_cards":"yes","phone":"+33 4 90 09 59 92","sport":"climbing","website":"https://www.blocsession.com/salle-escalade/aix-pertuis/"}},"4362041037":{"location":[43.6284669,5.5345502],"ts":"2016-08-29T10:45:25Z","tz":1,"tags":{"name":"Le Pas de l'Etroit","sport":"climbing"}},"4879667063":{"location":[43.8237233,5.3858464],"ts":"2023-04-25T21:27:59Z","tz":1,"tags":{"climbing:url:thecrag":"https://www.thecrag.com/14010241","name":"Secteur Nombril","sport":"climbing"}},"4879667064":{"location":[43.8221511,5.3771684],"ts":"2017-05-27T05:43:05Z","tz":1,"tags":{"name":"DSF","sport":"climbing"}},"10173891367":{"location":[43.6538401,5.3245956],"ts":"2022-11-10T15:58:10Z","tz":1,"tags":{"leisure":"sports_centre","source":"Le ministère de la ville, de la jeunesse et des sports - 2021-04","sport":"climbing","surface":"concrete"}},"11301705778":{"location":[43.7350978,5.3790371],"ts":"2023-10-31T08:16:00Z","tz":1,"tags":{"fixme":"position","leisure":"sports_centre","name":"Verti'Cade","note":"emplacement à vérifier","sport":"climbing","website":"http://verticade.fr/accueil/"}}}