{"88764819":{"location":[43.4802823,5.3741783],"ts":"2023-02-16T18:03:45Z","tz":1,"tags":{"building":"retail","name":"Salle d'escalade Climb up","official_name":"Grimper Aix-en-Provence","source":"cadastre-dgi-fr source : Direction Générale des Impôts - Cadastre. Mise à jour : 2010","sport":"climbing","website":"https://www.www.salle-grimper.com/"}},"179261661":{"location":[43.5099999,5.4681203],"ts":"2019-05-19T21:13:12Z","tz":1,"tags":{"leisure":"pitch","name":"Mur d'escalade","sport":"climbing"}},"214679567":{"location":[43.5289844,5.5802755],"ts":"2024-05-09T10:53:19Z","tz":1,"tags":{"bicycle":"no","climbing:grade:french:max":"3b","description":"Ancien sentier noir. Débute avec le couloir des Libellules. (à vérifier). Débalisé, déséquipé et considéré itinéraire d'escalade aventure (PD). Voir Camptocamp","highway":"path","hiking":"no","horse":"no","name":"(Ancien sentier noir)","ref:camptocamp":"../routes/55459","sac_scale":"difficult_alpine_hiking","sport":"climbing","trail_visibility":"bad","trailblazed":"no"}},"325114308":{"location":[43.5269868,5.5881193],"ts":"2019-10-12T10:07:48Z","tz":1,"tags":{"name":"Les Boulons","natural":"cliff","sport":"climbing"}},"403254455":{"location":[43.5330458,5.5711151],"ts":"2022-10-16T20:59:32Z","tz":1,"tags":{"ele":"600","mountain_pass":"yes","name":"Pas du Berger","natural":"rock","sport":"climbing"}},"414145762":{"location":[43.5272052,5.5855376],"ts":"2019-10-12T10:07:48Z","tz":1,"tags":{"natural":"cliff","sport":"climbing"}},"456572476":{"location":[43.5103638,5.4442157],"ts":"2024-11-17T20:16:16Z","tz":1,"tags":{"addr:city":"Aix-en-Provence","addr:postcode":"13100","addr:street":"Chemin du Viaduc","climbing":"sport","climbing:grade:french":"4c","description":"Parc d'accrobranche","fee":"yes","leisure":"sports_centre","name":"Indian Forest Aix en Provence","outdoor":"area","phone":"+33 6 29 28 23 77","sport":"climbing_adventure","website":"https://www.indianforest-aix.fr/","wikidata":"Q120300437"}},"456796478":{"location":[43.3712792,5.3348015],"ts":"2016-11-30T15:49:53Z","tz":1,"tags":{"natural":"cliff","sport":"climbing"}},"666261176":{"location":[43.4305928,5.3998163],"ts":"2022-02-11T17:01:08Z","tz":1,"tags":{"addr:city":"Bouc-Bel-Air","addr:postcode":"13320","addr:street":"RN8 Avenue des Chabauds","building":"yes","fee":"yes","indoor":"yes","leisure":"sports_centre","name":"Climb up","opening_hours":"Mo-Su 09:30-24:00","phone":"+33442697959","sauna":"yes","source":"cadastre-dgi-fr source : Direction Générale des Impôts - Cadastre. Mise à jour : 2019","sport":"climbing","website":"https://aix-boucbelair.climb-up.fr/"}},"733837908":{"location":[43.5263919,5.5910031],"ts":"2022-04-08T23:25:55Z","tz":1,"tags":{"natural":"cliff","sport":"climbing"}},"733984790":{"location":[43.5308699,5.5709053],"ts":"2024-12-17T14:02:35Z","tz":1,"tags":{"natural":"cliff","sport":"climbing"}},"1128424399":{"location":[43.5297333,5.6081247],"ts":"2023-01-09T10:21:10Z","tz":1,"tags":{"height":"500","name":"Secteur Paroi de la Vierge","natural":"cliff","sport":"climbing"}},"1200975380":{"location":[43.5311381,5.5721655],"ts":"2022-10-16T20:59:32Z","tz":1,"tags":{"ele":"622","mountain_pass":"yes","name":"Pas de la Savonette","natural":"rock","sport":"climbing"}},"1656011914":{"location":[43.5176404,5.4526868],"ts":"2012-03-02T14:35:02Z","tz":1,"tags":{"sport":"climbing"}},"2137776168":{"location":[43.5272556,5.5817952],"ts":"2022-10-16T20:59:32Z","tz":1,"tags":{"mountain_pass":"yes","name":"Pas de l'écaille de tortue","natural":"rock","sport":"climbing"}},"2187253344":{"location":[43.5262255,5.5923763],"ts":"2022-10-16T21:08:50Z","tz":1,"tags":{"mountain_pass":"yes","name":"Pas de l'éléphant","natural":"rock","sport":"climbing"}},"2938505186":{"location":[43.5326186,5.6208939],"ts":"2023-02-09T03:03:48Z","tz":1,"tags":{"name":"Sainte-Victoire du Baou des Vespres au Pilier du 6 Juin","natural":"cliff","source":"data.gouv.fr:Le ministère des droits des femmes, de la ville, de la jeunesse et des sports - 2014","sport":"climbing"}},"2938505313":{"location":[43.3482413,5.5707441],"ts":"2025-03-08T19:44:13Z","tz":1,"tags":{"name":"Grand Vallon","source":"data.gouv.fr:Le ministère des droits des femmes, de la ville, de la jeunesse et des sports - 2014","sport":"climbing"}},"2938505315":{"location":[43.337588,5.561926],"ts":"2014-06-29T07:13:31Z","tz":1,"tags":{"name":"Voie d'Escalade du Vallon des Dansaïres","source":"data.gouv.fr:Le ministère des droits des femmes, de la ville, de la jeunesse et des sports - 2014","sport":"climbing"}},"2938505316":{"location":[43.537834,5.56271],"ts":"2014-06-29T07:13:32Z","tz":1,"tags":{"name":"Voies d'Escalade de Costes Chaudes","source":"data.gouv.fr:Le ministère des droits des femmes, de la ville, de la jeunesse et des sports - 2014","sport":"climbing"}},"3814559036":{"location":[43.3339071,5.3731517],"ts":"2022-02-18T18:54:37Z","tz":1,"tags":{"addr:city":"Marseille","addr:housenumber":"27","leisure":"sports_centre","name":"Altissimo","opening_hours":"Mo,Fr 12:00-22:00; Tu-Th 12:00-22:30; Sa,Su 14:00-20:00","sport":"climbing"}},"6874304287":{"location":[43.5281684,5.6045692],"ts":"2022-10-16T21:08:50Z","tz":1,"tags":{"mountain_pass":"yes","name":"Pas du Clapier","natural":"rock","sport":"climbing"}},"8653968085":{"location":[43.3884538,5.5078176],"ts":"2021-04-22T04:04:40Z","tz":1,"tags":{"name":"Bau de l'Aigle","sport":"climbing"}},"9503661338":{"location":[43.3583034,5.3552119],"ts":"2022-02-13T23:16:02Z","tz":1,"tags":{"leisure":"sports_centre","source":"Le ministère de la ville, de la jeunesse et des sports - 2021-04","sport":"climbing"}},"10051791837":{"location":[43.5241843,5.5953193],"ts":"2022-10-16T21:08:50Z","tz":1,"tags":{"mountain_pass":"yes","name":"(Pas)","natural":"rock","sport":"climbing"}},"10091941385":{"location":[43.5304436,5.5793149],"ts":"2022-10-11T10:59:53Z","tz":1,"tags":{"climbing:trad":"yes","name":"Arête SW de la Croix","sport":"climbing"}},"10091941392":{"location":[43.5293711,5.5792004],"ts":"2022-10-11T10:59:53Z","tz":1,"tags":{"climbing:trad":"yes","name":"Arête du Jardin","sport":"climbing"}},"10316492696":{"location":[43.529751,5.6082805],"ts":"2023-02-07T12:39:40Z","tz":1,"tags":{"height":"500","name":"Voie Eperon de la Vierge","natural":"cliff","sport":"climbing"}},"11537909876":{"location":[43.53117,5.5029424],"ts":"2024-01-21T20:07:18Z","tz":1,"tags":{"climbing":"boulder","disused":"yes","landuse":"quarry","sport":"climbing"}},"12507118380":{"location":[43.3269403,5.5540532],"ts":"2025-01-16T14:32:23Z","tz":1,"tags":{"leisure":"sports_centre","sport":"climbing"}},"12534830424":{"location":[43.5276337,5.4367554],"ts":"2025-01-26T20:29:07Z","tz":1,"tags":{"check_date":"2025-01-26","climbing:boulder":"yes","email":"aixenprovence@blocsession.com","fee":"yes","leisure":"sports_centre","name":"Bloc Session","opening_hours":"Mo-Fr 11:00-22:00; Sa,Su 10:00-20:00","phone":"+33 4 42 53 77 62","source":"survey","sport":"climbing","website":"https://www.blocsession.com/salle-escalade/aix-en-provence/"}},"12645970941":{"location":[43.3475909,5.5722651],"ts":"2025-03-08T19:44:13Z","tz":1,"tags":{"sport":"climbing"}},"12668901262":{"location":[43.5283066,5.5769233],"ts":"2025-03-15T20:42:02Z","tz":1,"tags":{"climbing:grade:uiaa":"7-","fee":"no","leisure":"sports_centre","name":"Les dalles grises : Grand Dièdre Jaune","sport":"climbing","website":"https://www.camptocamp.org/routes/138252/fr/sainte-victoire-les-dalles-grises-grand-diedre-jaune"}}}