{"28048195":{"lat":43.2083624,"lon":5.4201118,"ts":"2024-11-21T07:49:24Z","tz":1,"tags":{"name":"L'Espigaw","name:oc":"L'Espigau","natural":"cliff","source:name:oc":"ieo-bdtopoc","sport":"climbing"}},"28048311":{"lat":43.2040332,"lon":5.4259226,"ts":"2008-10-27T14:03:07Z","tz":1,"tags":{"created_by":"Potlatch 0.10e","natural":"cliff","sport":"climbing"}},"30835170":{"lat":43.2128054,"lon":5.3921755,"ts":"2022-10-16T20:21:35Z","tz":1,"tags":{"mountain_pass":"yes","name":"Pas du Bénitier","natural":"rock","safety_rope":"yes","sport":"climbing"}},"30835175":{"lat":43.2131909,"lon":5.3968338,"ts":"2022-05-04T23:46:01Z","tz":1,"tags":{"name":"Ilette","natural":"cliff","sport":"climbing"}},"92603382":{"lat":43.2843835,"lon":5.579005,"ts":"2019-09-04T15:02:14Z","tz":1,"tags":{"building":"yes","leisure":"sports_centre","name":"Climb Up Aubagne","source":"cadastre-dgi-fr source : Direction Générale des Impôts - Cadastre. Mise à jour : 2010","sport":"climbing","website":"https://aubagne.climb-up.fr/"}},"153534427":{"lat":43.2674975,"lon":5.395327,"ts":"2023-04-24T16:58:13Z","tz":1,"tags":{"addr:city":"Marseille","addr:housenumber":"101","addr:postcode":"13009","addr:street":"Boulevard Michelet","building":"yes","fee":"yes","leisure":"sports_centre","name":"Arkose Prado","opening_hours":"Mo-Sa 08:00-24:00","payment:cash":"yes","payment:coins":"yes","payment:credit_cards":"yes","phone":"04 84 26 76 46","source":"cadastre-dgi-fr source : Direction Générale des Impôts - Cadastre. Mise à jour : 2012","sport":"climbing","start_date":"2018-03-27","website":"https://arkose.com/prado","wheelchair":"yes"}},"198958292":{"lat":43.2114137,"lon":5.4520285,"ts":"2023-03-15T15:03:47Z","tz":1,"tags":{"name":"Aiguille de Sugiton - Face SW","natural":"cliff","sport":"climbing"}},"244092466":{"lat":43.2162233,"lon":5.408539,"ts":"2022-08-26T08:31:11Z","tz":1,"tags":{"comment":"< occitan, prononciacion : /suR’miw/","grade":"4a - 5b+","height":"15 m","name":"Col de Sormiou (face Sud)","name:oc":"Adrech de Sormiu","natural":"cliff","source:name:oc":"ieo-bdtopoc","sport":"climbing"}},"244092467":{"lat":43.2135499,"lon":5.5243675,"ts":"2023-02-18T20:42:15Z","tz":1,"tags":{"height":"10 - 30 m","name":"Falaise du Calendal","natural":"cliff","sport":"climbing"}},"250955480":{"lat":43.2179437,"lon":5.3940261,"ts":"2023-01-12T21:14:43Z","tz":1,"tags":{"name":"Les Hauts des Walkyries","name:oc":"Lo Sobeiran dei Valkirias","natural":"cliff","source:name:oc":"ieo-bdtopoc","sport":"climbing"}},"268171955":{"lat":43.2313481,"lon":5.3524306,"ts":"2023-12-23T10:19:50Z","tz":1,"tags":{"climbing":"bouldering","name":"barre de Mont Rose","name:oc":"Bauç dau Mont Ròse","natural":"cliff","source:name:oc":"ieo-bdtopoc","sport":"climbing"}},"276290075":{"lat":43.1782491,"lon":5.5707574,"ts":"2023-02-06T14:59:01Z","tz":1,"tags":{"name":"Sémaphore (Rockclimbing Wall)","natural":"cliff","sport":"climbing","website":"https://climbingaway.fr/en/climbing-areas/le-semaphore"}},"281216339":{"lat":43.2319611,"lon":5.378745,"ts":"2022-09-29T13:53:19Z","tz":1,"tags":{"climbing:length":"20","climbing:sport":"80","name":"Falaise Pastré","name:oc":"Bauç Pastre","natural":"cliff","source":"Bing","source:name:oc":"ieo-bdtopoc","sport":"climbing"}},"287698652":{"lat":43.2258131,"lon":5.373525,"ts":"2022-09-15T16:17:09Z","tz":1,"tags":{"climbing:length":"25","climbing:sport":"30","name":"Le Massilia","natural":"cliff","source":"GPS","sport":"climbing"}},"311456141":{"lat":43.2084696,"lon":5.4334459,"ts":"2022-09-28T11:34:08Z","tz":1,"tags":{"name":"La Palée","name:oc":"La Palancada","natural":"cliff","source:name:oc":"ieo-bdtopoc","sport":"climbing"}},"311456143":{"lat":43.2045378,"lon":5.4253578,"ts":"2022-03-29T22:03:51Z","tz":1,"tags":{"natural":"cliff","sport":"climbing"}},"311456146":{"lat":43.208576,"lon":5.4446734,"ts":"2022-10-02T07:48:18Z","tz":1,"tags":{"name":"Falaise du Renard","name:oc":"Bauç dau Rainard","natural":"cliff","source:name:oc":"ieo-bdtopoc","sport":"climbing"}},"316846375":{"lat":43.2046143,"lon":5.488424,"ts":"2022-09-29T09:42:44Z","tz":1,"tags":{"name":"Le Vieil Homme et la Mer","name:oc":"L’Òme Vièlh e la Mar","natural":"cliff","source:name:oc":"ieo-bdtopoc","sport":"climbing"}},"318116796":{"lat":43.2146107,"lon":5.3612843,"ts":"2022-10-05T15:42:22Z","tz":1,"tags":{"climbing:length":"30","climbing:sport":"10","name":"Rocher des Goudes - Face nord","name:oc":"Rocàs dei Godas - Ubac","natural":"cliff","source":"Bing","source:name:oc":"ieo-bdtopoc","sport":"climbing"}},"318116797":{"lat":43.2145267,"lon":5.3612843,"ts":"2023-02-13T20:18:26Z","tz":1,"tags":{"climbing:length":"30","climbing:sport":"30","name":"Rocher des Goudes - Face sud","name:oc":"Rocàs dei Godas - Adrech","natural":"cliff","source":"Bing","source:name:oc":"ieo-bdtopoc","sport":"climbing"}},"318116798":{"lat":43.2150798,"lon":5.363088,"ts":"2024-07-14T10:15:45Z","tz":1,"tags":{"climbing:length":"30","climbing:sport":"10","name":"Arête des lames","name:oc":"Crestenc dei Lamas","natural":"arete","source":"Bing","source:name:oc":"ieo-bdtopoc","sport":"climbing"}},"325040454":{"lat":43.2177322,"lon":5.4516536,"ts":"2023-05-25T21:10:43Z","tz":1,"tags":{"climbing":"crag","climbing:bolted":"yes","climbing:grade:french:max":"8a","climbing:grade:french:min":"5c","climbing:orientation":"S","climbing:rock":"limestone","climbing:sport":"yes","name":"Le Virage","natural":"cliff","sport":"climbing"}},"325042356":{"lat":43.2144402,"lon":5.4567538,"ts":"2019-05-24T19:10:19Z","tz":1,"tags":{"climbing:bolted":"yes","climbing:rock":"limestone","climbing:sport":"yes","name":"Falaise Grotte de l'Ours","natural":"cliff","sport":"climbing"}},"371121175":{"lat":43.2163053,"lon":5.3608676,"ts":"2022-10-05T11:38:48Z","tz":1,"tags":{"climbing:length":"25","climbing:sport":"16","name":"L'escalier des Géants — Falaise de droite","name:oc":"L’Escala dei Gigants - Bauç Drechier","natural":"cliff","source:name:oc":"ieo-bdtopoc","sport":"climbing"}},"371121180":{"lat":43.2166168,"lon":5.3607338,"ts":"2020-04-27T16:46:45Z","tz":1,"tags":{"climbing:length":"20","climbing:sport":"30","name":"L'escalier des Géants — Falaise de gauche","natural":"cliff","sport":"climbing"}},"371124116":{"lat":43.2145355,"lon":5.4270416,"ts":"2023-12-23T10:19:50Z","tz":1,"tags":{"climbing:length":"30","climbing:sport":"35","name":"Le Bauç Rond","name:fr":"Chemin de la Falaise Ronde","name:oc":"Camin dau Bauç Redon","natural":"cliff","source":"Bing","source:name:oc":"ieo-bdtopoc","sport":"climbing"}},"379469091":{"lat":43.2161849,"lon":5.36548,"ts":"2024-07-14T10:15:45Z","tz":1,"tags":{"name":"Face S du rocher Saint-Michel","natural":"cliff","sport":"climbing"}},"379469092":{"lat":43.2165449,"lon":5.363706,"ts":"2022-05-04T19:50:35Z","tz":1,"tags":{"name":"Face ouest du Rocher Saint-Michel","natural":"cliff","sport":"climbing"}},"380548361":{"lat":43.2197846,"lon":5.3724804,"ts":"2022-05-04T20:32:14Z","tz":1,"tags":{"natural":"cliff","sport":"climbing"}},"380548365":{"lat":43.2114404,"lon":5.4524912,"ts":"2023-03-15T15:03:47Z","tz":1,"tags":{"name":"Aiguille de Sugiton - Face SE","natural":"cliff","sport":"climbing"}},"380548366":{"lat":43.2170342,"lon":5.4427257,"ts":"2023-03-15T15:03:47Z","tz":1,"tags":{"name":"Crêt Saint-Michel","name:oc":"Crestenc de Sant Michèu","natural":"cliff","source:name:oc":"ieo-bdtopoc","sport":"climbing"}},"380548367":{"lat":43.2114308,"lon":5.4633624,"ts":"2022-09-26T13:37:26Z","tz":1,"tags":{"comment":"< occitan Candèla; fr. Chandelle","name":"Socle de la Candelle","name:oc":"Pè de La Candèla","natural":"cliff","source:name:oc":"ieo-bdtopoc","sport":"climbing"}},"381787098":{"lat":43.2057339,"lon":5.4225571,"ts":"2015-11-21T18:37:43Z","tz":1,"tags":{"climbing:bolted":"yes","climbing:rock":"limestone","climbing:sport":"yes","name":"Falaise Lui d'Ai","natural":"cliff","sport":"climbing"}},"446414911":{"lat":43.3078282,"lon":5.4476573,"ts":"2019-06-04T06:23:40Z","tz":1,"tags":{"leisure":"pitch","pitch":"climbingwall","source":"BD Ortho IGN","sport":"climbing"}},"452390477":{"lat":43.244956,"lon":5.3979437,"ts":"2016-11-15T13:46:24Z","tz":1,"tags":{"building":"yes","leisure":"pitch","source":"cadastre-dgi-fr source : Direction Générale des Impôts - Cadastre. Mise à jour : 2016","sport":"climbing","wall":"no"}},"455502545":{"lat":43.2058885,"lon":5.4841738,"ts":"2024-01-14T19:48:22Z","tz":1,"tags":{"name":"Falaises du Devenson","name:oc":"Serre dau Deversan","natural":"cliff","source:name:oc":"ieo-bdtopoc","sport":"climbing"}},"455502548":{"lat":43.2104726,"lon":5.4715856,"ts":"2023-02-18T17:18:57Z","tz":1,"tags":{"natural":"cliff","sport":"climbing"}},"456652817":{"lat":43.2074995,"lon":5.4178939,"ts":"2019-10-16T13:16:50Z","tz":1,"tags":{"name":"Rumpe Cuou","natural":"cliff","sport":"climbing"}},"458788012":{"lat":43.2160773,"lon":5.440188,"ts":"2023-02-08T18:19:49Z","tz":1,"tags":{"name":"La Roche Percée","name:oc":"La Ròca Traucada","natural":"cliff","source:name:oc":"ieo-bdtopoc","sport":"climbing"}},"459575294":{"lat":43.2030762,"lon":5.4979346,"ts":"2022-12-08T08:12:43Z","tz":1,"tags":{"name":"Saphir","name:oc":"Safir","natural":"arete","source":"camptocamp","source:name:oc":"ieo-bdtopoc","sport":"climbing"}},"459584594":{"lat":43.2174674,"lon":5.3553986,"ts":"2022-10-05T15:04:31Z","tz":1,"tags":{"name":"Le Lapinodrome","name:oc":"La Conilhiera","natural":"cliff","source:name:oc":"ieo-bdtopoc","sport":"climbing"}},"459584595":{"lat":43.2178067,"lon":5.3578189,"ts":"2024-12-23T10:16:06Z","tz":1,"tags":{"climbing":"crag","climbing:sport":"yes","name":"Alpinodrome","natural":"cliff","sport":"climbing"}},"459584596":{"lat":43.2177533,"lon":5.3581582,"ts":"2022-04-29T21:27:24Z","tz":1,"tags":{"name":"Alpinodrome","natural":"cliff","sport":"climbing"}},"459584598":{"lat":43.2199445,"lon":5.3579798,"ts":"2016-12-14T14:07:33Z","tz":1,"tags":{"name":"Jardin d'Enfants","natural":"cliff","sport":"climbing"}},"459584599":{"lat":43.2194007,"lon":5.3604973,"ts":"2023-02-13T20:18:26Z","tz":1,"tags":{"natural":"cliff","source:name":"local knowledge","sport":"climbing"}},"459615728":{"lat":43.2091992,"lon":5.4723079,"ts":"2024-05-17T18:02:57Z","tz":1,"tags":{"name":"Paroi de la Concave","name:oc":"Paret Concava","natural":"cliff","source:name:oc":"ieo-bdtopoc","sport":"climbing"}},"459623467":{"lat":43.215048,"lon":5.3882284,"ts":"2022-09-28T16:32:51Z","tz":1,"tags":{"name":"Le Mur","name:oc":"La Paret","natural":"cliff","source:name:oc":"ieo-bdtopoc","sport":"climbing"}},"459839483":{"lat":43.2180105,"lon":5.361889,"ts":"2022-04-29T21:39:18Z","tz":1,"tags":{"name":"Dalles du Perdreau","natural":"cliff","sport":"climbing"}},"459848404":{"lat":43.2282948,"lon":5.3665964,"ts":"2022-11-18T00:55:42Z","tz":1,"tags":{"climbing":"crag","name":"La Bergerie","name:oc":"La Jaça","natural":"cliff","source:name:oc":"ieo-bdtopoc","sport":"climbing"}},"459883482":{"lat":43.2129815,"lon":5.4630686,"ts":"2023-03-15T16:47:20Z","tz":1,"tags":{"name":"La Cathédrale","name:oc":"La Catedrala","natural":"cliff","source:name:oc":"ieo-bdtopoc","sport":"climbing"}},"459916902":{"lat":43.2076155,"lon":5.4758439,"ts":"2023-12-23T10:19:50Z","tz":1,"tags":{"name":"Falaises du Devenson","name:oc":"Serre dau Deversan","natural":"cliff","source:name:oc":"ieo-bdtopoc","sport":"climbing"}},"460029376":{"lat":43.2109904,"lon":5.4711699,"ts":"2024-11-26T17:03:37Z","tz":1,"tags":{"bicycle":"no","description":"Balisage noir non officiel. Il y a des passages vraiment délicats et exposés, un peu d'escalade (Ne pas pratiquer en descente !). Présence d'une chaine sur le pas le plus délicat. Selon la cotation de la FFRP, la technicité est de 5, soit difficile.","foot":"yes","highway":"path","horse":"no","incline":"75°","name":"Cheminée du CAF","name:oc":"Caminada dau CAF","ref:refuges.info":"6832","sac_scale":"demanding_alpine_hiking","safety_rope":"chain","source:name:oc":"ieo-bdtopoc","sport":"climbing","trail_visibility":"intermediate","trailblazed":"yes"}},"460037278":{"lat":43.2036669,"lon":5.4483833,"ts":"2024-05-17T18:02:57Z","tz":1,"tags":{"name":"Falaise de la Voile","name:oc":"Bauç de la Vela","natural":"cliff","note":"scree in rel.","source:name:oc":"ieo-bdtopoc","sport":"climbing"}},"460037279":{"lat":43.2042497,"lon":5.4518128,"ts":"2020-04-11T13:10:27Z","tz":1,"tags":{"natural":"cliff","note":"scree in rel.","sport":"climbing"}},"460037280":{"lat":43.2022663,"lon":5.4515257,"ts":"2023-02-23T20:22:10Z","tz":1,"tags":{"natural":"cliff","note":"scree in rel.","sport":"climbing"}},"460037281":{"lat":43.2055458,"lon":5.44192,"ts":"2022-09-27T11:46:28Z","tz":1,"tags":{"name":"Falaise du Cancéou","name:oc":"Bauç dau Lançòu","natural":"cliff","source:name:oc":"ieo-bdtopoc","sport":"climbing"}},"463296182":{"lat":43.2523144,"lon":5.3750152,"ts":"2024-11-24T18:31:34Z","tz":1,"tags":{"climbing":"bouldering","leisure":"pitch","lit":"no","maxheight":"3 m","name":"Blocs du Prado","note":"Entre le terrain de jeu pour enfant (playground=climbingwall) et la véritable SAE de bloc (leisure=sports_centre + sport=climbing)","playground":"climbingwall","sport":"climbing","start_date":"2012","surface":"gravel","url":"http://www.entre-prises.fr/realisation/bloc-du-prado/"}},"480404946":{"lat":43.2261549,"lon":5.4199676,"ts":"2022-08-21T11:06:08Z","tz":1,"tags":{"comment":"occitan: s'escampar, s'échapper","name":"Lei Escampons","name:oc":"Bauç deis Escampons","natural":"cliff","source:name:oc":"ieo-bdtopoc","sport":"climbing"}},"480420872":{"lat":43.2223242,"lon":5.4176869,"ts":"2017-03-14T14:26:13Z","tz":1,"tags":{"name":"Les Évadés","natural":"cliff","sport":"climbing"}},"480420876":{"lat":43.2230776,"lon":5.418693,"ts":"2019-03-13T08:04:10Z","tz":1,"tags":{"climbing:multipitch":"no","climbing:rock":"limestone","climbing:sport":"yes","name":"Colline de Lune","natural":"cliff","sport":"climbing"}},"480420877":{"lat":43.2217286,"lon":5.4176455,"ts":"2022-03-29T20:36:05Z","tz":1,"tags":{"natural":"cliff","sport":"climbing"}},"480420882":{"lat":43.2245814,"lon":5.4068958,"ts":"2017-03-14T14:26:13Z","tz":1,"tags":{"name":"Arête de l'Arénas","natural":"cliff","sport":"climbing"}},"480420883":{"lat":43.2241636,"lon":5.4078169,"ts":"2017-03-21T14:59:43Z","tz":1,"tags":{"name":"Le Rouge","natural":"cliff","sport":"climbing"}},"480420885":{"lat":43.221615,"lon":5.4098197,"ts":"2017-05-05T15:54:36Z","tz":1,"tags":{"name":"Colline de Lun","natural":"cliff","sport":"climbing"}},"481008469":{"lat":43.2168764,"lon":5.4422276,"ts":"2023-03-15T15:03:47Z","tz":1,"tags":{"name":"Crêt Saint-Michel (Crêche)","name:oc":"Crestenc de Sant Michèu (Belem)","natural":"cliff","source:name:oc":"ieo-bdtopoc","sport":"climbing"}},"481008470":{"lat":43.216552,"lon":5.4429512,"ts":"2023-03-15T15:03:47Z","tz":1,"tags":{"climbing:multipitch":"yes","climbing:rock":"limestone","climbing:sport":"yes","name":"Crêt Saint-Michel (Grand Plec)","name:oc":"Crestenc de Sant Michèu (Grand Plec)","natural":"cliff","source:name:oc":"ieo-bdtopoc","sport":"climbing"}},"481008471":{"lat":43.2162327,"lon":5.4440145,"ts":"2022-09-26T13:37:26Z","tz":1,"tags":{"name":"Crêt Saint-Michel (la Zi)","name:oc":"Crestenc de Sant Michèu (la ZI)","natural":"cliff","source:name:oc":"ieo-bdtopoc","sport":"climbing"}},"481008472":{"lat":43.2158539,"lon":5.4445509,"ts":"2022-09-26T13:37:26Z","tz":1,"tags":{"name":"Crêt Saint-Michel","name:oc":"Crestenc de Sant Michèu","natural":"cliff","source:name:oc":"ieo-bdtopoc","sport":"climbing"}},"481008473":{"lat":43.21527,"lon":5.4450736,"ts":"2022-09-26T13:37:26Z","tz":1,"tags":{"name":"Crêt Saint-Michel (Polka)","name:oc":"Crestenc de Sant Michèu (Polcà)","natural":"cliff","source:name:oc":"ieo-bdtopoc","sport":"climbing"}},"481611433":{"lat":43.2139325,"lon":5.413374,"ts":"2022-09-28T11:34:08Z","tz":1,"tags":{"name":"La Pinède","name:oc":"La Pineda","natural":"cliff","source:name:oc":"ieo-bdtopoc","sport":"climbing"}},"488010824":{"lat":43.2318581,"lon":5.3821975,"ts":"2021-04-14T18:14:17Z","tz":1,"tags":{"name":"Falaise de Parangon","natural":"cliff","sport":"climbing"}},"488010825":{"lat":43.234021,"lon":5.3878524,"ts":"2023-02-13T20:00:25Z","tz":1,"tags":{"natural":"cliff","sport":"climbing"}},"488010826":{"lat":43.2282998,"lon":5.3878818,"ts":"2022-09-23T08:45:45Z","tz":1,"tags":{"name":"Falaise d'En Jarre","name:oc":"Bauç d’En Jarra","natural":"cliff","source:name:oc":"ieo-bdtopoc","sport":"climbing"}},"488010827":{"lat":43.2291793,"lon":5.386826,"ts":"2017-04-19T14:00:35Z","tz":1,"tags":{"name":"La Ruche","natural":"cliff","sport":"climbing"}},"491624990":{"lat":43.2172401,"lon":5.4098073,"ts":"2022-08-26T08:31:11Z","tz":1,"tags":{"grade":"4a - 5b+","name":"Col de Sormiou (face Nord)","name:oc":"Ubac de Sormiu","natural":"cliff","source:name:oc":"ieo-bdtopoc","sport":"climbing"}},"633030063":{"lat":43.2213723,"lon":5.3517389,"ts":"2022-10-16T20:42:44Z","tz":1,"tags":{"ele":"85","mountain_pass":"yes","name":"Pas Edgard Garrigue","name:oc":"Pas Edgard Garriga","natural":"rock","source:name:oc":"ieo-bdtopoc","sport":"climbing"}},"643761777":{"lat":43.2111632,"lon":5.4340796,"ts":"2022-04-08T23:04:52Z","tz":1,"tags":{"name":"Arche Perdue","natural":"cliff","sport":"climbing"}},"676485291":{"lat":43.2098544,"lon":5.4628696,"ts":"2019-03-13T08:38:52Z","tz":1,"tags":{"climbing":"route","climbing:bolted":"yes","climbing:grade:french:max":"6a","climbing:grade:french:min":"5a","climbing:multipitch":"yes","climbing:pitches":"9","climbing:rock":"limestone","climbing:sport":"yes","name":"Traversée de la Commune","sport":"climbing"}},"686046721":{"lat":43.212971,"lon":5.4543455,"ts":"2022-11-13T18:56:17Z","tz":1,"tags":{"name":"Falaise des Toits","name:oc":"Bauç dei Teulissas","natural":"cliff","source:name:oc":"ieo-bdtopoc","sport":"climbing"}},"747144048":{"lat":43.2167261,"lon":5.3920188,"ts":"2024-04-20T08:17:17Z","tz":1,"tags":{"mountain_pass":"yes","name":"Pas de la Melette","name:oc":"Pas de la Meleta","natural":"rock","source:name:oc":"ieo-bdtopoc","sport":"climbing"}},"751322314":{"lat":43.2042252,"lon":5.4478688,"ts":"2022-07-16T20:11:09Z","tz":1,"tags":{"name":"Falaise de la Voile","natural":"cliff","sport":"climbing"}},"752983213":{"lat":43.2037783,"lon":5.4538785,"ts":"2020-04-11T13:10:27Z","tz":1,"tags":{"name":"Bora Bora","natural":"cliff","sport":"climbing"}},"828153410":{"lat":43.2773838,"lon":5.4167646,"ts":"2020-07-22T09:45:53Z","tz":1,"tags":{"leisure":"pitch","pitch":"climbingwall","sport":"climbing"}},"878257549":{"lat":43.2117798,"lon":5.4671628,"ts":"2022-04-17T21:29:35Z","tz":1,"tags":{"name":"Candelle","natural":"cliff","sport":"climbing"}},"1050416490":{"lat":43.2098206,"lon":5.4337002,"ts":"2022-04-08T23:04:52Z","tz":1,"tags":{"natural":"cliff","sport":"climbing"}},"1050416491":{"lat":43.209912,"lon":5.4342795,"ts":"2022-10-02T07:48:18Z","tz":1,"tags":{"name":"Le cirque","name:oc":"Lo Circ","natural":"cliff","source:name:oc":"ieo-bdtopoc","sport":"climbing"}},"1055222486":{"lat":43.2072338,"lon":5.4781365,"ts":"2023-02-18T17:18:57Z","tz":1,"tags":{"name":"Falaises du Devenson","name:oc":"Serre dau Deversan","natural":"cliff","sport":"climbing"}},"1056098042":{"lat":43.2204676,"lon":5.3599347,"ts":"2022-04-29T21:18:51Z","tz":1,"tags":{"natural":"cliff","source:name":"local knowledge","sport":"climbing"}},"1056098043":{"lat":43.2198943,"lon":5.3600505,"ts":"2022-04-29T21:18:51Z","tz":1,"tags":{"name":"Flammes de Pierre","natural":"cliff","source:name":"local knowledge","sport":"climbing"}},"1056109184":{"lat":43.2178634,"lon":5.3643554,"ts":"2022-04-29T22:12:25Z","tz":1,"tags":{"natural":"cliff","sport":"climbing"}},"1062465778":{"lat":43.2038037,"lon":5.4986086,"ts":"2022-05-21T23:00:15Z","tz":1,"tags":{"name":"Falaises d'En-Vau","natural":"cliff","sport":"climbing"}},"1068926879":{"lat":43.2099812,"lon":5.465894,"ts":"2022-06-12T10:35:40Z","tz":1,"tags":{"name":"Socle de la Candelle","natural":"cliff","sport":"climbing"}},"1105440189":{"lat":43.2199871,"lon":5.3643773,"ts":"2022-10-16T20:21:35Z","tz":1,"tags":{"comment":"< occitan Pas+Pin;fr. col+pin","ele":"255","mountain_pass":"yes","name":"Pas du Pin","name:oc":"Pas dau Pin","natural":"rock","source:name:oc":"ieo-bdtopoc","sport":"climbing"}},"1115097379":{"lat":43.2278476,"lon":5.3668881,"ts":"2022-11-18T00:55:42Z","tz":1,"tags":{"climbing":"crag","name":"La Bergerie","name:oc":"La Jaça","natural":"cliff","source:name:oc":"ieo-bdtopoc","sport":"climbing"}},"1115097380":{"lat":43.2276023,"lon":5.3668008,"ts":"2022-11-18T00:55:42Z","tz":1,"tags":{"climbing":"crag","name":"La Bergerie","name:oc":"La Jaça","natural":"cliff","source:name:oc":"ieo-bdtopoc","sport":"climbing"}},"1138267286":{"lat":43.1775385,"lon":5.569797,"ts":"2023-02-06T14:59:01Z","tz":1,"tags":{"name":"Cirque du 14 juillet","natural":"cliff","sport":"climbing"}},"1138293814":{"lat":43.2017722,"lon":5.5527962,"ts":"2023-02-06T11:30:47Z","tz":1,"tags":{"name":"Secteur : Tour Carrée","natural":"cliff","sport":"climbing"}},"1138293815":{"lat":43.2002696,"lon":5.5524182,"ts":"2023-02-10T20:47:29Z","tz":1,"tags":{"name":"Secteur Ouvreur de bouse","natural":"cliff","sport":"climbing"}},"1138293816":{"lat":43.2032154,"lon":5.5536141,"ts":"2023-02-10T20:47:29Z","tz":1,"tags":{"name":"Secteur Jas de la Penna","natural":"cliff","sport":"climbing"}},"1138293817":{"lat":43.1966867,"lon":5.5521226,"ts":"2023-02-10T20:47:29Z","tz":1,"tags":{"name":"Secteur Cathédrale","natural":"cliff","sport":"climbing"}},"1138293818":{"lat":43.1950413,"lon":5.5526491,"ts":"2023-02-06T11:30:47Z","tz":1,"tags":{"name":"Secteur Ciao Bella","natural":"cliff","sport":"climbing"}},"1138293819":{"lat":43.1932581,"lon":5.5537638,"ts":"2023-02-06T11:30:47Z","tz":1,"tags":{"name":"Secteur Ombre du Néant","natural":"cliff","sport":"climbing"}},"1138293820":{"lat":43.1858562,"lon":5.561078,"ts":"2023-02-06T11:30:47Z","tz":1,"tags":{"name":"Secteur Grotte des Émigrés","natural":"cliff","sport":"climbing"}},"1138293821":{"lat":43.1855169,"lon":5.5622042,"ts":"2023-02-06T11:30:47Z","tz":1,"tags":{"name":"Secteur La boule des Émigrés - partie gauche","natural":"cliff","sport":"climbing"}},"1138293822":{"lat":43.185109,"lon":5.562679,"ts":"2023-02-06T11:30:47Z","tz":1,"tags":{"name":"Secteur La Boule des Émigrés - partie droite","natural":"cliff","sport":"climbing"}},"1138355484":{"lat":43.1842467,"lon":5.5635208,"ts":"2023-02-06T14:59:01Z","tz":1,"tags":{"name":"Secteur Belvédère","natural":"cliff","sport":"climbing"}},"1138355485":{"lat":43.183549,"lon":5.5642815,"ts":"2023-02-06T14:59:01Z","tz":1,"tags":{"name":"Secteur Effet Papillon","natural":"cliff","sport":"climbing"}},"1138355486":{"lat":43.182487,"lon":5.5647092,"ts":"2023-02-06T14:59:01Z","tz":1,"tags":{"name":"Secteur Albert","natural":"cliff","sport":"climbing"}},"1138355487":{"lat":43.1814761,"lon":5.5657242,"ts":"2023-02-06T14:59:01Z","tz":1,"tags":{"name":"Secteur Grand Draïoun","natural":"cliff","sport":"climbing"}},"1138355488":{"lat":43.1804943,"lon":5.5664603,"ts":"2023-05-08T09:30:54Z","tz":1,"tags":{"name":"Secteur Le pas de la chèvre","natural":"cliff","sport":"climbing"}},"1138355489":{"lat":43.1797367,"lon":5.5672948,"ts":"2023-05-08T09:30:54Z","tz":1,"tags":{"name":"Secteur Cap Canaveral","natural":"cliff","sport":"climbing"}},"1138355491":{"lat":43.1790508,"lon":5.5683421,"ts":"2023-05-08T09:30:54Z","tz":1,"tags":{"name":"Secteur Saphira","natural":"cliff","sport":"climbing"}},"1138355492":{"lat":43.1782867,"lon":5.5689905,"ts":"2023-05-08T09:30:54Z","tz":1,"tags":{"name":"Secteur Grande Bleue","natural":"cliff","sport":"climbing"}},"1138355493":{"lat":43.1764717,"lon":5.5713111,"ts":"2023-02-06T14:59:01Z","tz":1,"tags":{"name":"Secteur le Pendule","natural":"cliff","sport":"climbing"}},"1138355494":{"lat":43.1748954,"lon":5.5734374,"ts":"2023-02-06T14:59:01Z","tz":1,"tags":{"name":"Secteur Damoclès","natural":"cliff","sport":"climbing"}},"1138355495":{"lat":43.1738008,"lon":5.5749,"ts":"2023-02-06T14:59:01Z","tz":1,"tags":{"name":"Secteur Notre Dame des Falaises","natural":"cliff","sport":"climbing"}},"1138355498":{"lat":43.1783831,"lon":5.5711626,"ts":"2023-02-06T14:59:01Z","tz":1,"tags":{"name":"Secteur Nabacuc","natural":"cliff","sport":"climbing"}},"1138355499":{"lat":43.1776715,"lon":5.571203,"ts":"2023-02-06T14:59:01Z","tz":1,"tags":{"name":"Secteur Piou Piou","natural":"cliff","sport":"climbing"}},"1138355500":{"lat":43.1778389,"lon":5.5712509,"ts":"2023-02-06T14:59:01Z","tz":1,"tags":{"name":"Secteur Le petit Pou Dingue","natural":"cliff","sport":"climbing"}},"1138355501":{"lat":43.1780698,"lon":5.579276,"ts":"2023-02-06T14:59:01Z","tz":1,"tags":{"name":"Secteur Fontaine","natural":"cliff","sport":"climbing"}},"1138416422":{"lat":43.1621449,"lon":5.6058723,"ts":"2023-02-06T18:14:17Z","tz":1,"tags":{"name":"Secteur Le Mugel","natural":"cliff","sport":"climbing"}},"1138416425":{"lat":43.1666444,"lon":5.5964472,"ts":"2023-02-06T18:14:17Z","tz":1,"tags":{"name":"Secteur de la Plage","natural":"cliff","sport":"climbing"}},"1138416426":{"lat":43.1656031,"lon":5.5948279,"ts":"2023-02-06T18:14:17Z","tz":1,"tags":{"name":"Secteur Le Capucin","natural":"cliff","sport":"climbing"}},"1138416427":{"lat":43.1924037,"lon":5.5844589,"ts":"2023-02-06T18:14:17Z","tz":1,"tags":{"name":"Secteur Le Puits Ciotaden","natural":"cliff","sport":"climbing"}},"1138416429":{"lat":43.1914798,"lon":5.5812994,"ts":"2023-02-06T18:14:17Z","tz":1,"tags":{"name":"Secteur Le Portail","natural":"cliff","sport":"climbing"}},"1138416431":{"lat":43.1901472,"lon":5.579935,"ts":"2023-02-06T18:14:17Z","tz":1,"tags":{"name":"Secteur SDF Loisir","natural":"cliff","sport":"climbing"}},"1138416432":{"lat":43.1898077,"lon":5.5799459,"ts":"2023-02-06T18:14:17Z","tz":1,"tags":{"name":"Secteur SDF","natural":"cliff","sport":"climbing"}},"1138416433":{"lat":43.1870225,"lon":5.5774828,"ts":"2023-02-06T18:14:17Z","tz":1,"tags":{"name":"Secteur Pin Pon","natural":"cliff","sport":"climbing"}},"1138416434":{"lat":43.1867165,"lon":5.5769789,"ts":"2023-02-06T18:14:17Z","tz":1,"tags":{"name":"Secteur Jeux de Boules","natural":"cliff","sport":"climbing"}},"1138416435":{"lat":43.1864446,"lon":5.5756346,"ts":"2023-02-06T18:14:17Z","tz":1,"tags":{"name":"Secteur Frigo","natural":"cliff","sport":"climbing"}},"1138416437":{"lat":43.1860831,"lon":5.5752233,"ts":"2023-02-06T18:14:17Z","tz":1,"tags":{"name":"Secteur Sonic","natural":"cliff","sport":"climbing"}},"1138416438":{"lat":43.1857462,"lon":5.5747066,"ts":"2023-02-06T18:14:17Z","tz":1,"tags":{"name":"Secteur Papillons","natural":"cliff","sport":"climbing"}},"1138416439":{"lat":43.1890799,"lon":5.5771723,"ts":"2023-02-06T18:14:17Z","tz":1,"tags":{"name":"Secteur Les Deux Fissures","natural":"cliff","sport":"climbing"}},"1138416440":{"lat":43.1890143,"lon":5.5769243,"ts":"2023-02-06T18:14:17Z","tz":1,"tags":{"name":"Secteur Mini","natural":"cliff","sport":"climbing"}},"1138416441":{"lat":43.1888522,"lon":5.5766439,"ts":"2023-02-06T18:14:17Z","tz":1,"tags":{"name":"Secteur Carotte","natural":"cliff","sport":"climbing"}},"1138416442":{"lat":43.1887251,"lon":5.5761849,"ts":"2023-02-06T18:14:17Z","tz":1,"tags":{"name":"Secteur Ecorider","natural":"cliff","sport":"climbing"}},"1138416443":{"lat":43.188456,"lon":5.5754724,"ts":"2023-02-06T18:14:17Z","tz":1,"tags":{"name":"Secteur Face Nord","natural":"cliff","sport":"climbing"}},"1138416444":{"lat":43.1882485,"lon":5.5750765,"ts":"2023-02-06T18:14:17Z","tz":1,"tags":{"name":"Secteur Le Côté Obscure","natural":"cliff","sport":"climbing"}},"1138416445":{"lat":43.1878954,"lon":5.5748668,"ts":"2023-02-06T18:14:17Z","tz":1,"tags":{"name":"Secteur Avec Vue sur la Mer","natural":"cliff","sport":"climbing"}},"1138416446":{"lat":43.188007,"lon":5.5756547,"ts":"2023-02-06T18:14:17Z","tz":1,"tags":{"name":"Secteur Fissures","natural":"cliff","sport":"climbing"}},"1138416447":{"lat":43.1879891,"lon":5.5761694,"ts":"2023-02-06T18:14:17Z","tz":1,"tags":{"name":"Secteur Grisbi","natural":"cliff","sport":"climbing"}},"1138416448":{"lat":43.1882394,"lon":5.5769293,"ts":"2023-02-06T18:14:17Z","tz":1,"tags":{"name":"Secteur Blade","natural":"cliff","sport":"climbing"}},"1138416450":{"lat":43.1886032,"lon":5.5776205,"ts":"2023-02-06T18:14:17Z","tz":1,"tags":{"name":"Secteur Dièdre","natural":"cliff","sport":"climbing"}},"1138416451":{"lat":43.1862979,"lon":5.5729347,"ts":"2023-02-06T18:14:17Z","tz":1,"tags":{"name":"Secteur Artistes","natural":"cliff","sport":"climbing"}},"1138416452":{"lat":43.1869165,"lon":5.572351,"ts":"2023-02-06T18:14:17Z","tz":1,"tags":{"name":"Secteur So British","natural":"cliff","sport":"climbing"}},"1138416454":{"lat":43.1884356,"lon":5.5708218,"ts":"2023-02-06T18:14:17Z","tz":1,"tags":{"name":"Secteur Home Invisible : Secteur Face Nord","natural":"cliff","sport":"climbing"}},"1138416455":{"lat":43.1886394,"lon":5.5711065,"ts":"2023-02-06T18:14:17Z","tz":1,"tags":{"name":"Secteur Home Invisible : Face Ouest","natural":"cliff","sport":"climbing"}},"1138648981":{"lat":43.1829577,"lon":5.5739572,"ts":"2023-02-07T10:25:28Z","tz":1,"tags":{"name":"Secteur Grotte du Graal","natural":"cliff","sport":"climbing"}},"1138648982":{"lat":43.1827165,"lon":5.5735937,"ts":"2023-02-07T10:25:28Z","tz":1,"tags":{"name":"Secteur Les Lierres","natural":"cliff","sport":"climbing"}},"1138648983":{"lat":43.182764,"lon":5.5734379,"ts":"2023-02-07T10:25:28Z","tz":1,"tags":{"name":"Secteur L'Abri du Renard","natural":"cliff","sport":"climbing"}},"1138648984":{"lat":43.1828869,"lon":5.5708665,"ts":"2023-02-07T10:25:28Z","tz":1,"tags":{"name":"Secteur La Vanoise","natural":"cliff","sport":"climbing"}},"1138648985":{"lat":43.1827691,"lon":5.5691364,"ts":"2023-02-07T10:25:28Z","tz":1,"tags":{"name":"Secteur Sylvebarde","natural":"cliff","sport":"climbing"}},"1138648986":{"lat":43.1831453,"lon":5.5688016,"ts":"2023-02-07T10:25:28Z","tz":1,"tags":{"name":"Secteur Basraf'","natural":"cliff","sport":"climbing"}},"1138648987":{"lat":43.1833714,"lon":5.568495,"ts":"2023-02-07T10:25:28Z","tz":1,"tags":{"name":"Secteur Solstice","natural":"cliff","sport":"climbing"}},"1138648988":{"lat":43.1835638,"lon":5.5682529,"ts":"2023-02-07T10:25:28Z","tz":1,"tags":{"name":"Secteur Zone Rouge","natural":"cliff","sport":"climbing"}},"1138648989":{"lat":43.1837477,"lon":5.5679843,"ts":"2023-02-07T10:25:28Z","tz":1,"tags":{"name":"Secteur Alvéole","natural":"cliff","sport":"climbing"}},"1138648990":{"lat":43.1839233,"lon":5.5677374,"ts":"2023-02-07T10:25:28Z","tz":1,"tags":{"name":"Secteur Cool Raoul","natural":"cliff","sport":"climbing"}},"1138648991":{"lat":43.1842415,"lon":5.5675304,"ts":"2023-02-07T10:25:28Z","tz":1,"tags":{"name":"Secteur Minor","natural":"cliff","sport":"climbing"}},"1138648992":{"lat":43.1858466,"lon":5.5701232,"ts":"2023-02-07T10:25:28Z","tz":1,"tags":{"name":"Secteur Baou Rous","natural":"cliff","sport":"climbing"}},"1139811252":{"lat":43.2166325,"lon":5.4399264,"ts":"2023-02-08T18:19:49Z","tz":1,"tags":{"name":"La Roche Percée","name:oc":"La Ròca Traucada","natural":"cliff","source:name:oc":"ieo-bdtopoc","sport":"climbing"}},"1139811254":{"lat":43.2163659,"lon":5.4395138,"ts":"2023-02-08T18:19:49Z","tz":1,"tags":{"name":"La Roche Percée","name:oc":"La Ròca Traucada","natural":"cliff","source:name:oc":"ieo-bdtopoc","sport":"climbing"}},"1666279594":{"lat":43.2131794,"lon":5.399336,"ts":"2023-07-03T12:29:21Z","tz":1,"tags":{"mountain_pass":"yes","name":"(Pas)","natural":"rock","sport":"climbing"}},"1710235705":{"lat":43.2196795,"lon":5.368153,"ts":"2022-10-16T20:13:06Z","tz":1,"tags":{"mountain_pass":"yes","name":"(Pas)","natural":"rock","sport":"climbing"}},"1748669170":{"lat":43.2231909,"lon":5.3666799,"ts":"2022-10-16T20:42:44Z","tz":1,"tags":{"mountain_pass":"yes","name":"Pas de la Cabre","name:oc":"Pas de la Cabra","natural":"rock","source:name:oc":"ieo-bdtopoc","sport":"climbing"}},"1748670860":{"lat":43.2279609,"lon":5.3669101,"ts":"2022-10-05T11:38:48Z","tz":1,"tags":{"climbing:rock":"limestone","name":"La Bergerie","name:oc":"La Jaça","natural":"cliff","source:name:oc":"ieo-bdtopoc","sport":"climbing"}},"1749787875":{"lat":43.2158245,"lon":5.3639735,"ts":"2022-10-05T11:38:48Z","tz":1,"tags":{"name":"La Bonne Mère","name:oc":"La Bòna Maire","natural":"cliff","source:name:oc":"ieo-bdtopoc","sport":"climbing"}},"1841969817":{"lat":43.223268,"lon":5.3648843,"ts":"2022-10-05T15:04:31Z","tz":1,"tags":{"name":"Le Col des Chèvres","name:oc":"Lo Pas dei Cabras","natural":"cliff","source:name:oc":"ieo-bdtopoc","sport":"climbing"}},"1973527480":{"lat":43.2166738,"lon":5.3613229,"ts":"2022-10-16T20:13:06Z","tz":1,"tags":{"mountain_pass":"yes","name":"Escalier des Géants","natural":"rock","note":"Grosses marches taillées dans la roche. 3m de haut.\nPas de réelle difficultée.","sport":"climbing"}},"1973527483":{"lat":43.2179855,"lon":5.3579288,"ts":"2022-10-16T20:13:06Z","tz":1,"tags":{"mountain_pass":"yes","name":"Pas Loulou","natural":"rock","sport":"climbing"}},"1973527593":{"lat":43.2164318,"lon":5.3656704,"ts":"2025-01-01T08:27:08Z","tz":1,"tags":{"name":"Le petit couloir","name:oc":"Lo Corredonet","natural":"cliff","source:name:oc":"ieo-bdtopoc","sport":"climbing"}},"1973527771":{"lat":43.2178314,"lon":5.358305,"ts":"2022-10-05T15:04:31Z","tz":1,"tags":{"name":"L’Alpinodrome - partie droite","name:oc":"L’Alpinodròm Drechier","natural":"cliff","source:name:oc":"ieo-bdtopoc","sport":"climbing"}},"2187739190":{"lat":43.2101184,"lon":5.4675402,"ts":"2022-10-16T20:42:44Z","tz":1,"tags":{"description":"Pas délicat non exposé.","mountain_pass":"yes","name":"(Pas)","natural":"rock","sport":"climbing"}},"2809099929":{"lat":43.178429,"lon":5.5712264,"ts":"2014-05-08T12:09:03Z","tz":1,"tags":{"leisure":"pitch","name":"Sémaphore","sport":"climbing"}},"2938505307":{"lat":43.2273559,"lon":5.3892958,"ts":"2023-02-13T18:32:15Z","tz":1,"tags":{"name":"Voie d'Escalade Fontaine d'Ivoire et Théâtre","natural":"cliff","source":"data.gouv.fr:Le ministère des droits des femmes, de la ville, de la jeunesse et des sports - 2014","sport":"climbing"}},"3765303357":{"lat":43.2051644,"lon":5.6021609,"ts":"2019-03-20T06:10:43Z","tz":1,"tags":{"access":"private","leisure":"sports_centre","name":"Bloc Session","phone":"+33 4 42 72 05 18","sport":"climbing","website":"https://www.blocsession.com/"}},"3790779217":{"lat":43.2865175,"lon":5.4854168,"ts":"2022-01-29T08:57:16Z","tz":1,"tags":{"leisure":"sports_centre","name":"Climb Up - La valentine","opening_hours":"Sa, Su 09:30-22:00; Mo-Fr 10:30-23:00","sport":"climbing","sport_1":"escalade","sport_2":"blocs"}},"4354754781":{"lat":43.172862,"lon":5.602936,"ts":"2016-08-17T22:12:19Z","tz":1,"tags":{"source":"data.gouv.fr:Le ministère des droits des femmes, de la ville, de la jeunesse et des sports - 11/2015","sport":"climbing"}},"4357673545":{"lat":43.1849983,"lon":5.6018598,"ts":"2016-08-19T16:01:39Z","tz":1,"tags":{"source":"data.gouv.fr:Le ministère des droits des femmes, de la ville, de la jeunesse et des sports - 11/2015","sport":"climbing"}},"4519013942":{"lat":43.2053036,"lon":5.4861518,"ts":"2022-09-23T14:27:11Z","tz":1,"tags":{"name":"Eperon des Pins","name:oc":"Bèc dei Pins","natural":"cliff","source:name:oc":"ieo-bdtopoc","sport":"climbing"}},"4547375922":{"lat":43.2118143,"lon":5.4213674,"ts":"2020-04-10T17:43:16Z","tz":1,"tags":{"name":"Dalle Tarzan","natural":"rock","sport":"climbing"}},"4547375925":{"lat":43.2069326,"lon":5.4201087,"ts":"2022-09-23T08:14:04Z","tz":1,"tags":{"name":"Dièdre Guem","name:oc":"Plec Guem","natural":"cliff","source:name:oc":"ieo-bdtopoc","sport":"climbing"}},"4547375926":{"lat":43.2058407,"lon":5.4216953,"ts":"2025-01-01T08:35:21Z","tz":1,"tags":{"height":"80","name":"Archipel","name:oc":"Archipèla","natural":"cliff","source:name:oc":"ieo-bdtopoc","sport":"climbing"}},"4547397432":{"lat":43.2108788,"lon":5.4713082,"ts":"2023-02-28T15:44:11Z","tz":1,"tags":{"mountain_pass":"yes","name":"Pas de la Cheminée du CAF","natural":"rock","safety_rope":"yes","sport":"climbing"}},"4551326088":{"lat":43.2163193,"lon":5.4428695,"ts":"2022-10-16T14:28:20Z","tz":1,"tags":{"alt_name":"Paroi noire","name":"Crêt St Michel - secteur du Grand Dièdre","name:oc":"Crestenc de Sant Michèu - Grand Plec","natural":"cliff","source:name:oc":"ieo-bdtopoc","sport":"climbing"}},"4551327201":{"lat":43.2134926,"lon":5.444752,"ts":"2022-10-16T20:42:44Z","tz":1,"tags":{"description":"Main courante en chaine.","mountain_pass":"yes","name":"(Pas)","natural":"rock","safety_rope":"yes","sport":"climbing"}},"4553875730":{"lat":43.1981134,"lon":5.4985713,"ts":"2023-02-17T09:20:09Z","tz":1,"tags":{"name":"La Grande Croisière","name:oc":"La Crosiera","natural":"cliff","source:name:oc":"ieo-bdtopoc","sport":"climbing"}},"4553894589":{"lat":43.2016162,"lon":5.5014249,"ts":"2022-08-21T11:06:08Z","tz":1,"tags":{"name":"Doigt de Dieu","name:oc":"Lo Det de Dieu","natural":"rock","source:name:oc":"ieo-bdtopoc","sport":"climbing"}},"4553894590":{"lat":43.2025433,"lon":5.4995408,"ts":"2022-09-23T08:07:32Z","tz":1,"tags":{"name":"Dalle de la Conversation","name:oc":"Lausa de la Convèrsa","natural":"cliff","source":"camptocamp","source:name:oc":"ieo-bdtopoc","sport":"climbing"}},"4553894594":{"lat":43.202672,"lon":5.4973265,"ts":"2022-10-02T08:29:17Z","tz":1,"tags":{"name":"La Petite Aiguille","name:oc":"L’Agulheta","natural":"rock","source:name:oc":"ieo-bdtopoc","sport":"climbing"}},"4553894598":{"lat":43.2028435,"lon":5.4983509,"ts":"2022-10-02T08:29:17Z","tz":1,"tags":{"name":"Dalle du Chat","name:oc":"Lausa dau Cat","natural":"rock","source:name:oc":"ieo-bdtopoc","sport":"climbing"}},"4553962825":{"lat":43.2177569,"lon":5.3577955,"ts":"2022-04-29T21:27:24Z","tz":1,"tags":{"name":"Alpinodrome","natural":"cliff","sport":"climbing"}},"4554156958":{"lat":43.2092523,"lon":5.4705315,"ts":"2024-05-17T18:02:57Z","tz":1,"tags":{"description":"Des chaines sont prévues pour s'aider dans ce passage. Selon la cotation de la FFRP, la technicité est de 5, soit difficile.","mountain_pass":"yes","name":"Pas de l'Œil de Verre","name:oc":"Pas de l’Uelh de Veire","natural":"rock","sac_scale":"difficult_alpine_hiking","safety_rope":"chain","source:name:oc":"ieo-bdtopoc","sport":"climbing"}},"4555740233":{"lat":43.2210969,"lon":5.3747442,"ts":"2024-05-09T12:35:21Z","tz":1,"tags":{"ele":"346","name":"Pointe Callot","name:oc":"Poncha Calòt","natural":"peak","ref:camptocamp":"109052","source:name:oc":"ieo-bdtopoc","sport":"climbing"}},"4556134390":{"lat":43.2123029,"lon":5.4643525,"ts":"2023-09-24T16:05:09Z","tz":1,"tags":{"climbing":"route","name":"Arête de Marseille","name:oc":"Crestenc de Marseha","natural":"arete","source:name:oc":"ieo-bdtopoc","sport":"climbing"}},"4557180357":{"lat":43.2053372,"lon":5.4845786,"ts":"2021-01-01T18:11:15Z","tz":1,"tags":{"alt_name":"Tour du Mage","alt_name:source":"George Albert","name":"Tour Save","natural":"cliff","source:name":"d'après Jean Save de Beaurecueil (traversée 1937)","sport":"climbing"}},"4585538161":{"lat":43.2622503,"lon":5.3912607,"ts":"2022-02-18T18:54:38Z","tz":1,"tags":{"addr:housenumber":"272","leisure":"sports_centre","name":"Boite à Grimpe","sport":"climbing","website":"http://boiteagrimpe.fr"}},"4701565558":{"lat":43.2170458,"lon":5.4421703,"ts":"2022-09-28T10:52:46Z","tz":1,"tags":{"name":"Cret St Michel - secteur Crèche","name:oc":"Crestenc de Sant Michèu - Belem","natural":"cliff","source:name:oc":"ieo-bdtopoc","sport":"climbing"}},"4721917352":{"lat":43.217086,"lon":5.3968969,"ts":"2023-07-03T12:29:21Z","tz":1,"tags":{"name":"Arête de Dix Heures","name:oc":"Crestenc deis Auras","natural":"cliff","source:name:oc":"ieo-bdtopoc","sport":"climbing"}},"4721917428":{"lat":43.2153336,"lon":5.4070089,"ts":"2022-09-28T11:34:08Z","tz":1,"tags":{"name":"La Parfumerie","name:oc":"La Prefumariá","natural":"cliff","source:name:oc":"ieo-bdtopoc","sport":"climbing"}},"4734177102":{"lat":43.2045769,"lon":5.426762,"ts":"2020-04-10T17:43:16Z","tz":1,"tags":{"name":"La Momie","natural":"cliff","sport":"climbing"}},"4803831750":{"lat":43.2321595,"lon":5.3798354,"ts":"2020-04-27T16:46:45Z","tz":1,"tags":{"name":"Vega","natural":"cliff","sport":"climbing"}},"4803831763":{"lat":43.2344048,"lon":5.3876083,"ts":"2023-02-13T20:00:25Z","tz":1,"tags":{"name":"Le Chateau d'Eau","name:oc":"La Caissa d’Aiga","natural":"cliff","source:name:oc":"ieo-bdtopoc","sport":"climbing"}},"4803831773":{"lat":43.2283043,"lon":5.3881675,"ts":"2022-09-29T09:51:11Z","tz":1,"tags":{"name":"Les Racines","name:oc":"Lei Raíç","natural":"cliff","source:name:oc":"ieo-bdtopoc","sport":"climbing"}},"4846651662":{"lat":43.2155244,"lon":5.3978271,"ts":"2023-07-03T12:29:21Z","tz":1,"tags":{"name":"Le Nid d'Aigle - gauche","name:oc":"Lo Nitz de l’Agla Senequier","natural":"cliff","source:name:oc":"ieo-bdtopoc","sport":"climbing"}},"5353321784":{"lat":43.2196397,"lon":5.4329965,"ts":"2022-09-29T09:42:44Z","tz":1,"tags":{"comment":"< occitan Prat, Pradòt dim. ; fr, Pré, Petit Pré","name":"Le Prado","name:oc":"Lo Pradòt","natural":"cliff","source:name:oc":"ieo-bdtopoc","sport":"climbing"}},"6121085952":{"lat":43.2173475,"lon":5.3680842,"ts":"2022-10-16T20:13:06Z","tz":1,"tags":{"comment":"< occitan pas + monina /mu’ninO:;fr. Col+gueunon","mountain_pass":"yes","name":"Pas de la Mounine","name:oc":"Pas de la Monina","natural":"rock","source:name:oc":"ieo-bdtopoc","sport":"climbing"}},"6335004807":{"lat":43.2101787,"lon":5.4623802,"ts":"2019-03-13T08:38:52Z","tz":1,"tags":{"climbing":"route_bottom"}},"6335004820":{"lat":43.20953,"lon":5.4633589,"ts":"2019-03-13T08:38:52Z","tz":1,"tags":{"climbing":"route_top"}},"6537453522":{"lat":43.221947,"lon":5.416895,"ts":"2023-10-23T15:10:25Z","tz":1,"tags":{"description":"Voies faciles, approprié pour enfants et débutants","description:en":"Easy routes, well suited for children and beginners","name":"Site d'escalade","sport":"climbing"}},"6885895351":{"lat":43.2105382,"lon":5.4669219,"ts":"2022-10-16T20:42:44Z","tz":1,"tags":{"description":"Pas sans difficulté.","mountain_pass":"yes","name":"(Pas)","natural":"rock","sport":"climbing"}},"7097230769":{"lat":43.2782432,"lon":5.4781288,"ts":"2019-12-31T02:28:24Z","tz":1,"tags":{"leisure":"sports_centre","sport":"climbing"}},"7097271343":{"lat":43.2712144,"lon":5.444499,"ts":"2024-11-20T10:34:18Z","tz":1,"tags":{"name":"Parc des Bruyères","sport":"climbing"}},"7390176246":{"lat":43.209396,"lon":5.414025,"ts":"2022-09-28T16:32:51Z","tz":1,"tags":{"name":"Le Vaisseau","name:oc":"Lo Vaissèu","natural":"cliff","source:name:oc":"ieo-bdtopoc","sport":"climbing"}},"7390176247":{"lat":43.2075802,"lon":5.4177433,"ts":"2025-01-03T16:16:50Z","tz":1,"tags":{"comment":"< occitan v. Romp-re -e 3 pers. pst. ind. ; fr. Casser, rompre","name":"Lo Rompe Cuou","name:oc":"Lo Rompe-cuou","natural":"cliff","source:name:oc":"ieo-bdtopoc","sport":"climbing"}},"7390176248":{"lat":43.2068114,"lon":5.4209434,"ts":"2022-09-29T09:42:44Z","tz":1,"tags":{"name":"L'Ouro","name:oc":"L’Ola","natural":"cliff","source:name:oc":"ieo-bdtopoc","sport":"climbing"}},"7390176249":{"lat":43.2064836,"lon":5.4216962,"ts":"2022-09-23T08:07:32Z","tz":1,"tags":{"comment":"< occitan Conglosa - > congloá desplacament de la tonica","name":"Dalle du Conglué","name:oc":"Lausa de la Concluá","natural":"cliff","source:name:oc":"ieo-bdtopoc","sport":"climbing"}},"7390176250":{"lat":43.2056722,"lon":5.4231379,"ts":"2022-08-21T10:44:57Z","tz":1,"tags":{"name":"L'Uelh d'Ai","name:oc":"L'Uelh d'Ai","natural":"cliff","source:name:oc":"ieo-bdtopoc","sport":"climbing"}},"7390176251":{"lat":43.2047423,"lon":5.4244573,"ts":"2020-04-10T17:43:16Z","tz":1,"tags":{"name":"Ali Baba","natural":"cliff","sport":"climbing"}},"7390176252":{"lat":43.2042907,"lon":5.4255195,"ts":"2022-08-21T11:31:02Z","tz":1,"tags":{"comment":"> occitan : tiranha;courant marin","name":"Tiragne gauche","name:oc":"La Tiranha Ponentesa","natural":"cliff","source:name:oc":"ieo-bdtopoc","sport":"climbing"}},"7390176253":{"lat":43.2041538,"lon":5.4262115,"ts":"2022-08-21T11:31:02Z","tz":1,"tags":{"name":"Tiragne droite","name:oc":"La Tiranha Levantesa","natural":"cliff","source:name:oc":"ieo-bdtopoc","sport":"climbing"}},"7390176254":{"lat":43.2052311,"lon":5.4261095,"ts":"2022-09-28T10:52:46Z","tz":1,"tags":{"name":"Antécime","name:oc":"Antecima","natural":"cliff","source:name:oc":"ieo-bdtopoc","sport":"climbing"}},"7390176255":{"lat":43.2070074,"lon":5.4213643,"ts":"2022-09-29T09:42:44Z","tz":1,"tags":{"name":"L’Oasis","name:oc":"L’Oasís","natural":"cliff","source:name:oc":"ieo-bdtopoc","sport":"climbing"}},"7390176256":{"lat":43.2072276,"lon":5.4217228,"ts":"2022-09-29T09:42:44Z","tz":1,"tags":{"comment":"< occitan ostau /us’taw/; fr. Maison","name":"Le Petit Saussois - L'Ostau","name:oc":"Lo Saussenet e l’Ostau","natural":"cliff","source:name:oc":"ieo-bdtopoc","sport":"climbing"}},"7390176257":{"lat":43.2138762,"lon":5.4132971,"ts":"2023-03-15T16:35:09Z","tz":1,"tags":{"name":"La Pinède","name:oc":"La Pineda","natural":"cliff","source:name:oc":"ieo-bdtopoc","sport":"climbing"}},"7390176258":{"lat":43.21448,"lon":5.4175637,"ts":"2022-09-29T09:42:44Z","tz":1,"tags":{"name":"Le Pouce gauche","name:oc":"Lo Poce Senequier","natural":"cliff","source:name:oc":"ieo-bdtopoc","sport":"climbing"}},"7390176259":{"lat":43.2141776,"lon":5.417663,"ts":"2022-09-29T09:42:44Z","tz":1,"tags":{"name":"Le Pouce droit","name:oc":"Lo Poce Drechurier","natural":"cliff","source:name:oc":"ieo-bdtopoc","sport":"climbing"}},"7390176260":{"lat":43.2143321,"lon":5.4180464,"ts":"2022-09-28T16:32:51Z","tz":1,"tags":{"name":"Le Majeur","name:oc":"Lo Major","natural":"cliff","source:name:oc":"ieo-bdtopoc","sport":"climbing"}},"7390176261":{"lat":43.2142501,"lon":5.4232624,"ts":"2023-03-15T16:35:09Z","tz":1,"tags":{"comment":"< occitan Sormiu /sur’miw/","name":"Aiguille de Sormiou","name:oc":"Agulha de Sormiu","natural":"cliff","source:name:oc":"ieo-bdtopoc","sport":"climbing"}},"7390176262":{"lat":43.2150019,"lon":5.4255031,"ts":"2023-09-20T20:42:48Z","tz":1,"tags":{"comment":"< occitan Bauç /baw/;fr. Falaise","name":"Baou Rond - secteur de gauche","name:oc":"Bauç Redon - Senèstra","natural":"cliff","source:name:oc":"ieo-bdtopoc","sport":"climbing"}},"7390176263":{"lat":43.214778,"lon":5.4268383,"ts":"2023-09-20T20:42:48Z","tz":1,"tags":{"comment":"< occitan Bauç /baw/;fr. Falaise","name":"Baou Rond - secteur central","name:oc":"Baou Redon - Centre","natural":"cliff","source:name:oc":"ieo-bdtopoc","sport":"climbing"}},"7390176264":{"lat":43.2144518,"lon":5.4272859,"ts":"2020-04-10T17:43:16Z","tz":1,"tags":{"name":"Harry Potter","natural":"cliff","sport":"climbing"}},"7390176265":{"lat":43.2135842,"lon":5.427538,"ts":"2022-09-28T11:34:08Z","tz":1,"tags":{"name":"Le Garage","name:oc":"Lo Garatge","natural":"cliff","source:name:oc":"ieo-bdtopoc","sport":"climbing"}},"7392283274":{"lat":43.2114996,"lon":5.4323642,"ts":"2022-09-26T13:37:26Z","tz":1,"tags":{"name":"Grotte de l'Os","name:oc":"Bauma de l’Òssa","natural":"cliff","source:name:oc":"ieo-bdtopoc","sport":"climbing"}},"7392283275":{"lat":43.2109601,"lon":5.4319404,"ts":"2022-09-23T14:27:11Z","tz":1,"tags":{"name":"Falaise de l'Os","name:oc":"Bauç de l’Òssa","natural":"cliff","source:name:oc":"ieo-bdtopoc","sport":"climbing"}},"7392283276":{"lat":43.2116863,"lon":5.4346663,"ts":"2023-12-23T10:19:50Z","tz":1,"tags":{"comment":"< occitan Morgiu /mur’jiw/","name":"Crêtes de Morgiu - secteur de gauche","name:oc":"Crestenc de Morgiu - Senèstra","natural":"cliff","source:name:oc":"ieo-bdtopoc","sport":"climbing"}},"7392283277":{"lat":43.2105929,"lon":5.4339199,"ts":"2022-09-23T08:07:32Z","tz":1,"tags":{"comment":"< occitan Morgiu /mur’jiw/","name":"Cretes de Morgiou - secteur de droite","name:oc":"Crestenc de Morgiu - Drech","natural":"cliff","source:name:oc":"ieo-bdtopoc","sport":"climbing"}},"7392283278":{"lat":43.2101118,"lon":5.433758,"ts":"2022-09-28T11:34:08Z","tz":1,"tags":{"name":"Le Cirque - secteur de gauche","name:oc":"Lo Circ Senequier","natural":"cliff","source:name:oc":"ieo-bdtopoc","sport":"climbing"}},"7392283279":{"lat":43.2100956,"lon":5.4345998,"ts":"2022-09-28T11:34:08Z","tz":1,"tags":{"name":"Le Cirque - secteur de droite","name:oc":"Lo Circ Drechier","natural":"cliff","source:name:oc":"ieo-bdtopoc","sport":"climbing"}},"7392283280":{"lat":43.2088506,"lon":5.4342973,"ts":"2024-08-26T08:11:10Z","tz":1,"tags":{"name":"La Palée","name:oc":"La Palancada","natural":"cliff","source:name:oc":"ieo-bdtopoc","sport":"climbing"}},"7392283281":{"lat":43.2074991,"lon":5.4390763,"ts":"2022-09-27T11:46:28Z","tz":1,"tags":{"name":"Calanque du Cancèl","name:oc":"Calanca dau Lançòu","natural":"cliff","old_name":"Calanca del Lansol 1329","source:name:oc":"ieo-bdtopoc","sport":"climbing"}},"7392283282":{"lat":43.2058105,"lon":5.4412581,"ts":"2022-09-28T16:32:51Z","tz":1,"tags":{"name":"Le Ponant","name:oc":"Lo Ponent","natural":"cliff","source:name:oc":"ieo-bdtopoc","sport":"climbing"}},"7392283283":{"lat":43.2048639,"lon":5.4427388,"ts":"2022-09-28T16:32:51Z","tz":1,"tags":{"name":"Le Levant","name:oc":"Lo Levant","natural":"cliff","source:name:oc":"ieo-bdtopoc","sport":"climbing"}},"7392283284":{"lat":43.2046677,"lon":5.4430079,"ts":"2022-09-29T09:42:44Z","tz":1,"tags":{"name":"Mistragou","name:oc":"Mistrago","natural":"cliff","source:name:oc":"ieo-bdtopoc","sport":"climbing"}},"7392285686":{"lat":43.205388,"lon":5.4458092,"ts":"2020-04-11T13:10:27Z","tz":1,"tags":{"name":"Arbrajym et Planète Marseille","natural":"cliff","sport":"climbing"}},"7392285687":{"lat":43.2031299,"lon":5.450246,"ts":"2020-04-11T13:10:27Z","tz":1,"tags":{"name":"Cosquer","natural":"cliff","sport":"climbing"}},"7392285688":{"lat":43.2034072,"lon":5.4514766,"ts":"2022-09-29T14:12:25Z","tz":1,"tags":{"name":"La Triperie gauche","name:oc":"La Tripariá Senequiera","natural":"cliff","source:name:oc":"ieo-bdtopoc","sport":"climbing"}},"7392285689":{"lat":43.2031905,"lon":5.4520085,"ts":"2020-04-11T13:10:27Z","tz":1,"tags":{"name":"Triperie grotte","natural":"cliff","sport":"climbing"}},"7392285690":{"lat":43.2019366,"lon":5.4531956,"ts":"2022-09-23T14:27:11Z","tz":1,"tags":{"name":"Face au large et Radeau","name:oc":"Mira Mar e Radèus","natural":"cliff","source:name:oc":"ieo-bdtopoc","sport":"climbing"}},"7392285691":{"lat":43.2043818,"lon":5.4519282,"ts":"2022-09-26T13:37:26Z","tz":1,"tags":{"name":"El Cap","name:oc":"Lo Cap","natural":"cliff","source:name:oc":"ieo-bdtopoc","sport":"climbing"}},"7392285692":{"lat":43.2080318,"lon":5.4446924,"ts":"2022-09-29T13:53:19Z","tz":1,"tags":{"name":"Secteur Traction","name:oc":"Sector Traccion","natural":"cliff","source:name:oc":"ieo-bdtopoc","sport":"climbing"}},"7392285693":{"lat":43.2087109,"lon":5.4445724,"ts":"2022-09-23T08:14:04Z","tz":1,"tags":{"name":"Dièdre du Renard","name:oc":"Plec dau Rainard","natural":"cliff","source:name:oc":"ieo-bdtopoc","sport":"climbing"}},"7392340973":{"lat":43.2123279,"lon":5.441155,"ts":"2022-09-23T08:35:39Z","tz":1,"tags":{"name":"Cabanons gauche","name:oc":"Cabanons Senestriers","natural":"cliff","source:name:oc":"ieo-bdtopoc","sport":"climbing"}},"7392340974":{"lat":43.2122984,"lon":5.4406031,"ts":"2022-09-23T08:35:39Z","tz":1,"tags":{"name":"Cabanons droite","name:oc":"Cabanons Drechuriers","natural":"cliff","source:name:oc":"ieo-bdtopoc","sport":"climbing"}},"7392340975":{"lat":43.2121953,"lon":5.4469001,"ts":"2023-02-17T08:15:23Z","tz":1,"tags":{"name":"Abricotier","name:oc":"L’Abric Costier","natural":"cliff","source:name:oc":"ieo-bdtopoc","sport":"climbing"}},"7392340976":{"lat":43.2118043,"lon":5.4513517,"ts":"2022-09-29T13:53:19Z","tz":1,"tags":{"name":"Secteur Crépuscule","name:oc":"Sector Calabrun","natural":"cliff","source:name:oc":"ieo-bdtopoc","sport":"climbing"}},"7392340977":{"lat":43.2112549,"lon":5.4522288,"ts":"2023-03-15T15:03:47Z","tz":1,"tags":{"name":"Secteur Aïe Aïe Aïe","name:oc":"Sector Ai e Oi","natural":"cliff","source:name:oc":"ieo-bdtopoc","sport":"climbing"}},"7392340978":{"lat":43.2110379,"lon":5.4522794,"ts":"2023-03-15T15:03:47Z","tz":1,"tags":{"name":"Secteur Angelvin","name:oc":"Sector Angelvin","natural":"cliff","source:name:oc":"ieo-bdtopoc","sport":"climbing"}},"7392340979":{"lat":43.2110387,"lon":5.4526864,"ts":"2022-09-29T13:53:19Z","tz":1,"tags":{"name":"Secteur ANPE","name:oc":"Sector ANPE","natural":"cliff","source:name:oc":"ieo-bdtopoc","sport":"climbing"}},"7392340980":{"lat":43.2120116,"lon":5.4532428,"ts":"2023-03-15T16:47:20Z","tz":1,"tags":{"name":"Dalle de l'Echelle","name:oc":"Lausa de l’Escala","natural":"cliff","source:name:oc":"ieo-bdtopoc","sport":"climbing"}},"7392340981":{"lat":43.21251,"lon":5.4515151,"ts":"2022-09-23T06:37:34Z","tz":1,"tags":{"name":"Arête du Vallon","name:oc":"Crestenc dau Valon","natural":"cliff","source:name:oc":"ieo-bdtopoc","sport":"climbing"}},"7392948321":{"lat":43.2123866,"lon":5.4566171,"ts":"2023-03-15T16:47:20Z","tz":1,"tags":{"name":"L’Esplanade","name:oc":"L’Esplanada","natural":"cliff","source:name:oc":"ieo-bdtopoc","sport":"climbing"}},"7392948322":{"lat":43.2128774,"lon":5.4562408,"ts":"2022-09-29T14:12:25Z","tz":1,"tags":{"name":"La Terrasse","name:oc":"La Terrassa","natural":"cliff","source:name:oc":"ieo-bdtopoc","sport":"climbing"}},"7392948323":{"lat":43.2118244,"lon":5.4584974,"ts":"2022-09-29T09:51:11Z","tz":1,"tags":{"comment":"< occitan refrej-ar v. 3 pers. sing. ind. pst. / Re’fredjØ/- cuou /kuw/; fr. Refroid-ir -t - cul","name":"Lo Refreja - cuou","name:oc":"Lo Refreja-cuou","natural":"cliff","source:name:oc":"ieo-bdtopoc","sport":"climbing"}},"7392948324":{"lat":43.2134617,"lon":5.4549624,"ts":"2020-04-11T17:25:13Z","tz":1,"tags":{"name":"Machard","natural":"cliff","sport":"climbing"}},"7392948325":{"lat":43.2137996,"lon":5.4537402,"ts":"2022-11-13T18:56:17Z","tz":1,"tags":{"name":"Garrigon","name:oc":"Garrigon","natural":"cliff","source:name:oc":"ieo-bdtopoc","sport":"climbing"}},"7392948326":{"lat":43.2140579,"lon":5.4528235,"ts":"2022-11-13T18:56:17Z","tz":1,"tags":{"name":"Le Grand Alleluia","name:oc":"Lo Bèla Salut","natural":"cliff","source:name:oc":"ieo-bdtopoc","sport":"climbing"}},"7392948327":{"lat":43.214468,"lon":5.4557428,"ts":"2022-09-26T13:37:26Z","tz":1,"tags":{"name":"Grotte de l'Ours gauche","name:oc":"Avenc de l’Orsa Senequier","natural":"cliff","source:name:oc":"ieo-bdtopoc","sport":"climbing"}},"7392948328":{"lat":43.2144246,"lon":5.4566464,"ts":"2020-04-11T17:25:13Z","tz":1,"tags":{"name":"Grotte de l'Ours droite","natural":"cliff","sport":"climbing"}},"7392948329":{"lat":43.2156602,"lon":5.4596151,"ts":"2022-09-29T13:53:19Z","tz":1,"tags":{"name":"Secteur Bivouac","name:oc":"Sector Bivac","natural":"cliff","source:name:oc":"ieo-bdtopoc","sport":"climbing"}},"7392948330":{"lat":43.2153373,"lon":5.4598058,"ts":"2022-09-29T09:42:44Z","tz":1,"tags":{"name":"L'Oasis - secteur du haut","name:oc":"L’Oasís Sobeiran","natural":"cliff","source:name:oc":"ieo-bdtopoc","sport":"climbing"}},"7392948331":{"lat":43.2148037,"lon":5.4601504,"ts":"2022-09-28T16:32:51Z","tz":1,"tags":{"name":"Le Promontoire des Américains","name:oc":"Lo Promontòri deis Americans","natural":"cliff","source:name:oc":"ieo-bdtopoc","sport":"climbing"}},"7392948332":{"lat":43.2131727,"lon":5.4620401,"ts":"2023-03-15T16:47:20Z","tz":1,"tags":{"name":"La Cathédrale - face ouest","name:oc":"Ponent de La Catedrala","natural":"cliff","source:name:oc":"ieo-bdtopoc","sport":"climbing"}},"7392948333":{"lat":43.2126083,"lon":5.4631312,"ts":"2023-03-15T16:47:20Z","tz":1,"tags":{"name":"La Cathédrale - face sud","name:oc":"Adrech de La Catedrala","natural":"cliff","source:name:oc":"ieo-bdtopoc","sport":"climbing"}},"7392948334":{"lat":43.2109383,"lon":5.4630032,"ts":"2022-09-29T13:53:19Z","tz":1,"tags":{"name":"Secteur du Temple","name:oc":"Sector dau Temple","natural":"cliff","source:name:oc":"ieo-bdtopoc","sport":"climbing"}},"7392948335":{"lat":43.2101968,"lon":5.4638891,"ts":"2022-09-23T08:35:39Z","tz":1,"tags":{"name":"Bivouac des Tours","name:oc":"Bivac dei Torres","natural":"cliff","source:name:oc":"ieo-bdtopoc","sport":"climbing"}},"7392948336":{"lat":43.2097679,"lon":5.4647334,"ts":"2022-09-29T13:53:19Z","tz":1,"tags":{"name":"Secteur de l'Igloo","name:oc":"Sector de l’Igló","natural":"cliff","source:name:oc":"ieo-bdtopoc","sport":"climbing"}},"7392948337":{"lat":43.2095312,"lon":5.4652256,"ts":"2023-11-06T11:01:14Z","tz":1,"tags":{"name":"Secteur Hommes Volants","name:oc":"Sector deis Òmes-que-vòlan","natural":"cliff","source:name:oc":"ieo-bdtopoc","sport":"climbing"}},"7392948338":{"lat":43.2095312,"lon":5.4659675,"ts":"2022-09-23T14:28:56Z","tz":1,"tags":{"name":"La Grande Tour de la Lèque","name:oc":"La Torre Bèla de la Leca","natural":"cliff","source:name:oc":"ieo-bdtopoc","sport":"climbing"}},"7392948339":{"lat":43.2094017,"lon":5.4668187,"ts":"2020-04-11T17:25:13Z","tz":1,"tags":{"name":"Armata","natural":"cliff","sport":"climbing"}},"7392948340":{"lat":43.2086772,"lon":5.4650252,"ts":"2022-09-29T14:12:25Z","tz":1,"tags":{"comment":"< occitan Leca; fr. piège","name":"Toits de la Lèque","name:oc":"Teulissas de la Leca","natural":"cliff","source:name:oc":"ieo-bdtopoc","sport":"climbing"}},"7392948342":{"lat":43.2116989,"lon":5.466832,"ts":"2022-09-26T13:37:26Z","tz":1,"tags":{"name":"La Centrale","name:oc":"La Centrala","natural":"cliff","source:name:oc":"ieo-bdtopoc","sport":"climbing"}},"7392948343":{"lat":43.211515,"lon":5.4676471,"ts":"2023-02-17T08:50:03Z","tz":1,"tags":{"name":"Secteur Corniches David","name:oc":"Sector Cengles de Dàvid","natural":"cliff","source:name:oc":"ieo-bdtopoc","sport":"climbing"}},"7392948344":{"lat":43.2120952,"lon":5.4677191,"ts":"2022-09-29T13:53:19Z","tz":1,"tags":{"name":"Secteur Dalle des Suisses","name:oc":"Sector de la Lausa dei Soissas","natural":"cliff","source:name:oc":"ieo-bdtopoc","sport":"climbing"}},"7392948345":{"lat":43.2124229,"lon":5.4665162,"ts":"2023-03-15T16:47:20Z","tz":1,"tags":{"name":"Secteur Muraille Mark","natural":"cliff","sport":"climbing"}},"7392948346":{"lat":43.2113009,"lon":5.4699421,"ts":"2023-02-17T08:50:03Z","tz":1,"tags":{"name":"La Candelle - face est","name:oc":"Levant de La Candèla","natural":"cliff","source:name:oc":"ieo-bdtopoc","sport":"climbing"}},"7392948347":{"lat":43.2103343,"lon":5.4710193,"ts":"2023-02-17T08:50:03Z","tz":1,"tags":{"name":"Arête du Diable","name:oc":"Crestenc dau Diable","natural":"cliff","source:name:oc":"ieo-bdtopoc","sport":"climbing"}},"7392948348":{"lat":43.2093434,"lon":5.4725011,"ts":"2022-09-23T14:27:11Z","tz":1,"tags":{"name":"Enfant des Etoiles","name:oc":"La Serena","natural":"cliff","source:name:oc":"ieo-bdtopoc","sport":"climbing"}},"7392948349":{"lat":43.2088317,"lon":5.4727196,"ts":"2022-09-26T13:37:26Z","tz":1,"tags":{"name":"La Concave","name:oc":"Lo Concau","natural":"cliff","source:name:oc":"ieo-bdtopoc","sport":"climbing"}},"7392948350":{"lat":43.2059371,"lon":5.4759368,"ts":"2022-09-23T14:27:11Z","tz":1,"tags":{"name":"Le Festin de Satan","name:oc":"La Ribòta de Satan","natural":"cliff","source:name:oc":"ieo-bdtopoc","sport":"climbing"}},"7392948351":{"lat":43.2042498,"lon":5.4780614,"ts":"2022-09-27T11:42:34Z","tz":1,"tags":{"name":"Aiguille du Devenson","name:oc":"Agulha dau Deversan","natural":"cliff","source:name:oc":"ieo-bdtopoc","sport":"climbing"}},"7392948352":{"lat":43.2054712,"lon":5.4794315,"ts":"2022-09-29T13:53:19Z","tz":1,"tags":{"name":"Secteur Grande Arète","name:oc":"Sector de l’Arrestassa","natural":"cliff","source:name:oc":"ieo-bdtopoc","sport":"climbing"}},"7392948353":{"lat":43.2063588,"lon":5.4805169,"ts":"2022-09-26T13:37:26Z","tz":1,"tags":{"name":"La Cheminée du Cirque","name:oc":"La Chaminèa dau Circ","natural":"cliff","source:name:oc":"ieo-bdtopoc","sport":"climbing"}},"7392948354":{"lat":43.2069551,"lon":5.4813031,"ts":"2022-09-27T11:42:34Z","tz":1,"tags":{"name":"Devenson - Le Cirque","name:oc":"Circ dau Deversan","natural":"cliff","source:name:oc":"ieo-bdtopoc","sport":"climbing"}},"7392948355":{"lat":43.2062852,"lon":5.4828703,"ts":"2020-04-11T17:25:13Z","tz":1,"tags":{"name":"Tour Save - Plage du Devenson","natural":"cliff","sport":"climbing"}},"7392948356":{"lat":43.2068932,"lon":5.4831307,"ts":"2022-09-23T14:27:11Z","tz":1,"tags":{"name":"Gasquet","name:oc":"Gasquet","natural":"cliff","source:name:oc":"ieo-bdtopoc","sport":"climbing"}},"7392948357":{"lat":43.2048693,"lon":5.4875925,"ts":"2022-09-29T13:53:19Z","tz":1,"tags":{"name":"Secteur Bonne Femme","name:oc":"Sector Bòna Fama","natural":"cliff","source:name:oc":"ieo-bdtopoc","sport":"climbing"}},"7392948358":{"lat":43.2045921,"lon":5.4898284,"ts":"2023-02-18T17:32:09Z","tz":1,"tags":{"name":"Traversée du G.E.P.","name:oc":"Travèrsa dau GEP","natural":"cliff","source:name:oc":"ieo-bdtopoc","sport":"climbing"}},"7392948359":{"lat":43.2046224,"lon":5.4894762,"ts":"2022-09-22T18:51:25Z","tz":1,"tags":{"comment":"< occitan Aissada + on; fr. Petite houe","name":"Aiguille de l'Eissadon","name:oc":"Agulha de l’Aissadon","natural":"cliff","source:name:oc":"ieo-bdtopoc","sport":"climbing"}},"7392948360":{"lat":43.2035913,"lon":5.4901074,"ts":"2022-09-23T08:07:32Z","tz":1,"tags":{"name":"Aissadon  - pilier est","name:oc":"Aissadon - Pilar Levantés","natural":"cliff","source:name:oc":"ieo-bdtopoc","sport":"climbing"}},"7395656877":{"lat":43.2040081,"lon":5.4925488,"ts":"2022-09-29T09:42:44Z","tz":1,"tags":{"comment":"< occitan Ola; fr. Marmite","name":"L’Oule - secteur Toujours Jamais","name:oc":"L’Ola - Sector Sempre Jamai","natural":"cliff","source:name:oc":"ieo-bdtopoc","sport":"climbing"}},"7395656878":{"lat":43.2040829,"lon":5.4932384,"ts":"2020-04-12T18:19:03Z","tz":1,"tags":{"name":"Secteur des Futurs Croulants","natural":"cliff","sport":"climbing"}},"7395656879":{"lat":43.2038702,"lon":5.4938735,"ts":"2022-09-29T13:53:19Z","tz":1,"tags":{"name":"La Sébastien","name:oc":"La Sebastian","natural":"cliff","source:name:oc":"ieo-bdtopoc","sport":"climbing"}},"7395656880":{"lat":43.2029171,"lon":5.4964284,"ts":"2022-09-28T16:32:51Z","tz":1,"tags":{"name":"Les Sans Soucis","name:oc":"Ges de Lanha","natural":"cliff","source:name:oc":"ieo-bdtopoc","sport":"climbing"}},"7395656881":{"lat":43.2017984,"lon":5.4981068,"ts":"2022-09-28T11:34:08Z","tz":1,"tags":{"name":"La Passerelle","name:oc":"La Passarèla","natural":"cliff","source:name:oc":"ieo-bdtopoc","sport":"climbing"}},"7395656882":{"lat":43.2013781,"lon":5.499045,"ts":"2022-09-28T16:32:51Z","tz":1,"tags":{"name":"Les Américains","name:oc":"Leis Americans","natural":"cliff","source:name:oc":"ieo-bdtopoc","sport":"climbing"}},"7395656883":{"lat":43.2006848,"lon":5.5006931,"ts":"2022-09-28T11:34:08Z","tz":1,"tags":{"name":"L'Arche","name:oc":"L’Arca","natural":"cliff","source:name:oc":"ieo-bdtopoc","sport":"climbing"}},"7395656884":{"lat":43.1991804,"lon":5.5029763,"ts":"2023-02-17T09:20:09Z","tz":1,"tags":{"name":"Le Gabian","name:oc":"Lo Gabian","natural":"cliff","source:name:oc":"ieo-bdtopoc","sport":"climbing"}},"7395759185":{"lat":43.1974872,"lon":5.5005994,"ts":"2022-09-29T14:12:25Z","tz":1,"tags":{"name":"Traversée Tabarly","name:oc":"La Travèrsa Tabarli","natural":"cliff","source:name:oc":"ieo-bdtopoc","sport":"climbing"}},"7395759186":{"lat":43.201924,"lon":5.494912,"ts":"2022-09-29T13:53:19Z","tz":1,"tags":{"name":"Secteur Pilier Mika","name:oc":"Sector Pilar Mico","natural":"cliff","source:name:oc":"ieo-bdtopoc","sport":"climbing"}},"7395759187":{"lat":43.2016752,"lon":5.4948293,"ts":"2023-03-15T17:07:42Z","tz":1,"tags":{"name":"Mistral Blues","name:oc":"Mistrau Blues","natural":"cliff","source:name:oc":"ieo-bdtopoc","sport":"climbing"}},"7395759188":{"lat":43.2013469,"lon":5.4946961,"ts":"2022-09-29T13:53:19Z","tz":1,"tags":{"name":"Secteur des 3 oeufs de la mouette inquiète","name:oc":"Sector dei 3 uous de la Gabiana Anciósa","natural":"cliff","source:name:oc":"ieo-bdtopoc","sport":"climbing"}},"7395759189":{"lat":43.2005111,"lon":5.4949603,"ts":"2022-09-23T08:45:45Z","tz":1,"tags":{"name":"Castelvieil - Le Bidule","name:oc":"Aquò de Castèu Vièlh","natural":"cliff","source:name:oc":"ieo-bdtopoc","sport":"climbing"}},"7395759190":{"lat":43.2003916,"lon":5.4952523,"ts":"2020-04-12T18:19:03Z","tz":1,"tags":{"name":"La Swing","natural":"cliff","sport":"climbing"}},"7395759191":{"lat":43.2002538,"lon":5.4956624,"ts":"2023-03-15T17:07:42Z","tz":1,"tags":{"name":"Les Dents de la Mer","name:oc":"Lei Dents de la Mar","natural":"cliff","source:name:oc":"ieo-bdtopoc","sport":"climbing"}},"7395759192":{"lat":43.1991385,"lon":5.4973078,"ts":"2023-03-15T17:07:42Z","tz":1,"tags":{"name":"La Zizanie","name:oc":"La Filada","natural":"cliff","source:name:oc":"ieo-bdtopoc","sport":"climbing"}},"7395759193":{"lat":43.1986144,"lon":5.4977997,"ts":"2023-02-17T09:20:09Z","tz":1,"tags":{"name":"Jibbis","natural":"cliff","sport":"climbing"}},"7398077184":{"lat":43.2051586,"lon":5.4975374,"ts":"2022-09-23T14:27:11Z","tz":1,"tags":{"name":"En Vau - Le Pouce","name:oc":"Lo Poce d’En Vau","natural":"cliff","source:name:oc":"ieo-bdtopoc","sport":"climbing"}},"7398120885":{"lat":43.2044717,"lon":5.4971974,"ts":"2022-09-23T14:27:11Z","tz":1,"tags":{"name":"Les Garçons de café","name:oc":"Lei Garçons de Cafè","natural":"cliff","source:name:oc":"ieo-bdtopoc","sport":"climbing"}},"7398120886":{"lat":43.2047885,"lon":5.4967198,"ts":"2022-09-23T14:27:11Z","tz":1,"tags":{"name":"La Grande Aiguille","name:oc":"La Bèla Agulha","natural":"cliff","source:name:oc":"ieo-bdtopoc","sport":"climbing"}},"7398120887":{"lat":43.2032406,"lon":5.4970215,"ts":"2022-09-28T16:32:51Z","tz":1,"tags":{"name":"Les Sirenes","name:oc":"Lei Serenas","natural":"cliff","source:name:oc":"ieo-bdtopoc","sport":"climbing"}},"7398120888":{"lat":43.202825,"lon":5.497604,"ts":"2022-09-29T13:53:19Z","tz":1,"tags":{"name":"Saphir","name:oc":"Safir","natural":"cliff","source:name:oc":"ieo-bdtopoc","sport":"climbing"}},"7398120889":{"lat":43.2012352,"lon":5.5027641,"ts":"2020-04-13T12:22:47Z","tz":1,"tags":{"name":"Secteur Piolet","natural":"cliff","sport":"climbing"}},"7398120890":{"lat":43.209821,"lon":5.4973162,"ts":"2022-09-29T09:42:44Z","tz":1,"tags":{"name":"La Paroi Marron","name:oc":"La Paret Bruna","natural":"cliff","source:name:oc":"ieo-bdtopoc","sport":"climbing"}},"7398120891":{"lat":43.2145603,"lon":5.4692838,"ts":"2022-09-29T13:53:19Z","tz":1,"tags":{"name":"Le Saut du Chat gauche","name:oc":"Lo Daut dau Cat Senequier","natural":"cliff","source:name:oc":"ieo-bdtopoc","sport":"climbing"}},"7398120892":{"lat":43.2143136,"lon":5.4480371,"ts":"2023-07-09T21:33:38Z","tz":1,"tags":{"name":"Secteur du Belvédère","name:oc":"Sector de l’Amirador","natural":"cliff","source:name:oc":"ieo-bdtopoc","sport":"climbing"}},"7398120893":{"lat":43.2148461,"lon":5.4450137,"ts":"2023-04-30T06:18:40Z","tz":1,"tags":{"name":"La Polka","name:oc":"La Polcà","natural":"cliff","source:name:oc":"ieo-bdtopoc","sport":"climbing"}},"7398120894":{"lat":43.2160289,"lon":5.4438171,"ts":"2022-10-16T14:28:20Z","tz":1,"tags":{"name":"La Zi","natural":"cliff","sport":"climbing"}},"7398120895":{"lat":43.2163293,"lon":5.4399003,"ts":"2022-09-28T11:34:08Z","tz":1,"tags":{"alt_name":"Shangri La","name":"La Roche Perçée","name:oc":"La Ròca Traucada","natural":"cliff","source:name:oc":"ieo-bdtopoc","sport":"climbing"}},"7398120896":{"lat":43.2181472,"lon":5.4373081,"ts":"2022-09-28T16:32:51Z","tz":1,"tags":{"name":"Les Colos","name:oc":"Lei Colòs","natural":"cliff","source:name:oc":"ieo-bdtopoc","sport":"climbing"}},"7398120897":{"lat":43.2176617,"lon":5.4354928,"ts":"2022-09-23T08:45:45Z","tz":1,"tags":{"name":"Chouchou","name:oc":"Cardacha","natural":"cliff","source:name:oc":"ieo-bdtopoc","sport":"climbing"}},"7398120898":{"lat":43.2201105,"lon":5.4346817,"ts":"2022-09-28T16:32:51Z","tz":1,"tags":{"name":"Le Royaume de Dégun","name:oc":"Lo Reiaume de Degun","natural":"cliff","source:name:oc":"ieo-bdtopoc","sport":"climbing"}},"7402225570":{"lat":43.2152512,"lon":5.4072812,"ts":"2022-09-28T11:34:08Z","tz":1,"tags":{"name":"Parfumerie - secteur de droite","name:oc":"La Prefumariá Drechiera","natural":"cliff","source:name:oc":"ieo-bdtopoc","sport":"climbing"}},"7402225571":{"lat":43.2169149,"lon":5.4089592,"ts":"2022-09-23T08:45:45Z","tz":1,"tags":{"name":"Col de Sormiou - face nord","name:oc":"Pas de Sormiu Ubac","natural":"cliff","source:name:oc":"ieo-bdtopoc","sport":"climbing"}},"7402225572":{"lat":43.2161859,"lon":5.4086951,"ts":"2022-09-23T08:45:45Z","tz":1,"tags":{"name":"Col de Sormiou - face sud est","name:oc":"Pas de Sormiu Adrech","natural":"cliff","source:name:oc":"ieo-bdtopoc","sport":"climbing"}},"7402225573":{"lat":43.2169416,"lon":5.4137181,"ts":"2022-09-28T16:32:51Z","tz":1,"tags":{"name":"Les Mamouchons","name:oc":"Lei Pòrcs Singlar","natural":"cliff","source:name:oc":"ieo-bdtopoc","sport":"climbing"}},"7402225574":{"lat":43.2170225,"lon":5.4018183,"ts":"2022-09-29T09:42:44Z","tz":1,"tags":{"name":"Le Petit Cirque","name:oc":"Lo Circon","natural":"cliff","source:name:oc":"ieo-bdtopoc","sport":"climbing"}},"7402225575":{"lat":43.2149113,"lon":5.39872,"ts":"2023-07-03T12:29:21Z","tz":1,"tags":{"name":"Le Nid d'Aigle - droite","name:oc":"Lo Nitz de l’Agla Drechier","natural":"cliff","source:name:oc":"ieo-bdtopoc","sport":"climbing"}},"7402225576":{"lat":43.2177173,"lon":5.3973679,"ts":"2023-03-15T16:35:09Z","tz":1,"tags":{"name":"Cirque de Coulon","name:oc":"Circ dau Colon","natural":"cliff","source:name:oc":"ieo-bdtopoc","sport":"climbing"}},"7402225577":{"lat":43.2130695,"lon":5.3930504,"ts":"2023-03-15T16:35:09Z","tz":1,"tags":{"name":"Les Bois","name:oc":"Lei Bòscs","natural":"cliff","source:name:oc":"ieo-bdtopoc","sport":"climbing"}},"7402225578":{"lat":43.2153627,"lon":5.3929479,"ts":"2024-11-21T07:49:24Z","tz":1,"tags":{"name":"Tête de la Melette - face sud","name:oc":"Tèsta de la Meleta - Adrech","natural":"cliff","source:name:oc":"ieo-bdtopoc","sport":"climbing"}},"7402225579":{"lat":43.2133751,"lon":5.3930631,"ts":"2022-09-28T10:52:46Z","tz":1,"tags":{"name":"Aubade gauche","name:oc":"Aubada Senequiera","natural":"cliff","source:name:oc":"ieo-bdtopoc","sport":"climbing"}},"7402225580":{"lat":43.2133711,"lon":5.3937926,"ts":"2022-09-23T08:35:39Z","tz":1,"tags":{"name":"Aubade droite","name:oc":"Aubada Drechuriera","natural":"cliff","source:name:oc":"ieo-bdtopoc","sport":"climbing"}},"7411125524":{"lat":43.2180282,"lon":5.3922906,"ts":"2022-03-01T14:47:50Z","tz":1,"tags":{"name":"Les hauts des Walkyries","natural":"cliff","sport":"climbing"}},"7411125525":{"lat":43.2124647,"lon":5.3910941,"ts":"2024-05-17T18:02:57Z","tz":1,"tags":{"name":"Palangrotte","name:oc":"Palangròta","natural":"cliff","source:name:oc":"ieo-bdtopoc","sport":"climbing"}},"7411125526":{"lat":43.2124042,"lon":5.3904157,"ts":"2022-09-29T13:53:19Z","tz":1,"tags":{"name":"Secteur La Chtouille","name:oc":"Sector de la Castapiana","natural":"cliff","source:name:oc":"ieo-bdtopoc","sport":"climbing"}},"7411125527":{"lat":43.2126161,"lon":5.3903381,"ts":"2022-09-29T09:42:44Z","tz":1,"tags":{"name":"Le Pilier de l'Escu","name:oc":"Lo Pilar de l’Escut","natural":"cliff","source:name:oc":"ieo-bdtopoc","sport":"climbing"}},"7411125528":{"lat":43.2126951,"lon":5.3901934,"ts":"2022-09-28T11:34:08Z","tz":1,"tags":{"name":"Leche Cul","name:oc":"Sucra Balòta","natural":"cliff","source:name:oc":"ieo-bdtopoc","sport":"climbing"}},"7411125529":{"lat":43.2127146,"lon":5.3899185,"ts":"2022-09-23T14:27:11Z","tz":1,"tags":{"name":"Corniche des Pecheurs - droite","name:oc":"Cengle dei Pescadors Drechier","natural":"cliff","source:name:oc":"ieo-bdtopoc","sport":"climbing"}},"7411125530":{"lat":43.2122684,"lon":5.3895905,"ts":"2022-09-26T13:37:26Z","tz":1,"tags":{"name":"Corniche des Pecheurs - gauche","name:oc":"Cengle dei Pescadors Senequier","natural":"cliff","source:name:oc":"ieo-bdtopoc","sport":"climbing"}},"7411125531":{"lat":43.212232,"lon":5.3899175,"ts":"2022-09-29T13:53:19Z","tz":1,"tags":{"name":"Secteur des Toits","name:oc":"Sector dei Teulissas","natural":"cliff","source:name:oc":"ieo-bdtopoc","sport":"climbing"}},"7411125532":{"lat":43.2151115,"lon":5.3897954,"ts":"2022-09-28T11:34:08Z","tz":1,"tags":{"name":"Le Cirque","name:oc":"Lo Circ","natural":"cliff","source:name:oc":"ieo-bdtopoc","sport":"climbing"}},"7411125533":{"lat":43.2150116,"lon":5.3891994,"ts":"2022-09-28T11:34:08Z","tz":1,"tags":{"name":"Le Mur","name:oc":"La Paret","natural":"cliff","source:name:oc":"ieo-bdtopoc","sport":"climbing"}},"7411125534":{"lat":43.2153716,"lon":5.3874068,"ts":"2024-04-20T08:17:17Z","tz":1,"tags":{"name":"La Lèbre","name:oc":"La Lèbre","natural":"cliff","source:name:oc":"ieo-bdtopoc","sport":"climbing"}},"7411125535":{"lat":43.2209785,"lon":5.3751864,"ts":"2022-08-24T11:35:43Z","tz":1,"tags":{"name":"Pointe Callot","name:oc":"Poncha Calòt","natural":"cliff","source:name:oc":"ieo-bdtopoc","sport":"climbing"}},"7411125536":{"lat":43.2194055,"lon":5.3768753,"ts":"2022-10-05T15:04:31Z","tz":1,"tags":{"name":"Le Balcon","name:oc":"Lo Bescaume","natural":"cliff","source:name:oc":"ieo-bdtopoc","sport":"climbing"}},"7411125537":{"lat":43.218875,"lon":5.376504,"ts":"2022-10-05T11:38:48Z","tz":1,"tags":{"name":"Dalle du Méandre","name:oc":"Lausa dau Contorn","natural":"cliff","source:name:oc":"ieo-bdtopoc","sport":"climbing"}},"7411125538":{"lat":43.2184863,"lon":5.3767832,"ts":"2022-10-05T15:04:31Z","tz":1,"tags":{"name":"Le Méandre","name:oc":"Lo Contorn","natural":"cliff","source:name:oc":"ieo-bdtopoc","sport":"climbing"}},"7411125539":{"lat":43.2181957,"lon":5.3761152,"ts":"2022-10-05T15:04:31Z","tz":1,"tags":{"name":"Le Porche - Cigaloun","name:oc":"Lo Pòrge e Cigalon","natural":"cliff","source:name:oc":"ieo-bdtopoc","sport":"climbing"}},"7411125540":{"lat":43.2178398,"lon":5.3754822,"ts":"2022-10-05T15:04:31Z","tz":1,"tags":{"name":"Le Porche - L'eau des Collines","name:oc":"Lo Pòrge e L’Aiga dei Còlas","natural":"cliff","source:name:oc":"ieo-bdtopoc","sport":"climbing"}},"7411125541":{"lat":43.2195734,"lon":5.3730591,"ts":"2022-10-05T11:38:48Z","tz":1,"tags":{"name":"Face Sud Est","name:oc":"Miegjorn Levantau de Marselha Veire","natural":"cliff","source:name:oc":"ieo-bdtopoc","sport":"climbing"}},"7411125542":{"lat":43.2184896,"lon":5.3712543,"ts":"2020-04-16T13:50:48Z","tz":1,"tags":{"name":"Tora Bora","natural":"cliff","sport":"climbing"}},"7411125543":{"lat":43.2207587,"lon":5.3701002,"ts":"2022-10-05T15:36:02Z","tz":1,"tags":{"name":"Col de la Mounine","name:oc":"Pas de la Monina","natural":"cliff","source:name:oc":"ieo-bdtopoc","sport":"climbing"}},"7411125544":{"lat":43.2183921,"lon":5.3673087,"ts":"2022-10-04T16:37:43Z","tz":1,"tags":{"comment":"< bauma : abri sous roche+ monina : guenon","name":"Baume de la Mounine","name:oc":"Bauma de la Monina","natural":"cliff","source:name:oc":"ieo-bdtopoc","sport":"climbing"}},"7411125545":{"lat":43.2180332,"lon":5.3695393,"ts":"2023-11-06T10:11:04Z","tz":1,"tags":{"name":"Face Ouest","name:oc":"Ponent de Marselha Vièlha","natural":"cliff","source:name:oc":"ieo-bdtopoc","sport":"climbing"}},"7411125546":{"lat":43.2178221,"lon":5.3700414,"ts":"2022-10-05T11:38:48Z","tz":1,"tags":{"name":"La Galinette droite","name:oc":"La Galineta Drechiera","natural":"cliff","source:name:oc":"ieo-bdtopoc","sport":"climbing"}},"7411125547":{"lat":43.2174421,"lon":5.3696165,"ts":"2022-10-05T11:38:48Z","tz":1,"tags":{"name":"La Galinette gauche","name:oc":"La Galineta Senequiera","natural":"cliff","source:name:oc":"ieo-bdtopoc","sport":"climbing"}},"7411125548":{"lat":43.2161755,"lon":5.3697324,"ts":"2022-10-05T15:36:02Z","tz":1,"tags":{"name":"Col de la Galinette","name:oc":"Pas de la Galineta","natural":"cliff","source:name:oc":"ieo-bdtopoc","sport":"climbing"}},"7411125549":{"lat":43.2147047,"lon":5.3707173,"ts":"2022-10-05T15:36:02Z","tz":1,"tags":{"name":"Les Pintades droite","name:oc":"Lei Pintadas Drechieras","natural":"cliff","source:name:oc":"ieo-bdtopoc","sport":"climbing"}},"7411125550":{"lat":43.2142473,"lon":5.3710649,"ts":"2022-10-05T15:36:02Z","tz":1,"tags":{"name":"Les Pintades gauche","name:oc":"Lei Pintadas Senequieras","natural":"cliff","source:name:oc":"ieo-bdtopoc","sport":"climbing"}},"7411125551":{"lat":43.2135506,"lon":5.3713739,"ts":"2022-10-05T15:04:31Z","tz":1,"tags":{"name":"Les Cailles","name:oc":"Lei Calhas","natural":"cliff","source:name:oc":"ieo-bdtopoc","sport":"climbing"}},"7411125552":{"lat":43.2166968,"lon":5.3668964,"ts":"2022-10-05T15:04:31Z","tz":1,"tags":{"name":"Le Toubib","name:oc":"Lo Mètge","natural":"cliff","source:name:oc":"ieo-bdtopoc","sport":"climbing"}},"7426427963":{"lat":43.2170439,"lon":5.4211729,"ts":"2023-02-23T18:55:06Z","tz":1,"tags":{"name":"Les Escourtines","name:oc":"Las Cortinas","natural":"cliff","source:name:oc":"ieo-bdtopoc","sport":"climbing"}},"7426837460":{"lat":43.2159016,"lon":5.3648317,"ts":"2022-10-05T11:38:48Z","tz":1,"tags":{"name":"La Grande Vire","name:oc":"La Virassa","natural":"cliff","source:name:oc":"ieo-bdtopoc","sport":"climbing"}},"7426837461":{"lat":43.2155367,"lon":5.3641641,"ts":"2022-10-05T15:04:31Z","tz":1,"tags":{"name":"La Rectiligne","name:oc":"La Drecha","natural":"cliff","source:name:oc":"ieo-bdtopoc","sport":"climbing"}},"7426837462":{"lat":43.2163137,"lon":5.3638242,"ts":"2022-10-05T15:36:02Z","tz":1,"tags":{"name":"Secteur du Pin","name:oc":"Ròdol dau Pin","natural":"cliff","source:name:oc":"ieo-bdtopoc","sport":"climbing"}},"7426837463":{"lat":43.2166981,"lon":5.3638184,"ts":"2022-10-05T11:38:48Z","tz":1,"tags":{"name":"Grotte de l'Ermite","name:oc":"Bauma de l’Ermitan","natural":"cliff","source:name:oc":"ieo-bdtopoc","sport":"climbing"}},"7426837464":{"lat":43.2173758,"lon":5.3636502,"ts":"2022-10-05T15:36:02Z","tz":1,"tags":{"name":"La Paroi Jaune","name:oc":"La Paret Jauna","natural":"cliff","source:name:oc":"ieo-bdtopoc","sport":"climbing"}},"7426837465":{"lat":43.2179882,"lon":5.3641838,"ts":"2022-11-18T01:46:24Z","tz":1,"tags":{"name":"Les Trois Rappels","name:oc":"Lei Tres Rampèus","natural":"cliff","source:name:oc":"ieo-bdtopoc","sport":"climbing"}},"7426837466":{"lat":43.2177247,"lon":5.3636889,"ts":"2022-10-06T07:15:54Z","tz":1,"tags":{"name":"Les Murmures du Silence","name:oc":"Lei Murmurs dau Silenci","natural":"cliff","source:name:oc":"ieo-bdtopoc","sport":"climbing"}},"7426837467":{"lat":43.2176823,"lon":5.363604,"ts":"2022-10-05T11:38:48Z","tz":1,"tags":{"name":"La Carte Postale","name:oc":"La Carta Postala","natural":"cliff","source:name:oc":"ieo-bdtopoc","sport":"climbing"}},"7426837468":{"lat":43.2162546,"lon":5.3609046,"ts":"2022-10-05T11:38:48Z","tz":1,"tags":{"name":"Falaise de droite","name:oc":"Bauç Drechier","natural":"cliff","source:name:oc":"ieo-bdtopoc","sport":"climbing"}},"7426837469":{"lat":43.2165362,"lon":5.3607793,"ts":"2022-10-05T15:04:31Z","tz":1,"tags":{"name":"La Nougatine","name:oc":"La Nogatina","natural":"cliff","source:name:oc":"ieo-bdtopoc","sport":"climbing"}},"7426837470":{"lat":43.2166986,"lon":5.3604782,"ts":"2020-04-20T18:37:16Z","tz":1,"tags":{"name":"Miax","natural":"cliff","sport":"climbing"}},"7426837471":{"lat":43.2150271,"lon":5.3629127,"ts":"2022-10-05T15:04:31Z","tz":1,"tags":{"name":"Les Lames - face nord","name:oc":"L’Ubac dei Lamas","natural":"cliff","source:name:oc":"ieo-bdtopoc","sport":"climbing"}},"7426837472":{"lat":43.2148007,"lon":5.3627546,"ts":"2022-10-05T15:04:31Z","tz":1,"tags":{"name":"Les Lames - face sud","name:oc":"L’Adrech dei Lamas","natural":"cliff","source:name:oc":"ieo-bdtopoc","sport":"climbing"}},"7426837473":{"lat":43.2147454,"lon":5.3611425,"ts":"2023-03-25T15:54:12Z","tz":1,"tags":{"name":"Rocher des Goudes - face nord","name:oc":"Ubac dei Godas","natural":"cliff","source:name:oc":"ieo-bdtopoc","sport":"climbing"}},"7426837474":{"lat":43.2143612,"lon":5.3613398,"ts":"2023-11-06T10:32:29Z","tz":1,"tags":{"name":"Rocher des Goudes - face sud","name:oc":"Adrech dei Godas","natural":"cliff","source:name:oc":"ieo-bdtopoc","sport":"climbing"}},"7426837475":{"lat":43.2177976,"lon":5.3615205,"ts":"2022-10-05T11:38:48Z","tz":1,"tags":{"name":"Dalle du Perdreau","name:oc":"Lausa dau Perdigau","natural":"cliff","source:name:oc":"ieo-bdtopoc","sport":"climbing"}},"7454392034":{"lat":43.219189,"lon":5.3600157,"ts":"2022-10-05T15:04:31Z","tz":1,"tags":{"name":"Le Mur de l'été","name:oc":"La Paret Estivala","natural":"cliff","source:name:oc":"ieo-bdtopoc","sport":"climbing"}},"7454392035":{"lat":43.2196178,"lon":5.360234,"ts":"2022-10-05T15:04:31Z","tz":1,"tags":{"name":"Le Mur de l'hiver","name:oc":"La Paret Ivernala","natural":"cliff","source:name:oc":"ieo-bdtopoc","sport":"climbing"}},"7454392036":{"lat":43.2201029,"lon":5.3580499,"ts":"2022-10-05T11:38:48Z","tz":1,"tags":{"name":"Le Jardin d'enfants","name:oc":"La Niniera","natural":"cliff","source:name:oc":"ieo-bdtopoc","sport":"climbing"}},"7454392037":{"lat":43.2174897,"lon":5.3555065,"ts":"2023-07-04T13:45:45Z","tz":1,"tags":{"height":"12","name":"Lapinodrome","natural":"cliff","sport":"climbing"}},"7454392038":{"lat":43.2240327,"lon":5.3737487,"ts":"2022-10-05T11:38:48Z","tz":1,"tags":{"name":"Face est","name:oc":"Levant de Marselha Veire","natural":"cliff","source:name:oc":"ieo-bdtopoc","sport":"climbing"}},"7454392039":{"lat":43.2260931,"lon":5.3734506,"ts":"2020-04-27T16:46:45Z","tz":1,"tags":{"name":"Massilia","natural":"cliff","sport":"climbing"}},"7454392040":{"lat":43.2258623,"lon":5.3713221,"ts":"2021-11-09T17:10:15Z","tz":1,"tags":{"name":"Les Toits de Marseilleveyre","name:oc":"Cengle de Marselha Vièlh","natural":"cliff","source:name:oc":"ieo-bdtopoc","sport":"climbing"}},"7454392041":{"lat":43.225801,"lon":5.3704218,"ts":"2020-04-27T16:46:45Z","tz":1,"tags":{"name":"Safer sex","natural":"cliff","sport":"climbing"}},"7454392042":{"lat":43.2252721,"lon":5.3687167,"ts":"2022-10-05T11:38:48Z","tz":1,"tags":{"name":"Franken Vallon gauche","name:oc":"Valon de Franken Senequier","natural":"cliff","source:name:oc":"ieo-bdtopoc","sport":"climbing"}},"7454392043":{"lat":43.2258226,"lon":5.3686422,"ts":"2022-10-06T07:15:54Z","tz":1,"tags":{"name":"Underground","name:oc":"Pas de Dessota","natural":"cliff","source:name:oc":"ieo-bdtopoc","sport":"climbing"}},"7454392044":{"lat":43.2252753,"lon":5.3677592,"ts":"2022-10-05T11:38:48Z","tz":1,"tags":{"name":"Franken Vallon droite","name:oc":"Valon de Franken Drechier","natural":"cliff","source:name:oc":"ieo-bdtopoc","sport":"climbing"}},"7454392045":{"lat":43.2247083,"lon":5.3678258,"ts":"2020-04-27T16:46:45Z","tz":1,"tags":{"name":"Metallika","natural":"cliff","sport":"climbing"}},"7454392046":{"lat":43.2246262,"lon":5.3677671,"ts":"2022-10-05T15:04:31Z","tz":1,"tags":{"name":"La Mitre","name:oc":"La Mitra","natural":"cliff","source:name:oc":"ieo-bdtopoc","sport":"climbing"}},"7454392047":{"lat":43.2248926,"lon":5.3657175,"ts":"2022-10-04T16:37:43Z","tz":1,"tags":{"name":"Aiguille du Rat","name:oc":"Agulha dau Rat","natural":"cliff","source:name:oc":"ieo-bdtopoc","sport":"climbing"}},"7454392048":{"lat":43.224636,"lon":5.3649093,"ts":"2022-10-04T16:37:43Z","tz":1,"tags":{"name":"Baume des Houx","name:oc":"Bauma dau Verboisset","natural":"cliff","source:name:oc":"ieo-bdtopoc","sport":"climbing"}},"7454392049":{"lat":43.2245921,"lon":5.3642954,"ts":"2022-10-05T11:38:48Z","tz":1,"tags":{"name":"L’Immadras","name:oc":"L’Immadràs","natural":"cliff","source:name:oc":"ieo-bdtopoc","sport":"climbing"}},"7454392050":{"lat":43.2247615,"lon":5.3635369,"ts":"2022-10-05T11:38:48Z","tz":1,"tags":{"name":"Le Chicot de gauche","name:oc":"Lo Chicòt Senequier","natural":"cliff","source:name:oc":"ieo-bdtopoc","sport":"climbing"}},"7454392051":{"lat":43.2242661,"lon":5.3632261,"ts":"2022-10-05T11:38:48Z","tz":1,"tags":{"name":"Le Chicot de droite","name:oc":"Lo Chicòt Drechier","natural":"cliff","source:name:oc":"ieo-bdtopoc","sport":"climbing"}},"7454392052":{"lat":43.2240247,"lon":5.3653161,"ts":"2022-10-05T11:38:48Z","tz":1,"tags":{"name":"La Colonne","name:oc":"La Colana","natural":"cliff","source:name:oc":"ieo-bdtopoc","sport":"climbing"}},"7454392053":{"lat":43.2236949,"lon":5.3673894,"ts":"2022-10-05T15:04:31Z","tz":1,"tags":{"name":"La Tour","name:oc":"La Torre","natural":"cliff","source:name:oc":"ieo-bdtopoc","sport":"climbing"}},"7454392054":{"lat":43.2226001,"lon":5.3662679,"ts":"2022-10-05T15:04:31Z","tz":1,"tags":{"name":"Les Oreilles de Lapin","name:oc":"Leis Aurelhas de Coniu","natural":"cliff","source:name:oc":"ieo-bdtopoc","sport":"climbing"}},"7454392055":{"lat":43.2277978,"lon":5.3700184,"ts":"2022-10-05T11:38:48Z","tz":1,"tags":{"name":"Le Jardin de JP","name:oc":"L’Òrt de JP","natural":"cliff","source:name:oc":"ieo-bdtopoc","sport":"climbing"}},"7454392056":{"lat":43.2279916,"lon":5.3668315,"ts":"2022-10-07T07:16:21Z","tz":1,"tags":{"name":"La Bergerie","name:oc":"La Jaça","natural":"cliff","source:name:oc":"ieo-bdtopoc","sport":"climbing"}},"7454392057":{"lat":43.2276442,"lon":5.3754016,"ts":"2022-10-05T15:04:31Z","tz":1,"tags":{"name":"Le Palais de l'Ombre","name:oc":"Lo Palais l’Ombra","natural":"cliff","source:name:oc":"ieo-bdtopoc","sport":"climbing"}},"7454392058":{"lat":43.2260772,"lon":5.3787656,"ts":"2022-10-05T15:36:02Z","tz":1,"tags":{"name":"Le Palais d'été","name:oc":"Lo Palais Estivau","natural":"cliff","source:name:oc":"ieo-bdtopoc","sport":"climbing"}},"7454392059":{"lat":43.2316283,"lon":5.3763407,"ts":"2022-10-05T15:04:31Z","tz":1,"tags":{"name":"Les trois Gancets","name:oc":"Lei Tres Gancets","natural":"cliff","source:name:oc":"ieo-bdtopoc","sport":"climbing"}},"7454392060":{"lat":43.2300245,"lon":5.3784157,"ts":"2022-09-29T13:53:19Z","tz":1,"tags":{"name":"Secteur Grotte","name:oc":"Sector Espeluca","natural":"cliff","source:name:oc":"ieo-bdtopoc","sport":"climbing"}},"7454392061":{"lat":43.2283613,"lon":5.3874312,"ts":"2022-09-23T08:45:45Z","tz":1,"tags":{"name":"Classic Line","name:oc":"Linha Classica","natural":"cliff","source:name:oc":"ieo-bdtopoc","sport":"climbing"}},"7454392062":{"lat":43.2280249,"lon":5.3889179,"ts":"2022-09-23T14:27:11Z","tz":1,"tags":{"name":"Enfance de l'Art","name:oc":"Cocanha","natural":"cliff","source:name:oc":"ieo-bdtopoc","sport":"climbing"}},"7454392063":{"lat":43.227052,"lon":5.3912242,"ts":"2024-12-02T13:05:34Z","tz":1,"tags":{"name":"Les Loges","name:oc":"Lo logaràs","natural":"cliff","source:name:oc":"ieo-bdtopoc","sport":"climbing"}},"7454392064":{"lat":43.2318806,"lon":5.3788933,"ts":"2025-01-14T17:27:32Z","tz":1,"tags":{"name":"Les Phalanges Résinées","name:oc":"Lei Falanjas Resinadas","natural":"cliff","source:name:oc":"ieo-bdtopoc","sport":"climbing"}},"7454392065":{"lat":43.2319695,"lon":5.3793067,"ts":"2022-10-05T11:38:48Z","tz":1,"tags":{"name":"La Haute Tension","name:oc":"La Tension Auta","natural":"cliff","source:name:oc":"ieo-bdtopoc","sport":"climbing"}},"7454392066":{"lat":43.2319695,"lon":5.3814082,"ts":"2022-10-04T16:37:43Z","tz":1,"tags":{"name":"Au nom du Père","name:oc":"Au nom dau Paire","natural":"cliff","source:name:oc":"ieo-bdtopoc","sport":"climbing"}},"7454392067":{"lat":43.2318479,"lon":5.383502,"ts":"2022-10-05T15:04:31Z","tz":1,"tags":{"name":"Mistral Gagnant","name:oc":"Mistrau Ganhant","natural":"cliff","source:name:oc":"ieo-bdtopoc","sport":"climbing"}},"7454392068":{"lat":43.2312874,"lon":5.3859856,"ts":"2022-09-28T11:34:08Z","tz":1,"tags":{"name":"La Ruche","name:oc":"Lo Brusc","natural":"cliff","source:name:oc":"ieo-bdtopoc","sport":"climbing"}},"7454392069":{"lat":43.2350458,"lon":5.3882189,"ts":"2022-10-05T11:38:48Z","tz":1,"tags":{"name":"La Citerne","name:oc":"La Cisterna","natural":"cliff","source:name:oc":"ieo-bdtopoc","sport":"climbing"}},"7454392071":{"lat":43.2343941,"lon":5.3928896,"ts":"2023-02-13T20:00:25Z","tz":1,"tags":{"name":"Dalle Grise","name:oc":"Lausa Grisa","natural":"cliff","source:name:oc":"ieo-bdtopoc","sport":"climbing"}},"7454392072":{"lat":43.234843,"lon":5.3932956,"ts":"2022-09-28T10:52:46Z","tz":1,"tags":{"name":"La Grotte","name:oc":"Espeluca de L’Agla","natural":"cliff","source:name:oc":"ieo-bdtopoc","sport":"climbing"}},"7454392073":{"lat":43.235169,"lon":5.3936451,"ts":"2023-02-13T20:05:09Z","tz":1,"tags":{"name":"Le Lys","name:oc":"Lo Liri","natural":"cliff","source:name:oc":"ieo-bdtopoc","sport":"climbing"}},"7958919345":{"lat":43.2299321,"lon":5.4394364,"ts":"2020-09-30T08:34:09Z","tz":1,"tags":{"fee":"yes","leisure":"sports_centre","name":"Le Mur de Luminy","sport":"climbing","website":"https://www.smuc.fr/lemurdeluminy/"}},"8090719797":{"lat":43.2066798,"lon":5.6089698,"ts":"2020-11-07T12:37:21Z","tz":1,"tags":{"addr:city":"La Ciotat","addr:housenumber":"943","addr:postcode":"13600","addr:street":"Voie Antiope","leisure":"sports_centre","name":"Bloc Session","sport":"climbing"}},"8170739306":{"lat":43.2170843,"lon":5.4421806,"ts":"2022-09-28T10:52:46Z","tz":1,"tags":{"name":"Cret St Michel - secteur La Crèche","name:oc":"Crestenc de Sant Michèu - Belem","natural":"cliff","source:name:oc":"ieo-bdtopoc","sport":"climbing"}},"8736363019":{"lat":43.2229673,"lon":5.3644553,"ts":"2022-10-16T20:42:44Z","tz":1,"tags":{"mountain_pass":"yes","name":"(Pas)","natural":"rock","safety_rope":"yes","sport":"climbing"}},"8870289713":{"lat":43.2716162,"lon":5.5684322,"ts":"2021-06-27T19:45:53Z","tz":1,"tags":{"climbing:toprope":"yes","sport":"climbing"}},"9457479603":{"lat":43.2936334,"lon":5.4120939,"ts":"2022-01-29T09:04:54Z","tz":1,"tags":{"name":"Bloc session Marseille centre","sport":"climbing"}},"9620594154":{"lat":43.2152029,"lon":5.4301573,"ts":"2022-10-16T20:42:44Z","tz":1,"tags":{"description":"Pas en 4sup de 3.5m, délicat en monté, très délicat en descente.","mountain_pass":"yes","name":"(Pas)","natural":"rock","sport":"climbing"}},"9652913872":{"lat":43.2127842,"lon":5.427378,"ts":"2022-10-16T20:21:35Z","tz":1,"tags":{"mountain_pass":"yes","name":"(Pas)","natural":"rock","note":"Facile","sport":"climbing"}},"9653003577":{"lat":43.211346,"lon":5.3881592,"ts":"2024-03-27T10:36:49Z","tz":1,"tags":{"mountain_pass":"yes","name":"Pas du Pêcheur","natural":"rock","note":"Pas très patiné. Modéré en monté, délicat en descente.","sport":"climbing"}},"9672910960":{"lat":43.2099745,"lon":5.468545,"ts":"2022-10-16T20:42:44Z","tz":1,"tags":{"mountain_pass":"yes","name":"(Pas)","natural":"rock","note":"Traversée délicate et très exposée. Plus de chaine. Reste les anneaux pour s'encorder.","safety_rope":"no","sport":"climbing"}},"9682165066":{"lat":43.2101962,"lon":5.4531423,"ts":"2024-03-27T10:36:49Z","tz":1,"tags":{"description":"Il n'y a plus de corde pour aider au passage. Très patiné.","mountain_pass":"yes","name":"Pas du Levant de Sugiton","name:oc":"Pas dau Levant de Sugiton","natural":"rock","sport":"climbing"}},"9704154883":{"lat":43.2181468,"lon":5.3632148,"ts":"2022-10-16T20:21:35Z","tz":1,"tags":{"mountain_pass":"yes","name":"(Pas)","natural":"rock","sac_scale":"alpine_hiking","sport":"climbing"}},"9786888320":{"lat":43.2058268,"lon":5.4238983,"ts":"2022-10-16T20:21:35Z","tz":1,"tags":{"name":"(Pas d'escalade)","natural":"rock","sport":"climbing"}},"9786898512":{"lat":43.211005,"lon":5.4621106,"ts":"2022-10-16T20:42:44Z","tz":1,"tags":{"description":"Pas avec haut de la dalle avec gravier instables.","mountain_pass":"yes","name":"(Pas)","natural":"rock","sport":"climbing"}},"9874364446":{"lat":43.3020971,"lon":5.3669429,"ts":"2022-07-08T13:00:21Z","tz":1,"tags":{"club":"sport","federation":"FSGT","name":"Cime Sardine","sport":"climbing"}},"10027845146":{"lat":43.2264575,"lon":5.3739028,"ts":"2022-10-16T20:51:18Z","tz":1,"tags":{"mountain_pass":"yes","name":"(Pas)","natural":"rock","sport":"climbing"}},"10087313272":{"lat":43.2129435,"lon":5.4699412,"ts":"2023-02-28T15:44:11Z","tz":1,"tags":{"mountain_pass":"yes","name":"Pas de la Cheminée du Diable","natural":"rock","sport":"climbing"}},"10107149994":{"lat":43.2110121,"lon":5.4711288,"ts":"2023-02-28T15:44:11Z","tz":1,"tags":{"mountain_pass":"yes","name":"(Pas)","natural":"rock","sport":"climbing"}},"10200497684":{"lat":43.2682014,"lon":5.434256,"ts":"2024-11-20T10:34:18Z","tz":1,"tags":{"description":"27 voies, quelques unes propres, autres oxydés, je vois pas des chaines aux tops","name":"Mont Rouvière-Secteur du Bas","sport":"climbing"}},"10593883838":{"lat":43.20672,"lon":5.4199568,"ts":"2023-02-07T12:40:15Z","tz":1,"tags":{"description":"R3. Rappel vers les voies : Dark side of the moule, Etron fou, On est toujours trop bon avec les femmes.","name":"Rappel Dark side of the moule/Etron fou/On est toujours trop bon avec les femmes","natural":"cliff","sport":"climbing"}},"10610570236":{"lat":43.1800946,"lon":5.5668006,"ts":"2023-05-08T09:30:54Z","tz":1,"tags":{"mountain_pass":"yes","name":"Pas de la chèvre","natural":"rock","sport":"climbing"}},"10610570240":{"lat":43.1740529,"lon":5.5742002,"ts":"2023-02-06T09:22:29Z","tz":1,"tags":{"name":"Rappel","natural":"cliff","sport":"climbing"}},"10914014104":{"lat":43.1858706,"lon":5.5618234,"ts":"2023-05-20T12:53:08Z","tz":1,"tags":{"sport":"climbing"}},"11110593427":{"lat":43.2692884,"lon":5.4445187,"ts":"2023-08-12T21:32:21Z","tz":1,"tags":{"sport":"climbing"}},"11883185570":{"lat":43.2422834,"lon":5.3976277,"ts":"2024-05-06T08:42:15Z","tz":1,"tags":{"addr:city":"Marseille","addr:postcode":"13009","addr:street":"Impasse Paradou","leisure":"sports_centre","name":"Bloc Session","opening_hours":"Mo,Tu,Th,Fr 12:00-22:00; We 12:00-14:00, 17:00-22:00; Sa 15:00-20:00","sport":"climbing","website":"https://www.blocsession.com/salle-escalade/marseille-sud/"}},"11904739104":{"lat":43.2161743,"lon":5.4443972,"ts":"2024-05-14T17:27:11Z","tz":1,"tags":{"climbing":"route_top","climbing:length":"100","climbing:pitches":"4","name":"Voie de rappel","sport":"climbing"}},"11904739105":{"lat":43.2077141,"lon":5.446571,"ts":"2024-05-14T17:27:11Z","tz":1,"tags":{"climbing:deepwater":"yes","name":"Super Trempe","sport":"climbing"}},"12406952681":{"lat":43.2040946,"lon":5.4888766,"ts":"2024-12-09T11:23:59Z","tz":1,"tags":{"name":"Éperon Ouest","natural":"cliff","sport":"climbing"}},"12451730044":{"lat":43.210204,"lon":5.4622987,"ts":"2024-12-25T21:36:54Z","tz":1,"tags":{"name":"Traversée de la commune","sport":"climbing"}},"12466570403":{"lat":43.2060964,"lon":5.4212451,"ts":"2025-01-01T08:35:21Z","tz":1,"tags":{"height":"130","name":"La penthère rose","natural":"cliff","sport":"climbing"}}}