{"27787884":{"lat":-27.4777246,"lon":153.033776,"ts":"2023-04-25T18:50:55Z","tz":10,"tags":{"climbing":"crag","name":"Kangaroo Point Cliffs","natural":"cliff","sport":"climbing","wikidata":"Q6362584"}},"246546147":{"lat":-27.4461561,"lon":152.9501589,"ts":"2013-12-12T10:58:38Z","tz":10,"tags":{"leisure":"stadium","name":"climbing wall","sport":"climbing"}},"416813521":{"lat":-27.4730027,"lon":153.0002123,"ts":"2017-07-30T04:25:15Z","tz":10,"tags":{"addr:housenumber":"17","building":"commercial","building:levels":"2","climbing:boulder":"yes","climbing:toprope":"no","fee":"yes","indoor":"yes","leisure":"sports_centre","name":"Urban Climb","opening_hours":"Mo-Fr 12:00-22:00, Sa,Su,PH 10:00-18:00","sport":"climbing","website":"https://www.urbanclimb.com.au/","wheelchair":"limited"}},"513383538":{"lat":-27.4577538,"lon":153.0310713,"ts":"2025-02-17T09:49:06Z","tz":10,"tags":{"addr:housenumber":"224","addr:postcode":"4006","addr:street":"Barry Parade","addr:suburb":"Fortitude Valley","building":"commercial","name":"Rocksports indoor climbing","phone":"+61 7 3216 0462","sport":"climbing","website":"https://www.rocksports.com.au/"}},"611909184":{"lat":-27.5601216,"lon":153.070904,"ts":"2018-07-29T00:53:37Z","tz":10,"tags":{"indoor":"room","level":"0","name":"Sky Climb","sport":"climbing"}},"1102801808":{"lat":-27.4813666,"lon":153.0327801,"ts":"2022-10-11T07:48:04Z","tz":10,"tags":{"name":"Kangaroo Point Cliffs","natural":"cliff","sport":"climbing"}},"3791238419":{"lat":-27.4770293,"lon":153.0084749,"ts":"2021-06-27T01:26:55Z","tz":10,"tags":{"addr:housenumber":"220","addr:postcode":"4101","addr:street":"Montague Road","addr:suburb":"West End","fee":"yes","leisure":"sports_centre","level":"0","name":"Urban Climb West End Ropes","source":"Brisbane City Council","source:date":"2018-12-14","sport":"climbing","website":"https://www.urbanclimb.com.au/"}},"4501451889":{"lat":-27.4550054,"lon":153.0404751,"ts":"2024-12-10T07:29:54Z","tz":10,"tags":{"addr:housenumber":"5","addr:street":"Morse Street","check_date":"2024-12-10","leisure":"fitness_centre","name":"Urban Climb","name:en":"Urban Climb","sport":"climbing","website":"https://www.urbanclimb.com.au/"}},"8869037434":{"lat":-27.4772537,"lon":153.0081316,"ts":"2021-06-27T01:26:55Z","tz":10,"tags":{"fee":"yes","leisure":"sports_centre","level":"0","name":"Urban Climb West End Boulder Hall","sport":"climbing","website":"https://www.urbanclimb.com.au/westend/"}},"9470328791":{"lat":-27.4170046,"lon":153.0722451,"ts":"2022-02-03T03:28:20Z","tz":10,"tags":{"leisure":"sports_centre","name":"Urban Xtreme","phone:AU":"1300 872 269","sport":"climbing","website":"https://www.urban-xtreme.com.au/"}},"9886721510":{"lat":-27.4199266,"lon":152.9948507,"ts":"2023-08-25T03:29:33Z","tz":10,"tags":{"addr:housenumber":"72","addr:postcode":"4051","addr:state":"QLD","addr:street":"Pickering Street","addr:suburb":"Enoggera","email":"brisbane@9degrees.com.au","leisure":"sports_centre","name":"9 Degrees Bouldering","opening_hours":"Sa-Tu,Th 09:00-22:00; We,Fr 06:00-22:00","phone":"+61 413 131 701","sport":"climbing","website":"https://www.9degrees.com.au/enoggera"}}}