{"670017926":{"lat":42.5190877,"lon":-83.117093,"ts":"2025-02-18T22:26:37Z","tz":-5,"tags":{"addr:housenumber":"1103","addr:postcode":"48071","addr:street":"West 13 Mile Road","building":"yes","leisure":"sports_centre","name":"Planet Rock Climbing Gym","opening_hours":"Sa-Su 10:00-18:00; Mo, Fr 14:00-22:00; Tu-Th 08:00-22:00","phone":"+1 (248) 397-8354","sport":"climbing"}},"7286176332":{"lat":42.4139231,"lon":-83.0515503,"ts":"2020-03-11T21:07:41Z","tz":-5,"tags":{"leisure":"sports_centre","sport":"climbing"}},"11245595118":{"lat":42.3156884,"lon":-83.003659,"ts":"2023-10-07T12:32:10Z","tz":-5,"tags":{"addr:housenumber":"1215","addr:street":"Walker Road","charge":"18.50 CAD;170 CAD/10 times;90 CAD/month;210 CAD/3 months;670 CAD/12 months","charge:child":"80 CAD/month;175 CAD/3 months;570 CAD/12 months","charge:student":"80 CAD/month;175 CAD/3 months;570 CAD/12 months","climbing:boulder":"yes","climbing:length":"4.8768","contact:facebook":"https://www.facebook.com/WindsorRockGym/","contact:instagram":"windsorrockgym","fee":"yes","leisure":"sports_centre","name":"Windsor Rock Gym","opening_hours":"Tu-Fr 14:00-23:00;Sa-Su 12:00-18:00","phone":"+1-519-992-7505","service:climbing_shoes:rental":"yes","service:climbing_shoes:rental:charge":"5 CAD","sport":"climbing","website":"http://www.windsorrockgym.com"}}}