{"130855010":{"lat":-16.4353885,"lon":-67.940231,"ts":"2023-01-31T06:56:22Z","tz":-4,"tags":{"climbing":"route","highway":"path","name":"Ruta al Hati Kholu","surface":"unpaved"}},"1440156544":{"lat":-16.439089,"lon":-67.940564,"ts":"2011-09-22T09:25:26Z","tz":-4,"tags":{"climbing":"route_bottom"}},"4940674922":{"lat":-16.5157873,"lon":-68.130356,"ts":"2019-08-08T05:17:03Z","tz":-4,"tags":{"addr:housenumber":"850-B","addr:street":"Calle Benedeto Vincenti","leisure":"fitness_centre","name":"La Cueva","opening_hours":"Mo-Fr 15:00-21:00","sport":"climbing"}},"5752061935":{"lat":-16.5548651,"lon":-68.0953695,"ts":"2019-11-03T05:55:44Z","tz":-4,"tags":{"climbing":"boulder","name":"El Peñón","natural":"rock","sport":"climbing"}},"5752061936":{"lat":-16.5549709,"lon":-68.0954913,"ts":"2019-11-03T05:55:44Z","tz":-4,"tags":{"climbing":"boulder","name":"El Peñón","natural":"rock","sport":"climbing"}},"5752061937":{"lat":-16.5549121,"lon":-68.0956921,"ts":"2019-11-03T05:55:44Z","tz":-4,"tags":{"climbing":"boulder","name":"El Peñón","natural":"rock","sport":"climbing"}},"5752081454":{"lat":-16.5561399,"lon":-68.0919954,"ts":"2024-03-14T06:38:51Z","tz":-4,"tags":{"climbing":"boulder","name":"La Galleta","natural":"rock","sport":"climbing"}},"5752081455":{"lat":-16.556151,"lon":-68.0930916,"ts":"2024-03-14T06:38:51Z","tz":-4,"tags":{"climbing":"boulder","name":"La Galleta","natural":"rock","sport":"climbing"}},"5752466286":{"lat":-16.5549296,"lon":-68.0969039,"ts":"2019-11-03T05:55:44Z","tz":-4,"tags":{"climbing":"boulder","name":"El Pirata","natural":"rock","sport":"climbing"}},"12001495208":{"lat":-16.5270583,"lon":-68.1481885,"ts":"2024-06-22T20:57:40Z","tz":-4,"tags":{"addr:city":"Ciudad Satélite","addr:housenumber":"500","addr:street":"Avenida Alfredo Sanjines","charge":"30 BOB/person","facebook":"https://www.facebook.com/xtremefunzonasur","fee":"yes","leisure":"sports_centre","name":"XTREME FUN","opening_hours":"Mo-Su 10:00-22:00","operator":"XTREME FUN KIDS S.R.L.","operator:type":"private","phone":"+591 76232366","sport":"climbing"}}}