{"156266753":{"location":[40.568861,-3.6330896],"ts":"2024-02-26T00:04:05Z","tz":1,"tags":{"building":"yes","fee":"yes","leisure":"sports_centre","lit":"yes","sport":"climbing"}},"940791173":{"location":[40.4517735,-3.7837244],"ts":"2023-06-05T10:09:28Z","tz":1,"tags":{"building":"yes","sport":"climbing"}},"940791174":{"location":[40.4517755,-3.7837941],"ts":"2023-06-05T10:09:28Z","tz":1,"tags":{"building":"yes","sport":"climbing"}},"1226701305":{"location":[40.492005,-3.610118],"ts":"2023-11-25T13:06:13Z","tz":1,"tags":{"building":"yes","leisure":"sports_centre","sport":"climbing"}},"3326469036":{"location":[40.476137,-3.6627915],"ts":"2022-03-24T20:45:57Z","tz":1,"tags":{"climbing:boulder":"yes","leisure":"sports_centre","name":"Roc√≥dromo","sport":"climbing"}},"4533484397":{"location":[40.5359814,-3.6566542],"ts":"2023-11-11T12:17:13Z","tz":1,"tags":{"access":"yes","addr:city":"Alcobendas","addr:housenumber":"100","addr:postcode":"28108","addr:street":"Calle de La Granja","email":"alcobendas@sputnikclimbing.com","fee":"yes","leisure":"sports_centre","name":"Sputnik Climbing Center","opening_hours":"Mo-Fr 07:00-23:00; Sa-Su 09:00-21:00","operator":"Sputnik Climbing","operator:type":"private","phone":"+34 655725267","sport":"climbing","website":"https://sputnikclimbing.com/rocodromo-madrid/alcobendas/"}},"6828034071":{"location":[40.5039925,-3.5248446],"ts":"2019-09-26T15:13:09Z","tz":1,"tags":{"leisure":"sports_centre","sport":"climbing"}}}