{"13839982":{"lat":40.3803737,"lon":-3.6354201,"ts":"2022-08-30T10:34:51Z","tz":1,"tags":{"addr:housenumber":"8","addr:street":"Calle de San Toribio","building":"yes","leisure":"fitness_centre","name":"MXCoach Boulder Vallecas","sport":"climbing"}},"309956633":{"lat":40.4189466,"lon":-3.6648512,"ts":"2024-03-26T11:13:56Z","tz":1,"tags":{"leisure":"sports_centre","name":"Rocódromo Parque Roma","opening_hours":"24/7","source:name":"Centro Regional de Infomación y Documentación Juvenil (CRIDJ)","sport":"climbing"}},"312616632":{"lat":40.4387644,"lon":-3.72788,"ts":"2014-11-13T17:00:43Z","tz":1,"tags":{"leisure":"pitch","name":"Rocódromo UCM","sport":"climbing"}},"420034590":{"lat":40.3912301,"lon":-3.6696551,"ts":"2024-07-31T22:22:25Z","tz":1,"tags":{"addr:city":"Madrid","addr:country":"ES","addr:housenumber":"12","addr:postcode":"28053","addr:street":"Calle Hachero","building":"industrial","leisure":"fitness_centre","name":"Boulder Madrid","sport":"climbing","website":"https://www.bouldermadrid.com/"}},"428043830":{"lat":40.3575211,"lon":-3.528843,"ts":"2025-01-30T10:49:31Z","tz":1,"tags":{"access":"yes","addr:city":"Rivas Vaciamadrid","addr:postcode":"28522","addr:street":"Avenida del Cerro del Telégrafo","building":"yes","building:material":"stone","description":"Rocódromo gratuito al aire libre con vías equipadas.","fee":"no","height":"12","leisure":"climbing","name":"Rocódromo","nohousenumber":"yes","opening_hours":"24/7","source":"https://rocodromos.com/rocodromo-de-rivas/","sport":"climbing"}},"428043838":{"lat":40.357399,"lon":-3.5289658,"ts":"2025-01-30T10:49:31Z","tz":1,"tags":{"access":"yes","addr:city":"Rivas Vaciamadrid","addr:postcode":"28522","addr:street":"Avenida del Cerro del Telégrafo","building":"yes","building:material":"stone","description":"Rocódromo gratuito al aire libre, zona boulder.","fee":"no","height":"4","leisure":"climbing","name":"Zona boulder","nohousenumber":"yes","opening_hours":"24/7","source":"https://rocodromos.com/rocodromo-de-rivas/","sport":"climbing"}},"528962811":{"lat":40.3467576,"lon":-3.8011595,"ts":"2023-11-10T13:33:02Z","tz":1,"tags":{"addr:city":"Leganés","addr:housenumber":"5","addr:postcode":"28918","addr:province":"Madrid","addr:street":"Calle del Carbón","building":"yes","climbing:boulder":"yes","indoor":"yes","leisure":"sports_centre","name":"The Climb","sport":"climbing","website":"https://theclimb.es/"}},"558825753":{"lat":40.375518,"lon":-3.7278762,"ts":"2024-12-22T11:47:48Z","tz":1,"tags":{"access":"yes","description":"Rocódromo al aire libre para adultos al sur de Parquesur (Parque Emperatriz María de Austria), en Carabanchel. Tiene iluminación nocturna.","fee":"no","leisure":"sports_centre","name":"Rocódromo de Parquesur","sport":"climbing"}},"565492379":{"lat":40.4011528,"lon":-3.7565728,"ts":"2018-03-01T16:55:49Z","tz":1,"tags":{"leisure":"sports_centre","name":"Rocódromo Cuña Verde Latina","sport":"climbing"}},"696666746":{"lat":40.323166,"lon":-3.6614521,"ts":"2019-06-12T12:33:14Z","tz":1,"tags":{"building":"roof","leisure":"pitch","sport":"climbing"}},"1070597551":{"lat":40.364827,"lon":-3.6228722,"ts":"2022-06-17T11:04:42Z","tz":1,"tags":{"leisure":"pitch","sport":"climbing"}},"1122577442":{"lat":40.3810393,"lon":-3.6309734,"ts":"2022-12-16T08:42:50Z","tz":1,"tags":{"fee":"no","leisure":"sports_centre","sport":"climbing"}},"1180769581":{"lat":40.4434835,"lon":-3.7092675,"ts":"2023-06-10T22:56:35Z","tz":1,"tags":{"climbing":"crag","sport":"climbing","surface":"rubber"}},"3262287489":{"lat":40.4318508,"lon":-3.6541801,"ts":"2014-12-31T19:16:51Z","tz":1,"tags":{"addr:city":"Madrid","addr:housenumber":"6","addr:postcode":"28017","addr:street":"Calle de Marcelino Álvarez","leisure":"sports_centre","name":"Espacio y Acción","sport":"climbing"}},"3283868948":{"lat":40.4016182,"lon":-3.6975942,"ts":"2021-08-20T19:25:12Z","tz":1,"tags":{"addr:city":"Madrid","addr:housenumber":"8","addr:postcode":"28045","addr:street":"Calle de Tarragona","designation":"Rock climbing centre","leisure":"sports_centre","name":"Urban Monkey","sport":"climbing","website":"https://www.urbanmonkey.es/"}},"3317414465":{"lat":40.3930874,"lon":-3.686254,"ts":"2024-07-30T08:22:16Z","tz":1,"tags":{"climbing":"crag","climbing:sport:outdoor":"yes","fee":"no","leisure":"sports_centre","name":"Rocódromo del Planetario","opening_hours":"24/7","sport":"climbing","surface":"concrete"}},"3951948008":{"lat":40.3992752,"lon":-3.7186614,"ts":"2024-09-12T12:31:19Z","tz":1,"tags":{"addr:city":"Madrid","addr:housenumber":"108","addr:postcode":"28019","addr:street":"Avenida del Manzanares","leisure":"sports_centre","name":"Instalación Deportiva Municipal Rocódromo 'Roc 30'","opening_hours":"Mo-Fr 14:30-19:00","phone":"+34 915 273 801","sport":"climbing"}},"4994196436":{"lat":40.433638,"lon":-3.735456,"ts":"2017-07-26T08:07:23Z","tz":1,"tags":{"sport":"climbing"}},"6022501935":{"lat":40.3688918,"lon":-3.6161266,"ts":"2020-10-11T15:11:10Z","tz":1,"tags":{"fee":"no","leisure":"fitness_centre","sport":"climbing"}},"6354809228":{"lat":40.3038024,"lon":-3.8594155,"ts":"2019-03-22T16:01:29Z","tz":1,"tags":{"leisure":"sports_centre","sport":"climbing"}},"7980271464":{"lat":40.3688639,"lon":-3.6162523,"ts":"2020-10-11T15:11:10Z","tz":1,"tags":{"fee":"no","leisure":"fitness_centre","sport":"climbing"}},"7992537742":{"lat":40.3857288,"lon":-3.6365101,"ts":"2020-11-26T14:58:45Z","tz":1,"tags":{"fee":"no","leisure":"sports_centre","level":"0","sport":"climbing"}},"9007584203":{"lat":40.4377738,"lon":-3.620214,"ts":"2023-07-02T17:13:19Z","tz":1,"tags":{"addr:housenumber":"55","addr:street":"Calle de Julián Camarillo","description":"Gimnasio con Rocodromo","name":"Sharma Climbing Madrid","sport":"climbing","website":"https://www.sharmaclimbingmadrid.com"}},"9410071466":{"lat":40.3905332,"lon":-3.63321,"ts":"2022-02-20T16:07:51Z","tz":1,"tags":{"access":"yes","fee":"no","leisure":"sports_centre","sport":"climbing"}},"9569242458":{"lat":40.43451,"lon":-3.6687386,"ts":"2024-02-14T11:48:16Z","tz":1,"tags":{"addr:city":"Madrid","addr:housenumber":"44","addr:postcode":"28028","addr:street":"Calle Azcona","leisure":"sports_centre","name":"BOULDER ZONE RETIRO","opening_hours":"Mo-Th 10:00-22:00; Fr 17:00-22:00; Sa 10:30-15:30","sport":"climbing","website":"https://www.boulderzoneretiro.com"}},"9724951067":{"lat":40.3775014,"lon":-3.6317749,"ts":"2022-05-08T16:34:14Z","tz":1,"tags":{"addr:housenumber":"174","addr:street":"Camino de las Hormigueras","addr:unit":"Local 7","leisure":"fitness_centre","name":"Boulder Vallecas","phone":"+34 645440425","sport":"climbing","website":"https://bouldervallecas.com/"}},"9770130125":{"lat":40.3822827,"lon":-3.6939575,"ts":"2022-05-25T15:56:32Z","tz":1,"tags":{"building":"bridge","fee":"no","leisure":"sports_centre","name":"Rocódromo boulder puente Almendrales","opening_hours":"24/7","sport":"climbing"}},"9842196318":{"lat":40.2683911,"lon":-3.7002088,"ts":"2022-06-23T17:28:05Z","tz":1,"tags":{"leisure":"sports_centre","sport":"climbing"}},"9978469495":{"lat":40.425546,"lon":-3.6005491,"ts":"2022-08-25T20:05:43Z","tz":1,"tags":{"addr:housenumber":"34","addr:street":"Calle de Sofía","leisure":"sports_centre","name":"Madrid vertical","phone":"+34 91 219 33 06","sport":"climbing","website":"http://madridvertical.net/"}},"10239805161":{"lat":40.3826321,"lon":-3.6307136,"ts":"2025-01-20T10:55:57Z","tz":1,"tags":{"fee":"yes","leisure":"sports_centre","sport":"climbing"}},"10593681475":{"lat":40.3200278,"lon":-3.7481749,"ts":"2023-01-30T09:23:48Z","tz":1,"tags":{"fee":"yes","leisure":"sports_centre","name":"Rocódromo Soul Climb Leganés","sport":"climbing"}},"10606729661":{"lat":40.3420879,"lon":-3.5344742,"ts":"2023-02-04T20:15:08Z","tz":1,"tags":{"check_date":"2023-02-04","leisure":"sports_centre","name":"Rocódromo La Reunión","name:es":"Rocódromo La Reunión","opening_hours":"10:00-22:00","sport":"climbing"}},"11341038966":{"lat":40.3889763,"lon":-3.6891738,"ts":"2023-11-13T08:03:48Z","tz":1,"tags":{"access":"yes","addr:city":"Madrid","addr:housenumber":"33","addr:postcode":"28045","addr:street":"Calle del Hierro","email":"legazpi@sputnikclimbing.com","fee":"yes","leisure":"sports_centre","name":"Sputnik Legazpi","opening_hours":"Mo-Fr 07:00-23:00; Sa 09:00-22:00; Su 09:00-21:00","operator":"Sputnik Climbing","operator:type":"private","payment:cash":"yes","payment:credit_cards":"yes","phone":"+34 645511702","sport":"climbing","website":"https://sputnikclimbing.com/rocodromo-madrid/legazpi/"}},"11359832026":{"lat":40.3836274,"lon":-3.6446868,"ts":"2023-11-18T10:46:58Z","tz":1,"tags":{"leisure":"sports_centre","sport":"climbing"}},"12172750230":{"lat":40.3937136,"lon":-3.6869527,"ts":"2024-09-12T14:37:45Z","tz":1,"tags":{"leisure":"pitch","name":"Rocódromo del Planetario","sport":"climbing"}},"12452943855":{"lat":40.4394888,"lon":-3.7087321,"ts":"2024-12-26T12:08:38Z","tz":1,"tags":{"addr:housenumber":"87","addr:street":"Calle de Vallehermoso","check_date":"2024-12-26","leisure":"sports_centre","name":"Sputnik","sport":"climbing"}},"12543952176":{"lat":40.3570186,"lon":-3.6917667,"ts":"2025-01-30T15:49:19Z","tz":1,"tags":{"leisure":"sports_centre","sport":"climbing"}},"12714803000":{"lat":40.3577722,"lon":-3.5461256,"ts":"2025-03-30T22:41:12Z","tz":1,"tags":{"leisure":"sports_centre","name":"Rocódromo Cerro del Telégrafo","source":"https://www.diarioderivas.es/rocodromo-rivas-cerro-telegrafo/","sport":"climbing"}}}