{"5615908":{"lat":37.2765315,"lon":-3.5647101,"ts":"2025-02-04T13:59:02Z","tz":1,"tags":{"name":"Zona de Escalada de Cogollos Vega","site":"sport","source":"https://escaladagranada.es/wp-content/uploads/2017/03/croquis-de-escalada-cogollos-vega-sector-si%CC%81smico-reducido.jpg","sport":"climbing","type":"site"}},"376971254":{"lat":37.2568545,"lon":-3.5607334,"ts":"2023-02-11T09:33:23Z","tz":1,"tags":{"climbing":"crag","name":"La Solana Baja","natural":"cliff","sport":"climbing"}},"376971255":{"lat":37.2564189,"lon":-3.5610525,"ts":"2023-02-11T09:33:23Z","tz":1,"tags":{"climbing":"crag","height":"35 m","name":"La Solana","natural":"cliff","sport":"climbing"}},"376971256":{"lat":37.256118,"lon":-3.5617338,"ts":"2023-02-11T09:33:23Z","tz":1,"tags":{"climbing":"crag","height":"15 m","name":"La Moneda","natural":"cliff","sport":"climbing"}},"385045682":{"lat":37.2589663,"lon":-3.5574766,"ts":"2023-02-10T19:22:29Z","tz":1,"tags":{"climbing":"crag","name":"El Nicho","natural":"cliff","sport":"climbing"}},"385045695":{"lat":37.2596927,"lon":-3.5517341,"ts":"2023-02-10T19:22:29Z","tz":1,"tags":{"climbing":"crag","name":"La ballena","natural":"cliff","sport":"climbing"}},"885796972":{"lat":37.2330361,"lon":-3.7162327,"ts":"2023-01-25T13:38:51Z","tz":1,"tags":{"climbing":"boulder","natural":"cliff","sport":"climbing"}},"1143669694":{"lat":37.2596546,"lon":-3.5555481,"ts":"2023-11-21T10:54:27Z","tz":1,"tags":{"climbing":"crag","name":"Rocío","natural":"cliff","sport":"climbing"}},"1143669695":{"lat":37.259783,"lon":-3.5563421,"ts":"2023-02-10T19:22:29Z","tz":1,"tags":{"climbing":"crag","name":"Mellizos","natural":"cliff","sport":"climbing"}},"1143669696":{"lat":37.2591142,"lon":-3.5533461,"ts":"2023-02-10T19:22:29Z","tz":1,"tags":{"climbing":"crag","name":"Al-Kaeda","natural":"cliff","sport":"climbing"}},"1143669698":{"lat":37.258876,"lon":-3.5525211,"ts":"2023-02-10T19:22:29Z","tz":1,"tags":{"climbing":"crag","name":"Dablam","natural":"cliff","sport":"climbing"}},"1143669699":{"lat":37.2593737,"lon":-3.5568832,"ts":"2023-02-10T19:22:29Z","tz":1,"tags":{"climbing":"crag","name":"Abominables","natural":"cliff","sport":"climbing"}},"1143669700":{"lat":37.2598474,"lon":-3.5554353,"ts":"2023-02-10T19:22:29Z","tz":1,"tags":{"climbing":"crag","name":"Alguililla","natural":"cliff","sport":"climbing"}},"1143669701":{"lat":37.2599308,"lon":-3.5556345,"ts":"2023-02-10T19:22:29Z","tz":1,"tags":{"climbing":"crag","name":"La Cueva","natural":"cliff","sport":"climbing"}},"1143669702":{"lat":37.2597449,"lon":-3.5559499,"ts":"2023-02-10T19:22:29Z","tz":1,"tags":{"climbing":"crag","name":"La placa","natural":"cliff","sport":"climbing"}},"1143669703":{"lat":37.259921,"lon":-3.5559345,"ts":"2023-02-10T19:22:29Z","tz":1,"tags":{"climbing":"crag","name":"Hombre de Mentira","natural":"cliff","sport":"climbing"}},"1143669704":{"lat":37.2594519,"lon":-3.5546874,"ts":"2023-02-10T19:22:29Z","tz":1,"tags":{"climbing":"crag","name":"Piedra tumbada","natural":"cliff","sport":"climbing"}},"1143669705":{"lat":37.2597497,"lon":-3.5551826,"ts":"2023-02-10T19:22:29Z","tz":1,"tags":{"climbing":"crag","name":"Nietos","natural":"cliff","sport":"climbing"}},"1348531654":{"lat":37.2754224,"lon":-3.5654518,"ts":"2025-01-04T18:10:23Z","tz":1,"tags":{"leisure":"climbing","name":"Rocódromo","sport":"climbing"}},"3735763987":{"lat":37.2170864,"lon":-3.6236447,"ts":"2019-03-19T08:57:06Z","tz":1,"tags":{"addr:city":"Granada","addr:housenumber":"28","addr:street":"Calle Olinda","leisure":"sports_centre","name":"Rock'n'Bloc","opening_hours":"Mo-Fr 17:00-23:00","sport":"climbing","website":"https://rockandbloc.com/"}},"5920288385":{"lat":37.1716047,"lon":-3.5959806,"ts":"2022-11-06T21:21:25Z","tz":1,"tags":{"addr:city":"Granada","addr:housenumber":"4","addr:postcode":"18009","addr:street":"Calle Mirasol","facebook":"https://www.facebook.com/rocodromolasalagranada","leisure":"sports_centre","name":"Rocódromo La Sala","opening_hours":"Mo-Fr 17:00-21:00","phone":"+34 618 94 64 82","sport":"climbing"}},"12474040606":{"lat":37.275345,"lon":-3.5653761,"ts":"2025-01-05T07:37:43Z","tz":1,"tags":{"addr:city":"Cogollos de la Vega","addr:postcode":"18211","addr:street":"Camino Solana","email":"campobasegranada@gmail.com","leisure":"sports_centre","name":"Campo Base","nohousenumber":"yes","phone":"+34 677 582 988","sport":"climbing","website":"https://centroescalada.es"}}}