{"438349835":{"location":[1.3052188,103.7721269],"ts":"2023-05-04T08:50:43Z","tz":8,"tags":{"barrier":"wall","level":"0;1","name":"NUS Sport Climbing Wall","name:zh":"国大攀岩墙","sport":"climbing"}},"844444501":{"location":[1.3615696,103.7724289],"ts":"2022-04-13T14:20:38Z","tz":8,"tags":{"access":"no","climbing":"crag","description":"Rock Climbing Route 15: Boring & Meaningless","image":"https://www.thecrag.com/de/climbing/singapore/boring-but-meaningless/route/12482125","name":"Boring&Meaningless","source":"https://www.thecrag.com/de/climbing/singapore","sport":"climbing"}},"844444633":{"location":[1.3618606,103.7725842],"ts":"2022-04-13T14:20:38Z","tz":8,"tags":{"access":"no","climbing":"crag","description":"Rock Climbing Route: Third Kid","image":"https://www.thecrag.com/de/climbing/singapore/route/318760458","name":"Third Kid","source":"https://www.thecrag.com/de/climbing/singapore","sport":"climbing"}},"844444818":{"location":[1.3617249,103.7729633],"ts":"2022-04-13T14:20:38Z","tz":8,"tags":{"access":"no","climbing":"crag","description":"Rock Climbing Route: Direct","image":"https://www.thecrag.com/de/climbing/singapore/direct","name":"Direct","source":"https://www.thecrag.com/de/climbing/singapore","sport":"climbing"}},"844444994":{"location":[1.361764,103.7731467],"ts":"2022-04-13T14:20:38Z","tz":8,"tags":{"access":"no","climbing":"crag","description":"Rock Climbing Route: Razor's Edge","image":"https://www.thecrag.com/de/climbing/singapore/area/319563828","name":"Rezor's Edge","source":"https://www.thecrag.com/de/climbing/singapore","sport":"climbing"}},"844445427":{"location":[1.3607543,103.7731797],"ts":"2022-04-13T14:20:38Z","tz":8,"tags":{"access":"no","climbing":"crag","description":"Rock Climbing Route: The Nose Right","image":"https://www.thecrag.com/de/climbing/singapore/area/319582371","name":"The Nose Right","source":"https://www.thecrag.com/de/climbing/singapore","sport":"climbing"}},"844445670":{"location":[1.3610061,103.7734156],"ts":"2022-04-13T14:20:38Z","tz":8,"tags":{"access":"no","climbing":"crag","description":"Rock Climbing Route: The Nose Left","image":"https://www.thecrag.com/de/climbing/singapore/area/319597722","name":"The Nose Left","source":"https://www.thecrag.com/de/climbing/singapore","sport":"climbing"}},"844445893":{"location":[1.3609805,103.7732224],"ts":"2022-04-13T14:20:38Z","tz":8,"tags":{"access":"no","climbing":"crag","description":"Rock Climbing Route: The Nose","image":"https://www.thecrag.com/de/climbing/singapore/the-nose","name":"The Nose","source":"https://www.thecrag.com/de/climbing/singapore","sport":"climbing"}},"1097492641":{"location":[1.3034677,103.775775],"ts":"2023-03-07T11:24:06Z","tz":8,"tags":{"building":"yes","leisure":"sports_centre","sport":"climbing"}},"5339090521":{"location":[1.3146164,103.8573717],"ts":"2023-10-17T17:27:30Z","tz":8,"tags":{"addr:housenumber":"511","addr:postcode":"218153","addr:street":"Serangoon Road","air_conditioning":"no","climbing:boulder":"yes","climbing:toprope":"4","indoor":"yes","leisure":"sports_centre","name":"Kinetics Climbing","name:de":"Kletterhalle Kinetics","opening_hours":"Mo 16:00-22:00; Tu-Fr 13:00-22:00; Sa-Su,PH 10:00-19:00","payment:cash":"yes","payment:credit_cards":"no","payment:grabpay":"yes","payment:nets":"yes","payment:paylah":"yes","phone":"+6562915045","sport":"climbing","survey:date":"2021-08-13","website":"https://www.kineticsclimbing.com.sg/"}},"5339102122":{"location":[1.3160066,103.8560632],"ts":"2019-10-23T14:59:55Z","tz":8,"tags":{"addr:housenumber":"60","addr:postcode":"217664","addr:street":"Tessensohn Road","climbing:boulder":"yes","climbing:sport":"yes","climbing:toprope":"yes","fee":"yes","indoor":"yes","leisure":"sports_centre","level":"2","name":"Ground Up","opening_hours":"Mo 17:00-23:00; Tu-Th 12:00-23:00; Fr 12:00-22:30; Sa, Su, PH 10:00-21:00","outdoor":"yes","phone":"+6562927701","sport":"climbing","website":"https://www.groundupsg.com/"}},"5419475636":{"location":[1.3027842,103.8734095],"ts":"2024-02-20T17:21:29Z","tz":8,"tags":{"addr:city":"Singapore","addr:country":"SG","addr:housename":"Kallang Wave Mall","addr:housenumber":"1","addr:postcode":"397628","addr:street":"Stadium Place","addr:unit":"#B1-01","email":"info@climbcentral.sg","fee":"yes","leisure":"sports_centre","level":"-1","name":"Climb Central","opening_hours":"Mo-Fr 11:00-23:00; Sa-Su 09:00-21:00","operator":"Climb Central","operator:type":"private","phone":"+65 67027972","sport":"climbing","website":"https://climbcentral.sg/"}},"5451045406":{"location":[1.3239118,103.9217641],"ts":"2019-11-13T14:44:51Z","tz":8,"tags":{"leisure":"sports_centre","name":"Gorilla Climbing Gym","name:de":"Kletterhalle Gorilla","sport":"climbing","website":"https://gorillaclimbing.com/"}},"5813931536":{"location":[1.3538198,103.9400726],"ts":"2024-02-20T17:23:38Z","tz":8,"tags":{"addr:city":"Singapore","addr:housenumber":"1","addr:level":"1","addr:postcode":"528523","addr:street":"Tampines Walk","addr:unit":"81","leisure":"sports_centre","level":"1","name":"BFF Climb","operator":"BFF Climb","sport":"climbing"}},"5923848605":{"location":[1.2772792,103.8486231],"ts":"2018-09-23T10:27:47Z","tz":8,"tags":{"addr:city":"Singapore","addr:housenumber":"6A","addr:postcode":"068815","addr:street":"Shenton Way","leisure":"sports_centre","level":"#B1-03","name":"Boulder Movement","name:de":"Kletterhalle Boulder Movement","phone":"+65 6817 8340","sport":"climbing","website":"https://www.boulderm.com/"}},"5923855321":{"location":[1.3097138,103.8638367],"ts":"2024-04-13T09:54:59Z","tz":8,"tags":{"access":"customers","addr:city":"Singapore","addr:country":"SG","addr:floor":"3","addr:housename":"The Aperia Mall","addr:housenumber":"12","addr:postcode":"339511","addr:street":"Kallang Avenue","addr:unit":"#03-17","check_date":"2023-07-28","climbing:boulder":"yes","climbing:toprope":"no","contact:facebook":"https://www.facebook.com/boulderplusclimbing","contact:instagram":"https://www.instagram.com/boulder_plus","email":"contact@boulderplusclimbing.com","fee":"yes","leisure":"sports_centre","level":"2","name":"Boulder+","name:de":"Kletterhalle Boulder+","opening_hours":"Mo 12:00-20:30;Tu 07:30-20:30;We 10:00-20:30;Th 07:30-20:30;Fr 10:00-20:30;Sa-Su 09:00-20:00","operator":"Boulder+","operator:type":"private","phone":"+65 6282 7530","sport":"climbing","website":"https://www.boulderplusclimbing.com/"}},"6583281553":{"location":[1.29141,103.8498818],"ts":"2024-02-20T17:21:49Z","tz":8,"tags":{"addr:city":"Singapore","addr:country":"SG","addr:housename":"Funan Singapore","addr:housenumber":"107","addr:postcode":"179105","addr:street":"North Bridge Road","addr:unit":"#B2-19/21","climbing":"indoor","email":"info@climbcentral.sg","leisure":"sports_centre","level":"-2","name":"Climb Central","opening_hours":"Mo-Fr 11:00-23:00; Sa-Su 09:00-21:00","operator":"Climb Central","operator:type":"private","phone":"+65 69063918","sport":"climbing","website":"https://climbcentral.sg/","wheelchair":"limited"}},"6665235799":{"location":[1.3071866,103.8468709],"ts":"2024-04-21T13:41:02Z","tz":8,"tags":{"access":"customers","addr:housenumber":"148","addr:street":"MacKenzie Road","air_conditioning":"yes","charge":"18 SGD","check_date":"2024-04-16","climbing:boulder":"yes","climbing:speed":"no","climbing:sport":"no","climbing:toprope":"no","climbing:traditional":"no","description":"Indoor Climbing Gym","fee":"yes","indoor":"yes","internet_access":"wlan","internet_access:fee":"customers","leisure":"sports_centre","name":"Oyeyo Boulder Home","opening_hours":"Mo-Fr 13:00-22:00; Sa, Su, PH 10:00-19:00","operator:type":"private","phone":"+65 6996 2095","shower":"yes","sport":"climbing","website":"https://www.facebook.com/oyeyoboulderhome/about/"}},"6749829481":{"location":[1.3619233,103.7728496],"ts":"2023-06-08T09:40:30Z","tz":8,"tags":{"access":"no","climbing":"area","climbing:bolted":"53","climbing:boulder":"23","climbing:grade:french:max":"8a","climbing:grade:french:mean":"6b+","climbing:grade:french:min":"3b","climbing:quality":"medium","climbing:rock":"quarry granite","climbing:routes":"134","climbing:sport":"yes","climbing:trad":"29","fee":"no","name":"Dairy Farm","name:zh":"牛乳场","note":"Rock climbing activities at Dairy Farm have been banned by NParks until new notice","outdoor":"yes","sport":"climbing","url":"https://www.thecrag.com/climbing/singapore/area/319396368"}},"7049680860":{"location":[1.3204058,103.8437628],"ts":"2024-02-20T17:22:18Z","tz":8,"tags":{"access":"customers","addr:city":"Singapore","addr:country":"SG","addr:housename":"Novena Square","addr:housenumber":"238","addr:postcode":"307683","addr:street":"Thomson Road","addr:unit":"23/25","branch":"Novena","brand":"Climb Central","climbing:boulder":"yes","climbing:toprope":"yes","email":"info@climbcentral.sg","indoor":"yes","leisure":"sports_centre","level":"3","name":"Climb Central","opening_hours":"Mo-Fr 11:00-23:00; Sa-Su 09:00-21:00","operator":"Climb Central","phone":"+65 6353 6885","sport":"climbing","website":"https://climbcentral.sg/"}},"7100769681":{"location":[1.304723,103.8620774],"ts":"2024-02-20T17:00:07Z","tz":8,"tags":{"access":"customers","addr:city":"Singapore","addr:housenumber":"464","addr:postcode":"190464","addr:street":"Crawford Lane","climbing:boulder":"yes","climbing:courses":"yes","climbing:toprope":"yes","contact:facebook":"https://www.facebook.com/outpostclimbing","contact:instagram":"https://www.instagram.com/outpostclimbing/","email":"hello@outpostclimbing.sg","leisure":"sports_centre","name":"Outpost Climbing","opening_hours":"Mo 17:00-22:00; Tu-Fr 10:00-22:00; Sa, Su, PH 10:00-20:00","phone":"98327656","sport":"climbing","website":"https://www.outpostclimbing.sg/"}},"7716823686":{"location":[1.336531,103.8884959],"ts":"2020-09-12T11:06:48Z","tz":8,"tags":{"addr:city":"Singapore","addr:country":"SG","addr:housenumber":"18","addr:postcode":"539775","addr:street":"Tai Seng Street","addr:subdistrict":"Tai Seng","addr:unit":"#01-09","climbing:boulder":"yes","facebook":"https://www.facebook.com/BoulderMovementSG/","internet_access":"wlan","leisure":"fitness_centre","name":"Boulder Movement","phone":"+65 6974 7769","sport":"climbing","website":"https://www.boulderm.com/"}},"7731068077":{"location":[1.3432974,103.7759396],"ts":"2025-06-01T01:30:35Z","tz":8,"tags":{"access":"customers","addr:housenumber":"170","addr:postcode":"588179","addr:street":"Upper Bukit Timah Road","addr:unit":"B2-20B","check_date":"2024-09-29","climbing:boulder":"yes","email":"zvertigobouldergym@gmail.com","facebook":"https://www.facebook.com/zvertigoboulder/","fee":"yes","indoor":"yes","instagram":"https://www.instagram.com/zvertigobouldergym/","leisure":"sports_centre","level":"-2","location":"Bukit Timah Shopping Centre","name":"Z-Vertigo","opening_hours":"Mo-Th 12:00-22:00; Fr 15:00-22:00; Sa-Su,PH 10:00-18:00","operator:type":"private","sport":"climbing","website":"https://zvertigobouldergym.wixsite.com/zvert/"}},"9547065041":{"location":[1.3368204,103.7838287],"ts":"2022-03-01T10:30:45Z","tz":8,"tags":{"addr:housenumber":"896, #02-01D","addr:street":"Dunearn Road","name":"BFF Bukit Timah","sport":"climbing","website":"https://bffclimb.com/"}},"9710870184":{"location":[1.3053887,103.9049275],"ts":"2024-02-20T17:22:30Z","tz":8,"tags":{"addr:city":"Singapore","addr:housenumber":"112","addr:postcode":"428802","addr:street":"East Coast Road","email":"info@climbcentral.sg","leisure":"sports_centre","level":"4","name":"Climb Central","operator":"Climb Central","sport":"climbing","unit":"01/02","website":"https://www.climbcentral.sg/"}},"9714409960":{"location":[1.2740843,103.8037843],"ts":"2022-05-04T15:41:08Z","tz":8,"tags":{"addr:housenumber":"991A","addr:postcode":"119969","addr:street":"Alexandra Road","leisure":"sports_centre","level":"2","name":"Boruda Climbing","sport":"climbing","website":"https://www.boruda.sg/"}},"9858416826":{"location":[1.3123626,103.8627173],"ts":"2024-02-20T17:22:57Z","tz":8,"tags":{"access":"customers","addr:city":"Singapore","addr:country":"SG","addr:housename":"CT Hub","addr:housenumber":"2","addr:postcode":"339407","addr:street":"Kallang Avenue","addr:unit":"01-20","check_date":"2024-02-21","contact:whatsapp":"+6591196575","fee":"yes","leisure":"sports_centre","level":"1","name":"BFF Climb","opening_hours":"Mo-Su 09:30-22:45","operator":"BFF Climb","operator:type":"private","phone":"+6596494145","sport":"climbing","website":"https://bffclimb.com/"}},"10702069363":{"location":[1.2892982,103.8562701],"ts":"2025-07-15T06:12:48Z","tz":8,"tags":{"addr:floor":"2","addr:housenumber":"8","addr:postcode":"039802","addr:street":"Raffles Avenue","addr:unit":"02-29","check_date":"2025-06-24","contact:facebook":"https://www.facebook.com/projectsend.sg","contact:instagram":"https://www.instagram.com/projectsend.sg","fee":"yes","leisure":"sports_centre","level":"1","name":"Project Send","opening_hours":"Mo-Sa 09:30-22:30; Su,PH 09:30-17:30","operator:type":"private","sport":"climbing","website":"https://www.projectsend.co/"}},"10808393885":{"location":[1.3339554,103.8881781],"ts":"2024-02-20T17:31:33Z","tz":8,"tags":{"addr:city":"Singapore","addr:housenumber":"601","addr:level":"1","addr:postcode":"368242","addr:street":"MacPherson Road","addr:unit":"02-07","fee":"yes","leisure":"sports_centre","level":"1","name":"Boulder Planet","opening_hours":"Mo-Fr 10:00-22:00; Sa-Su 10:00-21:00","sport":"climbing","website":"https://www.boulderplanet.sg/"}},"10901301146":{"location":[1.2995312,103.7754269],"ts":"2023-05-16T08:01:19Z","tz":8,"tags":{"leisure":"sports_centre","sport":"climbing"}},"10933822710":{"location":[1.2992678,103.8541792],"ts":"2024-04-21T13:41:02Z","tz":8,"tags":{"addr:floor":"5","addr:housename":"Bugis+","addr:housenumber":"201","addr:postcode":"188067","addr:street":"Victoria Street","addr:unit":"#05-07","branch":"Bugis","check_date":"2024-04-18","climbing:boulder":"yes","contact:facebook":"https://www.facebook.com/BoulderMovementSG","contact:instagram":"https://www.instagram.com/bouldermovementsg","fee":"yes","leisure":"sports_centre","level":"4","name":"Boulder Movement","opening_hours":"Mo 17:30-22:00; Tu-Fr 11:00-16:30,17:30-22:00; Sa-Su,PH 10:00-14:00,15:00-20:00","operator":"Boulder Movement","operator:type":"private","phone":"+65 6993 9228","sport":"climbing","website":"https://www.boulderm.com/"}},"10968864664":{"location":[1.3052846,103.8514331],"ts":"2024-04-21T13:41:02Z","tz":8,"tags":{"addr:floor":"2","addr:housenumber":"2","addr:postcode":"218227","addr:street":"Serangoon Road","addr:unit":"#02-12","branch":"Rochor","check_date":"2024-04-18","contact:facebook":"https://www.facebook.com/BoulderMovementSG","contact:instagram":"https://www.instagram.com/bouldermovementsg","fee":"yes","leisure":"sports_centre","level":"1","name":"Boulder Movement","opening_hours":"Mo 17:30-22:00; Tu-Fr 11:00-16:30,17:30-22:00; Sa-Su,PH 10:00-14:00,15:00-20:00","operator":"Boulder Movement","operator:type":"private","phone":"+65 6993 2100","sport":"climbing","website":"https://www.boulderm.com/"}},"11645244307":{"location":[1.3888688,103.7475212],"ts":"2024-02-20T17:21:01Z","tz":8,"tags":{"addr:city":"Singapore","addr:floor":"3","addr:housenumber":"28","addr:postcode":"689964","addr:street":"Choa Chu Kang Drive","addr:unit":"02A","email":"info@climbcentral.sg","fee":"yes","leisure":"sports_centre","level":"3","name":"Climb Central","operator":"Climb Central","operator:type":"private","phone":"+6566778452","sport":"climbing","website":"https://www.climbcentral.sg/"}},"11645927080":{"location":[1.3436233,103.9414366],"ts":"2025-05-30T06:02:52Z","tz":8,"tags":{"addr:city":"Singapore","addr:housenumber":"6","addr:level":"2","addr:postcode":"528893","addr:street":"Tampines Street 92","addr:unit":"03-06","email":"contact@bffclimb.com","leisure":"sports_centre","level":"2","name":"BFF Climb","operator":"BFF Climb","phone":"+6586919790","sport":"climbing","website":"https://bffclimb.com/"}},"11645974498":{"location":[1.3311134,103.7482078],"ts":"2024-02-20T17:24:48Z","tz":8,"tags":{"addr:city":"Singapore","addr:housename":"The Chevrons","addr:housenumber":"48","addr:level":"3","addr:postcode":"609961","addr:street":"Boon Lay Way","addr:unit":"04-01","email":"contact@boulderplusclimbing.com","leisure":"sports_centre","level":"3","name":"Boulder+","operator":"Boulder+","sport":"climbing","website":"https://www.boulderplusclimbing.com/"}},"11646014037":{"location":[1.2812137,103.8100344],"ts":"2024-05-12T15:23:34Z","tz":8,"tags":{"addr:city":"Singapore","addr:floor":"2","addr:housename":"Depot Heights Shopping Center","addr:housenumber":"108","addr:postcode":"100108","addr:street":"Depot Road","addr:unit":"02-01","branch":"Depot Heights","brand":"fit bloc","check_date":"2024-04-27","contact:facebook":"https://www.facebook.com/fitbloc","contact:instagram":"https://www.instagram.com/fitbloc","contact:whatsapp":"+6566122046","email":"hello@fitbloc.com","fee":"yes","leisure":"sports_centre","level":"1","name":"fit · bloc Depot Heights","opening_hours":"Mo-Su 10:00-22:30","operator:type":"private","phone":"+6562529161","source":"local knowledge","sport":"climbing","website":"https://fitbloc.com/"}},"11646024962":{"location":[1.2792895,103.8493117],"ts":"2024-04-21T13:41:02Z","tz":8,"tags":{"addr:city":"Singapore","addr:housenumber":"61","addr:level":"4","addr:postcode":"068893","addr:street":"Robinson Road","addr:unit":"05-03/04","check_date":"2024-04-18","contact:instagram":"https://www.instagram.com/climba_gym","contact:telegram":"https://t.me/climbagym","email":"climba.gym@gmail.com","leisure":"sports_centre","level":"4","name":"Climba","opening_hours":"Mo,Su 17:00-22:00; Tu-Fr 11:00-22:00; Sa,PH 10:00-18:00","operator":"Climba","phone":"+6580406534","sport":"climbing","website":"https://www.climba.sg/"}},"11646067411":{"location":[1.3037634,103.8355136],"ts":"2025-06-01T01:24:01Z","tz":8,"tags":{"addr:city":"Singapore","addr:housenumber":"290","addr:level":"5","addr:postcode":"238859","addr:street":"Orchard Road","addr:unit":"06-25/26","leisure":"sports_centre","level":"5","name":"Boulder World","opening_hours":"Mo-Fr 09:00-22:30; Sa-Su 09:00-21:00","phone":"+6566105464","sport":"climbing","website":"https://boulderworld.com"}}}