{"289825623":{"location":[-34.5418635,-58.4515483],"ts":"2014-11-25T14:18:35Z","tz":-3,"tags":{"barrier":"wall","name":"Palestra Nacional de Andinismo","operator":"Club Andino de Buenos Aires (CABA)","sport":"climbing"}},"4082203307":{"location":[-34.5700895,-58.4927383],"ts":"2024-08-11T07:13:10Z","tz":-3,"tags":{"addr:city":"Ciudad Autónoma de Buenos Aires","addr:country":"AR","addr:housenumber":"3086","addr:postcode":"C1431DUB","addr:street":"Rufino","leisure":"sports_centre","name":"Rustik","sport":"climbing","website":"http://www.escaladarustik.com.ar/"}},"5746095984":{"location":[-34.4714821,-58.4925625],"ts":"2021-08-11T02:19:50Z","tz":-3,"tags":{"addr:city":"Acassuso","addr:housenumber":"794","addr:postcode":"B1641","addr:street":"Sebastián Elcano","climbing:bolted":"yes","climbing:boulder":"yes","climbing:sport":"yes","description":"Iniciación a la escalada, dictado de cursos, escuelita para niños y clases en todos los niveles de aprendizaje.","fee":"yes","leisure":"sports_centre","name":"Escalando","phone":"+54 11 4798-2759","sport":"climbing","website":"http://escalando.com.ar/"}},"9701601441":{"location":[-34.5306816,-58.4978065],"ts":"2023-11-09T16:55:00Z","tz":-3,"tags":{"addr:housenumber":"2651","addr:street":"General José de San Martín","name":"Estación Vertical","phone":"+541123875278","sport":"climbing","website":"https://www.estacionvertical.com.ar/"}},"10197461317":{"location":[-34.5306954,-58.4976646],"ts":"2022-11-17T16:13:46Z","tz":-3,"tags":{"leisure":"sports_centre","name":"Estación Vertical","sport":"climbing"}},"10293289309":{"location":[-34.4602488,-58.5273094],"ts":"2023-11-09T09:21:19Z","tz":-3,"tags":{"leisure":"sports_centre","name":"A Tope","sport":"climbing","website":"https://www.atope.com.ar/"}},"11540053118":{"location":[-34.5870539,-58.4781818],"ts":"2024-01-22T13:47:50Z","tz":-3,"tags":{"check_date":"2024-01-22","contact:instagram":"https://www.instagram.com/caba.bucarelli","leisure":"sports_centre","name":"Boulder","sport":"climbing"}}}