{"345731209":{"lat":32.2563694,"lon":35.7626202,"ts":"2019-01-21T06:59:42Z","tz":2,"tags":{"name:en":"Cinema","natural":"cliff","sport":"climbing"}},"572889748":{"lat":32.321467,"lon":35.6434472,"ts":"2018-03-25T19:25:36Z","tz":2,"tags":{"natural":"cliff","sport":"climbing"}},"572889756":{"lat":32.3042665,"lon":35.6697769,"ts":"2018-03-25T19:25:36Z","tz":2,"tags":{"natural":"cliff","sport":"climbing"}},"607894871":{"lat":32.3909635,"lon":35.7089551,"ts":"2024-11-12T12:48:23Z","tz":2,"tags":{"name:en":"Iraq El Dubb","natural":"cliff","sport":"climbing"}},"616836720":{"lat":32.3182141,"lon":35.6914097,"ts":"2019-01-21T06:59:42Z","tz":2,"tags":{"name:en":"Samis Cliff","natural":"cliff","sport":"climbing"}},"664987368":{"lat":32.4124958,"lon":35.7624722,"ts":"2019-01-21T06:59:38Z","tz":2,"tags":{"name":"Tor Al Ahmar","natural":"cliff","sport":"climbing"}},"664987382":{"lat":32.266042,"lon":35.6317855,"ts":"2019-01-21T06:59:39Z","tz":2,"tags":{"name:en":"Ras Sabiq lower","natural":"cliff","sport":"climbing"}},"664987383":{"lat":32.2659291,"lon":35.6312075,"ts":"2019-01-21T06:59:39Z","tz":2,"tags":{"name:en":"Ras Sabiq upper","natural":"cliff","sport":"climbing"}},"664987384":{"lat":32.376507,"lon":35.7122933,"ts":"2019-01-21T06:59:39Z","tz":2,"tags":{"name:en":"Iraq el Damaj","natural":"cliff","sport":"climbing"}},"664987385":{"lat":32.3751229,"lon":35.7144579,"ts":"2019-01-21T06:59:39Z","tz":2,"tags":{"name:en":"Iraq El Hamra","natural":"cliff","sport":"climbing"}},"664987386":{"lat":32.4659164,"lon":35.7672183,"ts":"2019-01-21T06:59:39Z","tz":2,"tags":{"name:en":"Inbeh","natural":"cliff","sport":"climbing"}}}