{"752173764":{"lat":47.938598,"lon":1.9488027,"ts":"2019-12-04T08:50:06Z","tz":1,"tags":{"building":"yes","sport":"climbing"}},"3472124903":{"lat":47.9590902,"lon":1.8930402,"ts":"2024-05-31T18:07:42Z","tz":1,"tags":{"addr:city":"Saran","addr:postcode":"45770","addr:street":"Allée de l'Orée de la Forêt","contact:email":"climbup@climbup.fr","image":"https://panoramax-storage-public-fast.s3.gra.perf.cloud.ovh.net/main-pictures/44/8e/5a/43/c894-46f2-b95a-d26f5a0b0929.jpg","leisure":"sports_centre","name":"Climb'Up","opening_hours":"Mo-Fr 10:00-22:00; Su 10:00-19:00; Sa 10:00-20:00","phone":"+33 2 38 54 22 22","source":"Le ministère de la ville, de la jeunesse et des sports - 2021-04","sport":"climbing","surface":"concrete","website":"https://climbup.fr/"}},"8042797768":{"lat":47.8976494,"lon":1.9458577,"ts":"2024-03-09T10:10:03Z","tz":1,"tags":{"contact:facebook":"https://www.facebook.com/leo.parcaventure","leisure":"sports_centre","name":"Léo Parc aventure - Accrobranche","phone":"+33 6 10 91 25 32","sport":"climbing","website":"http://www.leo-parc-aventure.fr/acrobranche/"}},"8357863699":{"lat":47.91063,"lon":1.909376,"ts":"2021-01-24T17:32:07Z","tz":1,"tags":{"leisure":"pitch","source":"Le ministère de la ville, de la jeunesse et des sports - 01/2018","sport":"climbing"}},"8419071957":{"lat":47.9002242,"lon":1.93088,"ts":"2021-02-12T19:27:58Z","tz":1,"tags":{"leisure":"sports_centre","sport":"climbing"}},"9480644050":{"lat":47.90256,"lon":1.91735,"ts":"2022-02-05T10:37:26Z","tz":1,"tags":{"source":"Le ministère de la ville, de la jeunesse et des sports - 2021-04","sport":"climbing"}},"9480675946":{"lat":47.902569,"lon":1.91735,"ts":"2022-02-05T10:37:43Z","tz":1,"tags":{"source":"Le ministère de la ville, de la jeunesse et des sports - 2021-04","sport":"climbing"}},"11594356334":{"lat":47.9070148,"lon":1.8677187,"ts":"2024-12-24T21:52:10Z","tz":1,"tags":{"addr:city":"Saint-Jean-de-la-Ruelle","addr:postcode":"45140","addr:street":"Avenue Pierre Mendès France","brand":"Vertical Art","check_date":"2024-12-24","climbing:boulder":"yes","climbing:sport":"no","email":"orleans@vertical-art.fr","fee":"yes","leisure":"sports_centre","name":"Vertical Art","opening_hours":"Mo-Fr 11:00-23:00, Sa-Su 09:00-21:00","operator":"Vertical Art","operator:type":"private","phone":"+33 2 38 68 86 04","sport":"climbing","website":"https://orleans.vertical-art.fr/","wheelchair":"yes"}}}