{"384415016":{"location":[42.4122088,1.9802411],"ts":"2021-04-20T15:25:28Z","tz":1,"tags":{"leisure":"sports_centre","sport":"climbing"}},"866922879":{"location":[42.4943682,1.9736954],"ts":"2024-12-31T16:32:21Z","tz":1,"tags":{"climbing":"boulder","description":"Big boulder area.","name":"Chaos de Targasonne","name:ca":"Caos de Targasona","name:fr":"Chaos de Targasonne","natural":"scrub","sport":"climbing"}},"866922880":{"location":[42.4928137,1.9778903],"ts":"2024-12-31T16:32:21Z","tz":1,"tags":{"climbing":"boulder","name":"Chaos de Targasonne","name:ca":"Caos de Targasona","name:fr":"Chaos de Targasonne","natural":"scrub","sport":"climbing"}},"866922881":{"location":[42.4942547,1.9850563],"ts":"2024-12-31T16:32:21Z","tz":1,"tags":{"climbing":"boulder","name":"Chaos de Targasonne","name:ca":"Caos de Targasona","name:fr":"Chaos de Targasonne","natural":"scrub","sport":"climbing"}},"2947486623":{"location":[42.4503013,2.0686591],"ts":"2014-07-31T09:07:04Z","tz":1,"tags":{"name":"Site de Llo","sport":"climbing"}},"12667838253":{"location":[42.5097921,2.0341846],"ts":"2025-03-15T15:51:06Z","tz":1,"tags":{"natural":"cliff","sport":"climbing"}}}