{"598162902":{"location":[42.1122024,1.8267726],"ts":"2023-03-31T17:59:27Z","tz":1,"tags":{"height":"28","name":"Roc de l'Alou","name:ca":"Roc de l'Alou","natural":"cliff","sport":"climbing"}},"704303563":{"location":[42.1485821,1.7664361],"ts":"2022-12-10T19:09:03Z","tz":1,"tags":{"height":"15","name":"El Corral","name:ca":"El Corral","natural":"cliff","sport":"climbing"}},"704303565":{"location":[42.1483321,1.7660538],"ts":"2022-12-10T19:09:04Z","tz":1,"tags":{"height":"18","name":"El Corral","name:ca":"El Corral","natural":"cliff","sport":"climbing"}},"704393428":{"location":[42.1277494,1.8493467],"ts":"2022-12-11T21:17:12Z","tz":1,"tags":{"height":"20","name":"La Gravera","name:ca":"La Gravera","natural":"cliff","sport":"climbing"}},"704396026":{"location":[42.1124501,1.827968],"ts":"2022-11-19T01:30:06Z","tz":1,"tags":{"height":"18","name":"Can Meu","name:ca":"Can Meu","natural":"cliff","sport":"climbing"}},"775105720":{"location":[42.1302216,1.7681832],"ts":"2023-01-22T22:18:34Z","tz":1,"tags":{"height":"25","name":"Carboneres","name:ca":"Carboneres","natural":"cliff","sport":"climbing"}},"785409305":{"location":[42.15022,1.9174961],"ts":"2020-05-19T20:10:51Z","tz":1,"tags":{"name":"Sector Roset","natural":"cliff","sport":"climbing"}},"835028226":{"location":[42.213639,1.8291661],"ts":"2022-11-27T06:00:03Z","tz":1,"tags":{"name":"la Foradada","name:ca":"la Foradada","natural":"cliff","sport":"climbing"}},"835028228":{"location":[42.2115014,1.8414046],"ts":"2020-08-07T12:52:35Z","tz":1,"tags":{"name":"Grau de Granotes","natural":"cliff","sport":"climbing"}},"835028229":{"location":[42.2096986,1.8475142],"ts":"2023-01-22T23:49:46Z","tz":1,"tags":{"name":"Grau de Sant Climents","name:ca":"Grau de Sant Climents","natural":"cliff","sport":"climbing"}},"835033183":{"location":[42.1888899,1.8416729],"ts":"2023-01-22T23:26:10Z","tz":1,"tags":{"name":"Cingles de Vallcebre","name:ca":"Cingles de Vallcebre","natural":"cliff","sport":"climbing"}},"835033184":{"location":[42.1846192,1.8257166],"ts":"2023-01-22T23:26:21Z","tz":1,"tags":{"name":"Grau de la Mola","name:ca":"Grau de la Mola","natural":"cliff","sport":"climbing"}},"972483784":{"location":[42.108466,1.8320635],"ts":"2023-01-22T21:43:44Z","tz":1,"tags":{"climbing":"scramble_route","highway":"path","name":"La Cresta de Queralt","name:ca":"La Cresta de Queralt","surface":"ground","trail_visibility":"intermediate","width":"0.5"}},"1331387342":{"location":[42.2482644,2.0416259],"ts":"2024-11-06T13:48:36Z","tz":1,"tags":{"name":"Totxo del Refugi Esquerra","natural":"cliff","sport":"climbing"}},"1331387555":{"location":[42.2486884,2.0419799],"ts":"2024-11-06T13:51:03Z","tz":1,"tags":{"name":"Totxo del Refugi Dreta","natural":"cliff","sport":"climbing"}},"3038155442":{"location":[42.1967332,1.8070074],"ts":"2014-08-24T00:13:29Z","tz":1,"tags":{"name":"Via ferrada Cal Curt","sport":"climbing","tourism":"attraction"}},"3038155443":{"location":[42.1964926,1.8066925],"ts":"2018-09-09T19:45:34Z","tz":1,"tags":{"name":"Via ferrada Roques d'Empalomar","sport":"climbing","tourism":"attraction"}},"3042778880":{"location":[42.1978495,1.8063344],"ts":"2014-08-26T06:53:45Z","tz":1,"tags":{"name":"Via ferrada Canalassa","sport":"climbing","tourism":"attraction"}},"3078105738":{"location":[42.0375117,1.8796772],"ts":"2022-12-24T22:43:32Z","tz":1,"tags":{"name":"Rocòdrom","name:ca":"Rocòdrom","sport":"climbing"}},"6417409040":{"location":[42.2265023,1.8872032],"ts":"2022-12-10T19:38:52Z","tz":1,"tags":{"name":"les Esposes","name:ca":"les Esposes","sport":"climbing"}},"7247089109":{"location":[42.2719999,1.851089],"ts":"2023-03-31T18:03:56Z","tz":1,"tags":{"name":"Riugréixer","name:ca":"Riugréixer","sport":"climbing"}},"8912222587":{"location":[42.2675123,2.083707],"ts":"2023-10-04T03:19:50Z","tz":1,"tags":{"climbing:grade:french:max":"8a+","climbing:grade:french:min":"5","name":"Paret del malpàs","sport":"climbing","website":"https://www.thecrag.com/climbing/spain/montgrony/area/155573778"}},"10289472092":{"location":[42.1195636,2.0996681],"ts":"2022-12-27T13:17:36Z","tz":1,"tags":{"sport":"climbing"}}}