{"187762050":{"location":[41.6016111,1.8269238],"ts":"2018-10-30T10:06:41Z","tz":1,"tags":{"natural":"cliff","sport":"climbing"}},"187762052":{"location":[41.6001529,1.8333006],"ts":"2018-10-30T10:06:41Z","tz":1,"tags":{"natural":"cliff","sport":"climbing"}},"187762055":{"location":[41.6012412,1.8288009],"ts":"2018-10-30T10:06:41Z","tz":1,"tags":{"natural":"cliff","sport":"climbing"}},"187762059":{"location":[41.5986617,1.8342954],"ts":"2018-10-30T10:06:41Z","tz":1,"tags":{"natural":"cliff","sport":"climbing"}},"187762062":{"location":[41.5962323,1.8360956],"ts":"2018-10-30T10:06:41Z","tz":1,"tags":{"natural":"cliff","sport":"climbing"}},"220877175":{"location":[41.6061251,1.7805712],"ts":"2015-11-07T16:35:28Z","tz":1,"tags":{"climbing":"route","climbing:grade:french":"6a+, V/A0","climbing:length":"100","climbing:pitches":"3","name":"GAM","sport":"climbing"}},"243982026":{"location":[41.7246195,1.8110682],"ts":"2015-03-01T18:04:37Z","tz":1,"tags":{"building":"yes","name":"Rocòdrom Paul Harris","sport":"climbing"}},"393507848":{"location":[41.5940473,1.8373734],"ts":"2018-10-30T10:06:40Z","tz":1,"tags":{"natural":"cliff","sport":"climbing"}},"393507850":{"location":[41.5934503,1.8356372],"ts":"2018-10-30T10:06:40Z","tz":1,"tags":{"natural":"cliff","sport":"climbing"}},"393507853":{"location":[41.5959451,1.837512],"ts":"2018-10-30T10:06:41Z","tz":1,"tags":{"natural":"cliff","sport":"climbing"}},"414956502":{"location":[41.5909605,1.834661],"ts":"2018-10-30T10:06:41Z","tz":1,"tags":{"natural":"cliff","sport":"climbing"}},"414956509":{"location":[41.590612,1.835641],"ts":"2018-10-30T10:06:41Z","tz":1,"tags":{"natural":"cliff","sport":"climbing"}},"415106041":{"location":[41.6258282,2.0921388],"ts":"2018-09-09T18:38:01Z","tz":1,"tags":{"height":"15","name":"Xaragall del Foió","natural":"cliff","sport":"climbing"}},"562226648":{"location":[41.5402394,2.0766611],"ts":"2023-08-23T22:01:36Z","tz":1,"tags":{"addr:city":"Sant Quirze del Vallès","addr:housenumber":"10","addr:postcode":"08192","addr:street":"Carrer Penedès","building":"industrial","charge":"10 EUR","fee":"yes","leisure":"sports_centre","mobile":"+34 678229889","name":"Sala Batec Sant Quirze del Vallès","payment:cash":"yes","payment:contactless":"yes","payment:credit_cards":"yes","payment:debit_cards":"yes","payment:mastercard":"yes","payment:visa":"yes","phone":"+34 937214322","sport":"climbing","website":"https://salabatec.com/sqv-la-sala/"}},"643274833":{"location":[41.5900872,1.8264595],"ts":"2023-05-31T15:02:37Z","tz":1,"tags":{"climbing":"route","climbing:grade:yds_class":"5.9","climbing:pitches":"5","name":"Via del Carles","sport":"climbing"}},"643274837":{"location":[41.588937,1.8279598],"ts":"2018-11-12T06:42:27Z","tz":1,"tags":{"climbing":"route","climbing:pitches":"3","name":"Apia","oneway":"no","sport":"climbing"}},"643274838":{"location":[41.5895849,1.8266974],"ts":"2018-11-12T06:42:27Z","tz":1,"tags":{"climbing":"route","name":"98 Octans","sport":"climbing"}},"706365234":{"location":[41.5495763,2.092652],"ts":"2019-07-22T12:19:53Z","tz":1,"tags":{"leisure":"sports_centre","sport":"climbing"}},"835476490":{"location":[41.5770972,1.8167742],"ts":"2020-08-09T12:08:08Z","tz":1,"tags":{"height":"25","name":"The Mama's and The Papa`s","natural":"cliff","sport":"climbing"}},"835476491":{"location":[41.5775256,1.8172396],"ts":"2020-08-09T12:08:08Z","tz":1,"tags":{"height":"22","name":"The Mama's and The Papa`s","natural":"cliff","sport":"climbing"}},"1201554444":{"location":[41.5298567,2.0991943],"ts":"2023-08-23T22:01:36Z","tz":1,"tags":{"addr:city":"Sabadell","addr:housenumber":"79","addr:postcode":"08205","addr:street":"Carrer de Costa i Deu","building":"industrial","charge":"11 EUR","fee":"yes","leisure":"sports_centre","name":"Sala Batec Sabadell","payment:cash":"yes","payment:contactless":"yes","payment:credit_cards":"yes","payment:debit_cards":"yes","payment:mastercard":"yes","payment:visa":"yes","phone":"+34 938357677","sport":"climbing","website":"https://salabatec.com/sab-la-sala/"}},"1295354227":{"location":[41.5888144,1.8280737],"ts":"2018-11-12T06:42:28Z","tz":1,"tags":{"climbing":"route_bottom"}},"1735291450":{"location":[41.5901569,1.8268441],"ts":"2019-11-28T09:30:28Z","tz":1,"tags":{"climbing":"route_bottom"}},"1928741242":{"location":[41.6063191,1.7806417],"ts":"2022-11-26T03:55:12Z","tz":1,"tags":{"climbing":"route_bottom","ele":"928.7","name":"Portella Petita","name:ca":"Portella Petita","natural":"peak"}},"2288542541":{"location":[41.5834411,1.8164512],"ts":"2014-08-26T09:27:02Z","tz":1,"tags":{"alt_name":"Canal de les Damas","name":"Canal de les Dames","sport":"climbing","tourism":"attraction"}},"2299567873":{"location":[41.6059311,1.7805006],"ts":"2015-11-07T16:35:34Z","tz":1,"tags":{"climbing":"route_bottom"}},"2470096440":{"location":[41.5891601,1.7978663],"ts":"2013-09-24T14:27:13Z","tz":1,"tags":{"sport":"climbing"}},"3042837637":{"location":[41.6069311,1.8134695],"ts":"2017-09-25T20:36:31Z","tz":1,"tags":{"name":"Canal del Mejillón","sport":"climbing","tourism":"attraction"}},"3042837639":{"location":[41.607005,1.813386],"ts":"2019-10-10T07:45:52Z","tz":1,"tags":{"description":"Via ferrada tancada indefinidament","name":"Via ferrada la Teresina (tancada)","sport":"climbing"}},"3084273228":{"location":[41.7327745,1.8297287],"ts":"2019-03-23T14:57:49Z","tz":1,"tags":{"leisure":"sports_centre","name":"Can Romu","sport":"climbing","website":"https://canromu.wordpress.com/"}},"3250677066":{"location":[41.5757291,1.8885726],"ts":"2023-03-31T17:40:04Z","tz":1,"tags":{"name":"Balma de l'Espluga","name:ca":"Balma de l'Espluga","natural":"cave_entrance","sport":"climbing"}},"4218621553":{"location":[41.7290711,1.8327941],"ts":"2023-01-23T01:11:09Z","tz":1,"tags":{"leisure":"sports_centre","name":"el Pati Vertical","name:ca":"el Pati Vertical","phone":"+34 660044653","sport":"climbing"}},"4239379606":{"location":[41.5914307,1.7927576],"ts":"2016-06-12T14:10:22Z","tz":1,"tags":{"sport":"climbing"}},"4547443691":{"location":[41.7461131,1.8055569],"ts":"2021-08-09T09:50:33Z","tz":1,"tags":{"leisure":"fitness_centre","name":"Buldervuit","sport":"climbing"}},"4935362542":{"location":[41.6012188,1.7890372],"ts":"2022-11-04T23:32:03Z","tz":1,"tags":{"name":"Camí equipat Torrent del Lloro","name:ca":"Camí equipat Torrent del Lloro","sport":"climbing","tourism":"attraction"}},"5250244306":{"location":[41.6258592,1.8769185],"ts":"2019-10-04T10:09:27Z","tz":1,"tags":{"name":"Via ferrada Turó de l'Escletxa","sport":"climbing","tourism":"attraction"}},"5420180863":{"location":[41.5366922,2.0719365],"ts":"2022-01-02T09:14:58Z","tz":1,"tags":{"leisure":"pitch","sport":"climbing"}},"5502211695":{"location":[41.6011037,1.8065735],"ts":"2018-03-24T22:29:17Z","tz":1,"tags":{"name":"Salamandra Via Normal","sport":"climbing"}},"5640425421":{"location":[41.590729,1.80188],"ts":"2023-01-22T23:00:02Z","tz":1,"tags":{"climbing":"route_bottom","climbing:grade:uiaa":"4+","climbing:length":"183","climbing:multipitch":"yes","climbing:sport":"yes","description":"P1: 30m P2: 30m P3: 30m P4: 25m P5: 25m P6: 40m","name":"Sol Solet","name:ca":"Sol Solet","sport":"climbing"}},"5873682709":{"location":[41.5365579,2.0988953],"ts":"2018-09-01T16:00:58Z","tz":1,"tags":{"name":"La Panxa del Bou","sport":"climbing"}},"6054077094":{"location":[41.5899856,1.8260749],"ts":"2018-11-12T06:42:27Z","tz":1,"tags":{"climbing":"route_top"}},"6054077108":{"location":[41.5890597,1.8278459],"ts":"2018-11-12T06:42:27Z","tz":1,"tags":{"climbing":"route_top"}},"6054077109":{"location":[41.5896735,1.8268262],"ts":"2018-11-12T06:42:27Z","tz":1,"tags":{"climbing":"route_bottom"}},"6054077110":{"location":[41.5894962,1.8265687],"ts":"2018-11-12T06:42:27Z","tz":1,"tags":{"climbing":"route_top"}},"7985105177":{"location":[41.5757131,1.8229841],"ts":"2022-11-26T03:41:28Z","tz":1,"tags":{"fee":"no","leisure":"sports_centre","name":"totxo de l'estel","name:ca":"totxo de l'estel","sport":"climbing"}},"7985105178":{"location":[41.5756303,1.823078],"ts":"2023-01-22T22:42:20Z","tz":1,"tags":{"leisure":"sports_centre","name":"Placa de l'Indi","name:ca":"Placa de l'Indi","sport":"climbing"}},"7985305628":{"location":[41.5755382,1.8239576],"ts":"2024-02-09T21:18:24Z","tz":1,"tags":{"fee":"no","leisure":"sports_centre","name":"els Graus","name:ca":"els Graus","sport":"climbing"}},"8434321271":{"location":[41.7364387,1.8409923],"ts":"2021-02-18T09:18:14Z","tz":1,"tags":{"leisure":"sports_centre","name":"Indoorwall Manresa","sport":"climbing","website":"https://www.indoorwall.com/centros-indoorwall-rocodromos/indoorwall-manresa/"}},"9350338039":{"location":[41.5749903,1.8248513],"ts":"2024-02-09T21:18:24Z","tz":1,"tags":{"fee":"no","leisure":"sports_centre","sport":"climbing"}},"12219157205":{"location":[41.5466962,2.0288946],"ts":"2024-10-03T17:51:52Z","tz":1,"tags":{"leisure":"sports_centre","name":"Gravetat Zero","sport":"climbing"}}}