{"373187656":{"lat":41.470401,"lon":2.0848256,"ts":"2015-10-01T09:31:56Z","tz":1,"tags":{"leisure":"sports_centre","sport":"climbing"}},"394443173":{"lat":41.27163,"lon":1.9203558,"ts":"2022-11-26T08:39:13Z","tz":1,"tags":{"name":"Penya Ginesta","name:ca":"Penya Ginesta","natural":"cliff","sport":"climbing"}},"401750108":{"lat":41.3810418,"lon":1.9168186,"ts":"2017-07-10T20:54:46Z","tz":1,"tags":{"name":"Les Casetes de Muntaner (est)","natural":"cliff","sport":"climbing"}},"401750109":{"lat":41.3813491,"lon":1.9154979,"ts":"2016-03-05T11:37:29Z","tz":1,"tags":{"name":"Les Casetes de Muntaner (oest)","natural":"cliff","sport":"climbing"}},"409250342":{"lat":41.3498003,"lon":1.9451574,"ts":"2022-11-26T09:09:22Z","tz":1,"tags":{"height":"25","name":"Penya del Moro","name:ca":"Penya del Moro","natural":"cliff","sport":"climbing"}},"409593839":{"lat":41.4341243,"lon":1.9713056,"ts":"2016-04-11T18:54:41Z","tz":1,"tags":{"height":"25","name":"Pic de l'Àliga","natural":"cliff","sport":"climbing"}},"434341455":{"lat":41.4153369,"lon":1.8136923,"ts":"2016-07-28T10:43:00Z","tz":1,"tags":{"natural":"cliff","sport":"climbing"}},"434341456":{"lat":41.4177763,"lon":1.8144272,"ts":"2016-07-28T10:43:00Z","tz":1,"tags":{"natural":"cliff","sport":"climbing"}},"505918278":{"lat":41.2693467,"lon":1.8087148,"ts":"2022-11-26T08:06:15Z","tz":1,"tags":{"name":"Penyes de Can Marcer","name:ca":"Penyes de Can Marcer","natural":"cliff","sport":"climbing"}},"695296068":{"lat":41.2840782,"lon":1.7717268,"ts":"2020-03-15T17:49:00Z","tz":1,"tags":{"natural":"cliff","sport":"climbing"}},"739090677":{"lat":41.4982478,"lon":2.0332403,"ts":"2019-10-27T13:54:30Z","tz":1,"tags":{"leisure":"sports_centre","sport":"climbing"}},"740919045":{"lat":41.5053111,"lon":2.0454412,"ts":"2022-11-26T07:20:31Z","tz":1,"tags":{"blind":"limited","leisure":"sports_centre","name":"Drac de Pedra","name:ca":"Drac de Pedra","sport":"climbing","wheelchair":"limited"}},"756325068":{"lat":41.357224,"lon":2.1085718,"ts":"2022-10-17T20:14:24Z","tz":1,"tags":{"addr:city":"L'Hospitalet de Llobregat","addr:housenumber":"33 I","addr:postcode":"08907","addr:street":"Avinguda de la Fabregada","building":"industrial","charge":"10 EUR","contact:email":"hospitalet@indoorwall.com","contact:phone":"+34 93 115 15 04","contact:website":"https://www.indoorwall.com/centros-indoorwall-rocodromos/indoorwall-hospitalet-llobregat/","fee":"yes","leisure":"sports_centre","name":"Indoorwall Hospitalet de Llobregat","opening_hours":"Mo-Fr 10:00-23:00; Sa 10:00-20:00","payment:cash":"yes","payment:credit_cards":"yes","sport":"climbing"}},"781353594":{"lat":41.3790537,"lon":2.0836732,"ts":"2020-03-14T17:08:07Z","tz":1,"tags":{"leisure":"sports_centre","sport":"climbing"}},"1116688581":{"lat":41.301181,"lon":2.0126821,"ts":"2024-05-26T16:02:20Z","tz":1,"tags":{"addr:city":"Gavà","addr:housenumber":"25","addr:postcode":"08850","addr:street":"Carrer de Girona","building":"sports_centre","description":"Rocòdrom d'escalada","fee":"yes","leisure":"sports_centre","name":"Sharma Climbing Gavà","opening_hours":"Mo-Fr 08:00-23:00; Sa, Su 10:00-21:00","phone":"+34 937224783","sport":"climbing","website":"https://www.sharmaclimbing.com/en/spain/barcelona-gava/"}},"1887917065":{"lat":41.4165934,"lon":1.9694572,"ts":"2012-08-29T09:04:55Z","tz":1,"tags":{"name":"Vies d'escalada","sport":"climbing"}},"3612691296":{"lat":41.438655,"lon":2.0180738,"ts":"2023-04-01T08:40:15Z","tz":1,"tags":{"climbing:bolted":"yes","climbing:grade:french:max":"7a","climbing:grade:french:min":"4","multipitch":"no","name":"les Escletxes","name:ca":"les Escletxes","place":"locality","rock":"limestone","sport":"climbing"}},"8290091103":{"lat":41.5051809,"lon":2.0454664,"ts":"2022-11-26T07:20:30Z","tz":1,"tags":{"addr:city":"Rubí","addr:housenumber":"43","addr:postcode":"08191","addr:street":"Avinguda de Can Rosés","building":"garage","fee":"yes","leisure":"sports_centre","name":"Drac de Pedra","name:ca":"Drac de Pedra","payment:cash":"yes","payment:credit_cards":"yes","sport":"climbing"}},"8714360819":{"lat":41.3577337,"lon":2.0860933,"ts":"2022-12-24T22:40:57Z","tz":1,"tags":{"leisure":"sports_centre","name":"rocòdrom","name:ca":"rocòdrom","outdoor":"yes","sport":"climbing"}},"8957629261":{"lat":41.3038981,"lon":2.0128906,"ts":"2024-10-18T15:48:25Z","tz":1,"tags":{"addr:street":"Carrer de Barcelona","description":"Rocòdrom d'escalada","leisure":"fitness_centre","name":"Kimera Climbing Barcelona","opening_hours":"Mo-Fr 09:30-22:00; Sa,Su 10:00-20:00","phone":"+34 934312340","sport":"climbing","website":"https://kimeraclimbingbcn.com/"}},"10205105481":{"lat":41.2751376,"lon":1.9791258,"ts":"2022-11-26T03:20:20Z","tz":1,"tags":{"leisure":"sports","name":"rocòdrom infantil","name:ca":"rocòdrom infantil","sport":"climbing"}},"10205105482":{"lat":41.2751245,"lon":1.9790589,"ts":"2022-11-26T03:20:21Z","tz":1,"tags":{"leisure":"sports","name":"rocòdrom infantil","name:ca":"rocòdrom infantil","sport":"climbing"}}}