{"282848756":{"location":[53.679547,23.7845832],"ts":"2024-12-31T04:51:22Z","tz":3,"tags":{"barrier":"fence","leisure":"sports_centre","name":"Джунглі парк","name:be":"Джунглі парк","name:ru":"Джунгли парк","opening_hours":"Tu-Th 15:00-20:00; Fr-Su 12:00-20:00","phone":"+375445886630","sport":"climbing","website":"http://jpp.by/"}},"497711233":{"location":[53.705877,23.8116857],"ts":"2022-04-27T09:55:43Z","tz":3,"tags":{"access":"yes","leisure":"pitch","lit":"no","natural":"sand","sport":"climbing","surface":"sand"}},"694354924":{"location":[53.7081474,23.8306319],"ts":"2019-07-19T21:11:50Z","tz":3,"tags":{"height":"7","leisure":"sports_centre","man_made":"yes","sport":"climbing"}},"6407762701":{"location":[53.6866058,23.8391651],"ts":"2019-04-15T22:02:46Z","tz":3,"tags":{"leisure":"sports_centre","seasonal":"yes","sport":"climbing"}},"6700823537":{"location":[53.7100646,23.8172373],"ts":"2024-12-31T04:51:22Z","tz":3,"tags":{"leisure":"sports_centre","name":"Канатны парк","name:be":"Канатны парк","name:ru":"Канатный парк","sport":"climbing"}},"6928589072":{"location":[53.6456058,23.859946],"ts":"2024-07-31T12:47:50Z","tz":3,"tags":{"leisure":"sports_centre","sport":"climbing"}}}