{"125603384":{"location":[38.1533885,23.7497633],"ts":"2015-10-25T21:05:00Z","tz":2,"tags":{"climbing:multipitch":"yes","climbing:trad":"yes","name":"Πάνω Φλαμπούρι","natural":"cliff","sport":"climbing"}},"125603426":{"location":[38.1494442,23.7495379],"ts":"2015-10-25T21:05:00Z","tz":2,"tags":{"climbing:multipitch":"yes","climbing:trad":"yes","name":"Κάτω Φλαμπούρι","natural":"cliff","sport":"climbing"}},"125603963":{"location":[38.1386724,23.660539],"ts":"2015-10-25T21:33:51Z","tz":2,"tags":{"climbing:multipitch":"yes","climbing:trad":"yes","name":"Νότιο Άρμα","natural":"cliff","sport":"climbing"}},"125604000":{"location":[38.1406723,23.6620142],"ts":"2015-10-25T21:33:51Z","tz":2,"tags":{"climbing:multipitch":"yes","climbing:trad":"yes","name":"Κεντρικό Άρμα","natural":"cliff","sport":"climbing"}},"127303448":{"location":[38.1464952,23.7627739],"ts":"2016-06-05T21:18:11Z","tz":2,"tags":{"climbing:sport":"yes","climbing:trad":"yes","name":"Πίσω πέτρα","name:el":"Πίσω Πέτρα","name:en":"Piso Petra","natural":"cliff","sport":"climbing","url":"http://www.routes.gr/?Page=el/Climbing/Fields/Parnitha-Petra"}},"127307570":{"location":[38.1463378,23.7632861],"ts":"2016-06-05T21:18:12Z","tz":2,"tags":{"climbing:sport":"yes","climbing:trad":"yes","name":"Πάνω πέτρα","name:el":"Πάνω πέτρα","name:en":"Pano Petra","natural":"cliff","sport":"climbing","url":"http://www.routes.gr/?Page=el/Climbing/Fields/Parnitha-Petra"}},"372806279":{"location":[38.0966906,23.6657623],"ts":"2015-10-17T15:45:54Z","tz":2,"tags":{"climbing:bolted":"yes","climbing:length:max":"22","climbing:length:min":"8","climbing:orientation":"N","climbing:quality":"solid","climbing:rock":"limestone","climbing:sport":"31","climbing:toprope":"yes","int_name":"Acharneis","name":"Αχαρνείς","natural":"cliff","operator":"ΕΟΣ Αχαρνών","sport":"climbing","url":"http://www.vrahomania.gr/aharnis/"}},"374558116":{"location":[38.0962731,23.666517],"ts":"2015-11-28T17:47:22Z","tz":2,"tags":{"climbing:bolted":"yes","climbing:length:max":"12","climbing:length:min":"10","climbing:rock":"limestone","climbing:sport":"11","name":"Μαύρος Πιτ","natural":"cliff","sport":"climbing"}},"374558117":{"location":[38.0966942,23.6676074],"ts":"2016-05-17T21:18:32Z","tz":2,"tags":{"climbing:bolted":"yes","climbing:grade:french:min":"5a","climbing:rock":"limestone","climbing:sport":"yes","climbing:trad":"yes","name":"Κολώνες","natural":"cliff","sport":"climbing"}},"376834176":{"location":[38.1225914,23.6616888],"ts":"2024-12-23T11:20:43Z","tz":2,"tags":{"access":"yes","climbing":"crag","climbing:bolted":"yes","climbing:multipitch":"no","climbing:sport":"yes","fee":"no","name":"Μικρή Βαράσσοβα","natural":"cliff","sport":"climbing"}},"376834179":{"location":[38.1233859,23.6613943],"ts":"2016-03-08T08:19:04Z","tz":2,"tags":{"access":"yes","climbing:bolted":"yes","climbing:multipitch":"no","climbing:orientation":"NW","climbing:sport":"27","fee":"no","name":"ΕΠΟΣ Φυλής","natural":"cliff","sport":"climbing","url":"http://www.eposfilis.gr/el/anarrixisi/2015-09-13-16-53-27/%CE%B1%CE%BD%CE%B1%CF%81%CF%81%CE%B9%CF%87%CE%B7%CF%84%CE%B9%CE%BA%CF%8C-%CF%80%CE%B5%CE%B4%CE%AF%CE%BF-%CE%B5%CF%80%CE%BF%CF%83-%CF%86%CF%85%CE%BB%CE%AE%CF%82.html"}},"376860556":{"location":[38.2517461,23.8059041],"ts":"2015-10-25T17:10:18Z","tz":2,"tags":{"climbing:bolted":"yes","climbing:grade:french:max":"8c","climbing:grade:french:min":"5b","climbing:length:max":"35","climbing:length:min":"15","climbing:rock":"limestone","climbing:sport":"20","fee":"no","name":"Μαυροσουβάλα","natural":"cliff","outdoor":"yes","sport":"climbing","url":"http://www.vrahomania.gr/mavrosouvala/"}},"383300761":{"location":[38.1249612,23.6613361],"ts":"2015-11-28T17:23:21Z","tz":2,"tags":{"access":"yes","climbing:bolted":"yes","climbing:toprope":"no","fee":"no","int_name":"Pigi Avrami","name":"Πηγή Αβράμη","natural":"cliff","sport":"climbing"}},"383307301":{"location":[38.0970564,23.6674222],"ts":"2016-05-17T21:18:31Z","tz":2,"tags":{"climbing:boulder":"yes","climbing:rock":"limestone","climbing:sport":"2","int_name":"Lefki grammi","name":"Λευκή γραμμή","natural":"cliff","sport":"climbing"}},"383307302":{"location":[38.0971235,23.6670461],"ts":"2016-04-13T20:05:38Z","tz":2,"tags":{"climbing:boulder":"yes","climbing:rock":"limestone","climbing:sport":"yes","int_name":"Menir","name":"Μενίρ","natural":"cliff","sport":"climbing"}},"385568683":{"location":[38.033767,23.6421495],"ts":"2024-02-08T10:43:34Z","tz":2,"tags":{"access":"yes","climbing":"crag","climbing:bolted":"yes","climbing:sport":"yes","fee":"no","name":"Εκπαιδευτικές","natural":"cliff","sport":"climbing"}},"388146610":{"location":[38.118971,23.6691218],"ts":"2016-01-11T11:11:45Z","tz":2,"tags":{"access":"yes","climbing:bolted":"yes","climbing:rock":"limestone","climbing:sport":"yes","climbing:toprope":"no","fee":"no","name":"Πάνω Αλογόπετρα","natural":"cliff","sport":"climbing","url":"http://www.vrahomania.gr/%CF%80%CE%AC%CE%BD%CF%89-%CE%B1%CE%BB%CE%BF%CE%B3%CF%8C%CF%80%CE%B5%CF%84%CF%81%CE%B1/"}},"388200551":{"location":[38.0336355,23.6426965],"ts":"2024-02-08T10:43:34Z","tz":2,"tags":{"access":"yes","climbing":"crag","climbing:bolted":"yes","climbing:sport":"yes","fee":"no","name":"Αμφιθέατρο","natural":"cliff","sport":"climbing"}},"388312346":{"location":[38.1179653,23.6726869],"ts":"2024-12-23T11:20:00Z","tz":2,"tags":{"climbing":"crag","climbing:bolted":"yes","climbing:sport":"yes","name":"Απέναντι Αλογόπετρα","natural":"cliff","sport":"climbing"}},"390393537":{"location":[38.1446894,23.7451084],"ts":"2016-01-09T10:14:37Z","tz":2,"tags":{"climbing:bolted":"yes","climbing:multipitch":"no","climbing:sport":"yes","fee":"no","name":"Χούνη","natural":"cliff","outdoor":"yes","sport":"climbing","url":"http://www.vrahomania.gr/houni/"}},"393281558":{"location":[38.072492,23.8786268],"ts":"2016-01-24T22:19:35Z","tz":2,"tags":{"climbing:mixed":"yes","name":"Άδης","natural":"cliff","note":"actually it's a dry tooling field, but no such value for climbing key in the wiki","sport":"climbing","url":"http://www.routes.gr/?Page=el%2FClimbing%2FFields%2FPenteli-Adis"}},"393283345":{"location":[38.0723569,23.8788118],"ts":"2016-01-24T22:19:35Z","tz":2,"tags":{"climbing:mixed":"yes","fixme":"both cliffs should / could be in a relationship","name":"Άδης","natural":"cliff","sport":"climbing","url":"http://www.routes.gr/?Page=el%2FClimbing%2FFields%2FPenteli-Adis"}},"397843030":{"location":[38.0609094,23.779851],"ts":"2022-03-13T11:29:22Z","tz":2,"tags":{"addr:city":"Ηράκλειο","addr:country":"GR","addr:housenumber":"4","addr:postcode":"14122","addr:street":"Προβελεγγίου","building":"yes","climbing:boulder":"yes","contact:email":"info@rockwayclimbing.com","contact:fax":"+30 2102814765","contact:phone":"+30 2102814989","fee":"yes","indoor":"yes","leisure":"sports_centre","name":"Rockway","opening_hours":"Mo-Fr 13:30-22:30; Sa-Su 10:00-20:00","sport":"climbing","website":"https://www.rockwayclimbing.com/"}},"402040549":{"location":[38.0986568,23.6746472],"ts":"2025-02-21T01:00:16Z","tz":2,"tags":{"climbing":"crag","climbing:sport":"yes","name":"Πλατώσι","name:el":"Πλατώσι","name:en":"Platosi","natural":"cliff","source":"bing","sport":"climbing","url":"http://www.routes.gr/?Page=el/Climbing/Panoramas/Parnitha-Platosi"}},"407757485":{"location":[38.0953068,23.6415926],"ts":"2016-04-04T18:45:34Z","tz":2,"tags":{"climbing:bolted":"yes","climbing:rock":"limestone","climbing:sport":"yes","fee":"no","indoor":"no","name":"Στροφές","name:el":"Στροφές","name:en":"strofes","natural":"cliff","sport":"climbing"}},"413470485":{"location":[38.1307757,23.7213573],"ts":"2016-04-25T23:10:11Z","tz":2,"tags":{"alt_name":"Κορακοφωλιά Κεντρικό","climbing:bolted":"yes","climbing:rock":"limestone","climbing:sport":"yes","name":"Κορακοφωλιά κάτω","name:el":"Κορακοφωλιά κάτω","name:en":"Korakofolia kato","natural":"cliff","outdoor":"yes","sport":"climbing","url":"http://www.vrahomania.gr/%CE%BA%CE%BF%CF%81%CE%B1%CE%BA%CE%BF%CF%86%CF%89%CE%BB%CE%B9%CE%AC/"}},"413470486":{"location":[38.1312439,23.7204428],"ts":"2016-04-25T23:10:12Z","tz":2,"tags":{"climbing:bolted":"yes","climbing:rock":"limestone","climbing:sport":"yes","name":"Κορακοφωλιά Αρνητικά","name:el":"Κορακοφωλιά Αρνητικά","name:en":"Korakofolia Arnitika","natural":"cliff","sport":"climbing","url":"http://www.vrahomania.gr/%CE%BA%CE%BF%CF%81%CE%B1%CE%BA%CE%BF%CF%86%CF%89%CE%BB%CE%B9%CE%AC/"}},"413470489":{"location":[38.1301009,23.7223071],"ts":"2016-04-25T23:10:12Z","tz":2,"tags":{"climbing:bolted":"yes","climbing:rock":"limestone","climbing:sport":"yes","name":"Κορακοφωλιά Πάνω","name:el":"Κορακοφωλιά Πάνω","name:en":"Korakofolia Pano","natural":"cliff","sport":"climbing","url":"http://www.vrahomania.gr/%CE%BA%CE%BF%CF%81%CE%B1%CE%BA%CE%BF%CF%86%CF%89%CE%BB%CE%B9%CE%AC/"}},"423008850":{"location":[38.1461834,23.7622007],"ts":"2016-06-05T21:18:11Z","tz":2,"tags":{"climbing:sport":"yes","climbing:trad":"yes","name":"Εμπρός Πέτρα","name:el":"Εμπρός Πέτρα","name:en":"Embros Petra","natural":"cliff","sport":"climbing","url":"http://www.routes.gr/?Page=el/Climbing/Fields/Parnitha-Petra"}},"423008851":{"location":[38.1458701,23.7627081],"ts":"2016-06-05T21:18:11Z","tz":2,"tags":{"climbing:multipitch":"yes","climbing:rock":"limestone","climbing:sport":"yes","climbing:trad":"yes","name":"Πέτρα Λιάγκου","name:el":"Πέτρα Λιάγκου","name:en":"Petra Liagou","natural":"cliff","sport":"climbing","url":"http://www.routes.gr/?Page=el/Climbing/Fields/Parnitha-Petra"}},"423958636":{"location":[38.0997651,23.6673548],"ts":"2025-02-21T01:00:16Z","tz":2,"tags":{"addr:city":"Φυλή","addr:housenumber":"5","addr:postcode":"13351","addr:street":"Αλίανθου","building":"yes","climbing:boulder":"yes","climbing:sport":"yes","climbing:toprope":"yes","contact:phone":"+30 2102411148","contact:website":"http://www.eposfilis.gr/","fee":"yes","indoor":"yes","leisure":"sports_centre","name":"Ελληνικός Πολιτιστικός Ορειβατικός Σύλλογος Φυλής","name:el":"Ελληνικός Πολιτιστικός Ορειβατικός Σύλλογος Φυλής","name:en":"EPOS Fylis","short_name":"ΕΠΟΣ Φυλής","sport":"climbing"}},"423961434":{"location":[38.0967718,23.6676519],"ts":"2016-06-09T21:21:18Z","tz":2,"tags":{"climbing:bolted":"no","climbing:boulder":"yes","climbing:rock":"limestone","fee":"no","indoor":"no","natural":"cliff","sport":"climbing"}},"428797695":{"location":[38.0924373,23.8722026],"ts":"2016-07-02T20:15:56Z","tz":2,"tags":{"alt_name":"Κάτω Πλατεία","alt_name:el":"Κάτω Πλατεία","alt_name:en":"Kato Plateia","climbing:bolted":"yes","climbing:rock":"marble","climbing:sport":"yes","climbing:toprope":"yes","climbing:trad":"yes","name":"Διόνυσος","name:el":"Διόνυσος","name:en":"Dionysos","natural":"cliff","sport":"climbing","url":"http://www.routes.gr/?Page=el/Climbing/Panoramas/Penteli-Dionysos-KatoPlateia"}},"428806011":{"location":[38.0931698,23.8693738],"ts":"2016-07-02T21:38:33Z","tz":2,"tags":{"climbing:rock":"marble","climbing:sport":"yes","natural":"cliff","sport":"climbing"}},"431100097":{"location":[38.0993522,23.6763083],"ts":"2024-12-23T11:18:58Z","tz":2,"tags":{"climbing":"crag","climbing:bolted":"yes","climbing:orientation":"N;W","climbing:rock":"limestone","climbing:sport":"10","fee":"no","indoor":"no","name":"Μικρό Πεδίο","name:el":"Μικρό Πεδίο","name:en":"Mikro Pedio","natural":"cliff","sport":"climbing"}},"432206020":{"location":[38.1353763,23.7311659],"ts":"2016-07-20T19:17:43Z","tz":2,"tags":{"abandoned:climbing:sport":"yes","abandoned:climbing:trad":"yes","climbing:rock":"limestone","description":"Abandoned! Anchors have been removed!!! Caution required!!!","description:el":"Εγκατελειμένο! Τα ρελέ έχουν αφαιρεθεί!!! Απαιτείτε προσοχή!!!","description:en":"Abandoned! Anchors have been removed!!! Caution required!!!","name":"Μετόχι","name:el":"Μετόχι","name:en":"metohi","natural":"cliff","sport":"climbing"}},"446829913":{"location":[38.0065826,23.7602198],"ts":"2016-10-10T12:22:25Z","tz":2,"tags":{"natural":"cliff","sport":"climbing"}},"691683345":{"location":[38.0703877,23.7074346],"ts":"2019-05-22T14:02:26Z","tz":2,"tags":{"addr:housenumber":"3","addr:street":"Ικτίνου","amenity":"community_centre","building":"yes","fee":"yes","indoor":"yes","int_name":"EPOS Filis","leisure":"sports_centre","name":"Ε.Π.Ο.Σ. Φυλής","sport":"climbing","website":"https://www.eposfilis.gr/"}},"746474566":{"location":[38.0047108,23.754089],"ts":"2019-12-04T16:58:49Z","tz":2,"tags":{"climbing":"crag","climbing:bolted":"yes","climbing:length:max":"20","climbing:sport":"yes","fee":"no","indoor":"no","int_name":"Red","name":"Κόκκινα","natural":"cliff","sport":"climbing"}},"793847690":{"location":[38.0577974,23.6873447],"ts":"2021-05-31T11:00:16Z","tz":2,"tags":{"climbing":"crag","climbing:bolted":"yes","climbing:orientation":"e","climbing:quality":"fragile","climbing:sport":"6","climbing:toprope":"1","fee":"no","int_name":"Koutsomaraki","name":"Κουτσομαράκη","natural":"cliff","outdoor":"yes","sport":"climbing","website":"https://pospetroupolis.gr/2020/10/13/%CE%B1%CE%BD%CE%B1%CF%81%CF%81%CE%B9%CF%87%CE%B7%CF%84%CE%B9%CE%BA%CF%8C-%CF%80%CE%B5%CE%B4%CE%AF%CE%BF-%CE%BA%CE%BF%CF%85%CF%84%CF%83%CE%BF%CE%BC%CE%B1%CF%81%CE%AC%CE%BA%CE%B7-%CF%83%CF%84%CE%B7/"}},"1071700833":{"location":[38.0708882,23.8771207],"ts":"2024-12-23T22:25:52Z","tz":2,"tags":{"climbing":"crag","climbing:bolted":"no","climbing:toprope":"yes","climbing:trad":"yes","name":"Δυτικός τοίχος","name:el":"Δυτικός τοίχος","name:en":"Dytikos tichos","natural":"cliff","sport":"climbing"}},"1071700834":{"location":[38.0715438,23.8753611],"ts":"2024-12-23T11:16:55Z","tz":2,"tags":{"climbing":"crag","climbing:bolted":"yes","climbing:sport":"yes","name":"Νταμάρι","name:el":"Νταμάρι","name:en":"Damari","natural":"cliff","sport":"climbing"}},"1078687309":{"location":[38.0988297,23.6758917],"ts":"2024-12-23T11:18:58Z","tz":2,"tags":{"climbing":"crag","climbing:length:max":"6","climbing:orientation":"NW","climbing:rock":"limestone","climbing:sport":"5","fee":"no","indoor":"no","name":"Πλατώσι - Μεσαίος Τομέας","natural":"cliff","sport":"climbing","website":"https://www.eposfilis.gr/2015-09-13-16-53-27/%CE%B1%CE%BD%CE%B1%CF%81%CF%81%CE%B9%CF%87%CE%B7%CF%84%CE%B9%CE%BA%CF%8C-%CF%80%CE%B5%CE%B4%CE%AF%CE%BF-%CF%80%CE%BB%CE%AC%CF%84%CF%89%CF%83%CE%B9-%CE%BC%CE%B5%CF%83%CE%B1%CE%AF%CE%BF%CF%82-%CF%84%CE%BF%CE%BC%C"}},"1078690760":{"location":[38.1223076,23.6622664],"ts":"2025-02-21T01:00:53Z","tz":2,"tags":{"climbing":"crag","climbing:grade:french:min":"6c","climbing:length:max":"22","climbing:orientation":"SW","climbing:sport":"6","name":"Σπηλιά Ρίζου","name:el":"Σπηλιά Ρίζου","name:en":"Spilia Rizou","natural":"cliff","sport":"climbing","url":"https://www.eposfilis.gr/2015-09-13-16-53-27/spiliarizou.html"}},"1241484611":{"location":[38.0638122,23.6956513],"ts":"2025-02-21T01:00:58Z","tz":2,"tags":{"climbing":"crag","climbing:grade:french:max":"6a+","climbing:grade:french:min":"4c","climbing:orientation":"NE;W","climbing:sport":"14","fee":"no","int_name":"Zacharitsa","name":"Ζαχαρίτσα","name:el":"Ζαχαρίτσα","name:en":"Zacharitsa","natural":"cliff","outdoor":"yes","sport":"climbing","website":"https://www.eposfilis.gr/2015-09-13-16-53-27/%CE%B1%CE%BD%CE%B1%CF%81%CF%81%CE%B9%CF%87%CE%B9%CF%84%CE%B9%CE%BA%CF%8C-%CF%80%CE%B5%CE%B4%CE%AF%CE%BF-%CE%B6%CE%B1%CF%87%CE%B1%CF%81%CE%B9%CF%84%CF%83%CE%B1-%CF%83%CF%84%CE%BF-%CF%80%CE%BF%CE%B9%CE%BA%CE%AF%C"}},"1247588103":{"location":[38.0107294,23.8070028],"ts":"2024-02-20T16:04:28Z","tz":2,"tags":{"addr:city":"Χαλάνδρι","addr:housenumber":"44","addr:postcode":"15231","addr:street":"Ιριδος","building":"yes","email":"athensclimbingproject@gmail.com","fee":"no","leisure":"sports_centre","name":"Mono by Athens Climbing Project","opening_hours":"Mo-Su 10:00-22:00","operator":"Athens Climbing Project","operator:type":"private","phone":"2160702272","sport":"climbing","website":"https://monoclimb.gr/"}},"1247590765":{"location":[38.0106559,23.80681],"ts":"2024-02-08T11:01:00Z","tz":2,"tags":{"building":"yes","climbing":"boulder"}},"3771658163":{"location":[38.0388745,23.7821696],"ts":"2023-10-19T06:17:27Z","tz":2,"tags":{"climbing:boulder":"yes","climbing:sport":"yes","climbing:toprope":"yes","contact:email":"info@oakaindoorclimbing.gr","contact:phone":"+30 2106853241","fee":"yes","indoor":"yes","name":"OAKA Indoor Climbing","opening_hours":"Mo-Fr 12:00-22:30, Sa 11:00-20:00; Su 11:00-18:00","sport":"climbing","website":"https://www.oakaindoorclimbing.gr/"}},"3802162279":{"location":[38.1210983,23.6625267],"ts":"2015-10-25T14:47:18Z","tz":2,"tags":{"climbing":"yes","information":"map","map_size":"site"}},"3889095773":{"location":[38.0337546,23.6424911],"ts":"2025-02-21T00:59:07Z","tz":2,"tags":{"alt_name":"Λατσουδόρεμα","alt_name:en":"Latsoudorema","climbing":"crag","climbing:bolted":"yes","climbing:grade:french:max":"8a","climbing:grade:french:min":"5a","climbing:rock":"limestone","climbing:sport":"yes","fee":"no","name":"Ιερά Οδός","name:el":"Ιερά Οδός","name:en":"Iera Odos","note":"should be broken down into several cliffs, which I cannot locate from aerial. Survey required.","outdoor":"yes","sport":"climbing","url":"http://www.vrahomania.gr/ieraodos/"}},"4143467169":{"location":[38.0752809,23.8824135],"ts":"2016-05-29T21:44:16Z","tz":2,"tags":{"access":"yes","climbing:bolted":"yes","climbing:grade:french:max":"7a","climbing:grade:french:min":"5a","climbing:length:max":"30","climbing:length:min":"15","climbing:rock":"marble","climbing:sport":"33","ele":"880","fee":"no","indoor":"no","name":"Συμπληγάδες","name:el":"Συμπληγάδες","name:en":"Sympligades","source":"www.miliascamps.gr/","sport":"climbing","url":"http://www.miliascamps.gr/index.php/el/mnu-climbingroutes-gr/21-climbingroutes/82-artclimbing-penteli-gr.html"}},"4143547324":{"location":[38.0738766,23.8802094],"ts":"2016-05-29T21:44:15Z","tz":2,"tags":{"access":"yes","climbing:bolted":"yes","climbing:rock":"marble","climbing:sport":"yes","climbing:trad":"yes","fee":"no","indoor":"no","name":"Ποσειδώνας","name:el":"Ποσειδώνας","name:en":"Poseidonas","sport":"climbing"}},"4425687887":{"location":[38.0128514,23.727685],"ts":"2023-10-19T06:33:43Z","tz":2,"tags":{"addr:city":"Αθήνα","addr:housenumber":"3","addr:street":"Σοφιανοπούλου","climbing:boulder":"yes","contact:phone":"+30 2102011344","fee":"yes","indoor":"yes","leisure":"sports_centre","name":"Redpoint","opening_hours":"Mo-Fr 17:30-22:00","sport":"climbing","website":"https://www.redpoint.com.gr/"}},"7444996504":{"location":[38.0335275,23.6428708],"ts":"2024-02-08T10:43:34Z","tz":2,"tags":{"climbing":"area","leisure":"sports_centre","name":"Αναρριχητικό Πεδίο Ζαστάνι","sport":"climbing"}},"8546158819":{"location":[38.0707743,23.8772408],"ts":"2024-12-23T09:22:50Z","tz":2,"tags":{"climbing":"crag","natural":"cliff","sport":"climbing"}},"11341215518":{"location":[38.0167617,23.7630663],"ts":"2023-11-11T13:07:48Z","tz":2,"tags":{"name":"Boulder bash","sport":"climbing"}}}