{"45822205":{"location":[37.885237,23.7604866],"ts":"2020-09-15T14:12:41Z","tz":2,"tags":{"artificial":"yes","leisure":"common","outdoor":"yes","sport":"climbing"}},"97545916":{"location":[37.8852076,23.7604932],"ts":"2020-09-15T14:12:41Z","tz":2,"tags":{"artificial":"yes","building":"yes","outdoor":"yes","sport":"climbing"}},"293964944":{"location":[37.9508402,23.7918166],"ts":"2025-03-10T19:10:09Z","tz":2,"tags":{"climbing:rock":"limestone","climbing:sport":"yes","climbing:trad":"yes","fee":"no","name":"Καράβι","name:en":"Karávin","natural":"cliff","note":"Αρχαίο Λατομείο","sport":"climbing","website":"http://www.vrahomania.gr/%CE%BA%CE%B1%CF%81%CE%AC%CE%B2%CE%B9-%CF%85%CE%BC%CE%B7%CF%84%CF%84%CE%BF%CF%8D/"}},"416466532":{"location":[37.9252405,23.7985314],"ts":"2019-07-29T01:49:10Z","tz":2,"tags":{"climbing:bolted":"yes","climbing:grade:french:min":"5b","climbing:orientation":"E","climbing:rock":"limestone","climbing:sport":"yes","climbing:trad":"yes","fee":"no","indoor":"no","name":"Σέσι","name:de":"Sesi Klettergebiet","name:el":"Σέσι","name:en":"Sesi","natural":"cliff","sport":"climbing","url":"http://www.vrahomania.gr/sesi/"}},"416466533":{"location":[37.9241212,23.8001059],"ts":"2016-05-07T19:52:12Z","tz":2,"tags":{"climbing:bolted":"yes","climbing:orientation":"NW","climbing:rock":"limestone","climbing:sport":"yes","name":"Πάνω Σέσι","name:el":"Πάνω Σέσι","name:en":"Pano Sesi","natural":"cliff","sport":"climbing"}},"416466534":{"location":[37.9226737,23.8096117],"ts":"2016-05-07T19:52:13Z","tz":2,"tags":{"climbing:orientation":"N","climbing:rock":"limestone","climbing:trad":"yes","name":"Προφήτης Ηλίας","natural":"cliff","source":"bing","sport":"climbing","url":"http://www.routes.gr/?Page=el/Climbing/Information/Ymittos-ProfitisIlias"}},"583539969":{"location":[37.9398849,23.7777419],"ts":"2025-02-21T01:00:26Z","tz":2,"tags":{"climbing:bolted":"yes","climbing:grade:french:max":"6a+","climbing:grade:french:min":"4","climbing:length:max":"12","climbing:sport":"yes","climbing:toprope":"yes","fee":"no","indoor":"no","name":"Μακρύς Τοίχος","name:el":"Μακρύς Τοίχος","name:en":"Makris Tihos","natural":"cliff","sport":"climbing"}},"583539970":{"location":[37.9325135,23.7745876],"ts":"2025-02-21T01:00:26Z","tz":2,"tags":{"climbing:grade:french:max":"8a","climbing:grade:french:min":"4c","climbing:length:max":"50","climbing:multipitch":"yes","climbing:sport":"yes","climbing:trad":"yes","name":"Τρύπιος Βράχος","name:el":"Τρύπιος Βράχος","name:en":"Trypios Vrahos","natural":"cliff","sport":"climbing"}},"583539971":{"location":[37.9332215,23.7736357],"ts":"2025-02-21T01:00:26Z","tz":2,"tags":{"climbing:grade:french:max":"7a","climbing:grade:french:min":"5a","climbing:length:max":"15","climbing:sport":"yes","climbing:toprope":"yes","name":"Κόκκινα","name:el":"Κόκκινα","name:en":"Kokkina","natural":"cliff","sport":"climbing"}},"583539973":{"location":[37.9335599,23.7746601],"ts":"2025-02-21T01:00:26Z","tz":2,"tags":{"climbing:grade:french:max":"6c+","climbing:grade:french:min":"5a","climbing:length:max":"15","climbing:sport":"yes","name":"Πράσινα","name:el":"Πράσινα","name:en":"Prasina","natural":"cliff","sport":"climbing"}},"629402810":{"location":[37.9409127,23.7785645],"ts":"2025-02-21T01:00:31Z","tz":2,"tags":{"climbing:bolted":"no","climbing:grade:french:max":"6b","climbing:grade:french:min":"4","climbing:length":"8","climbing:toprope":"yes","fee":"no","indoor":"no","name":"Τοίχος του Μάκη","name:el":"Τοίχος του Μάκη","name:en":"Tihos Maki","natural":"cliff","sport":"climbing"}},"629402811":{"location":[37.9315957,23.7696599],"ts":"2025-02-21T01:00:31Z","tz":2,"tags":{"climbing:grade:french:max":"6b+","climbing:grade:french:min":"4","climbing:length:max":"13","climbing:sport":"yes","climbing:toprope":"yes","name":"Γούβα","name:el":"Γούβα","name:en":"Gouva","natural":"cliff","sport":"climbing"}},"1058203433":{"location":[37.9780833,23.617607],"ts":"2024-12-23T11:17:24Z","tz":2,"tags":{"climbing":"crag","climbing:grade:french:max":"7a","climbing:grade:french:min":"5b","climbing:length:max":"28","climbing:sport":"42","fee":"no","name":"Κοκκινόβραχος","name:el":"Κοκκινόβραχος","name:en":"Kokkinovrachos","natural":"cliff","outdoor":"yes","sport":"climbing","url":"https://routes.gr/Community/viewtopic.php?t=3082"}},"4102307387":{"location":[37.9654009,23.7174474],"ts":"2017-11-30T11:40:21Z","tz":2,"tags":{"access":"yes","climbing:bolted":"yes","climbing:boulder":"yes","climbing:sport":"yes","climbing:toprope":"yes","climbing:trad":"yes","fee":"no","indoor":"no","leisure":"yes","name":"Φιλοπάππου","name:el":"Φιλοπάππου","name:en":"Filopappou","sport":"climbing","url":"http://www.climbingaway.fr/en/climbing-areas/filopappou-ph-lopappo"}},"10789943271":{"location":[37.9825128,23.7161147],"ts":"2024-01-27T13:41:55Z","tz":2,"tags":{"climbing:boulder":"yes","fee":"yes","leisure":"sports_centre","name":"Mamouna Climbing Spot","sport":"climbing","website":"https://www.facebook.com/mamounaclimbingspot/"}},"11341255513":{"location":[37.9699694,23.7160789],"ts":"2023-11-11T13:08:08Z","tz":2,"tags":{"name":"The slab among the pines (Bouldering)","sport":"climbing"}},"11819826356":{"location":[37.9238125,23.7483145],"ts":"2024-04-15T18:52:29Z","tz":2,"tags":{"addr:city":"Ηλιούπολη","addr:housenumber":"34","addr:postcode":"16341","addr:street":"Εθνάρχου Μακαρίου","amenity":"restaurant","climbing":"boulder","fee":"yes","leisure":"sports_centre","name":"Νο Biggie","phone":"+30 2109947388","sport":"climbing","website":"https://nobiggie.gr/"}},"12018345023":{"location":[37.9329085,23.6362055],"ts":"2024-06-28T18:30:36Z","tz":2,"tags":{"check_date":"2024-06-28","leisure":"sports_centre","sport":"climbing"}}}