{"17530496":{"location":[52.3851475,9.7315467],"ts":"2024-04-29T16:40:11Z","tz":1,"tags":{"addr:city":"Hannover","addr:country":"DE","addr:housenumber":"15","addr:postcode":"30167","addr:street":"Gertrud-Knebusch-Straße","addr:unit":"2","climbing:boulder":"yes","climbing:toprope":"no","email":"info@boulderhalle-beta.de","indoor":"yes","leisure":"sports_centre","name":"Beta Boulderhalle","opening_hours":"Mo-Fr 10:00-23:00; Sa,Su 09:00-22:00","operator":"Gleis7 GmbH","phone":"+49 511 49533338","sport":"climbing","start_date":"2019","website":"https://boulderhalle-beta.de/"}},"33906514":{"location":[52.3130565,9.8012406],"ts":"2009-05-02T06:32:17Z","tz":1,"tags":{"area":"no","climbing":"no","natural":"cliff"}},"33906515":{"location":[52.3130382,9.801163],"ts":"2012-08-04T13:24:08Z","tz":1,"tags":{"area":"no","climbing":"no","natural":"cliff","source":"HiRes aerial imagery 2007"}},"35858879":{"location":[52.3881594,9.7540409],"ts":"2025-04-11T13:49:12Z","tz":1,"tags":{"description":"DerSeilgarten Hannover ist 2003 aus einer Projektinitiative der hannoverschen Jugendarbeit entstanden. Bis 2017 war der Jugendverband der “Falken Hannover” der verantwortliche Träger, 2018 hat der KEJ e.V. – Kompetenzzentrum für Erlebnsipädagogik und Ju","email":"info@kej-hannover.de","landuse":"recreation_ground","leisure":"pitch","lit":"no","name":"Seilgarten Hannover","sport":"climbing","website":"https://seilgarten-hannover.de/"}},"98710895":{"location":[52.3289034,9.7839884],"ts":"2023-09-11T22:33:25Z","tz":1,"tags":{"addr:city":"Hannover","addr:country":"DE","addr:postcode":"30519","addr:street":"Am Mittelfelde","building":"yes","leisure":"sports_centre","name":"Escaladrome","sport":"climbing","url":"http://www.escaladrome.de","wheelchair":"limited","wheelchair:description":"Zugang über Nebentür barrierefrei. Extra Toilette im Treppenhaus geräumig, aber keine Rolli-Ausstattung.","wikidata":"Q114050736"}},"490586129":{"location":[52.4216976,9.7255037],"ts":"2023-11-07T13:52:58Z","tz":1,"tags":{"addr:city":"Hannover","addr:country":"DE","addr:housenumber":"21","addr:postcode":"30179","addr:street":"Reinhold-Schleese-Straße","building":"yes","climbing:boulder":"yes","climbing:length:max":"16","climbing:toprope":"yes","email":"info@kletterbar-hannover.de","fee":"yes","indoor":"yes","leisure":"sports_centre","name":"KletterBar","opening_hours":"Mo-Fr 10:00-23:00; Sa,Su 09:00-22:00","outdoor":"yes","phone":"+49 511 47313013","sport":"climbing","website":"https://www.kletterbar-hannover.de/","wikidata":"Q114052685"}},"519930632":{"location":[52.2695185,9.7713268],"ts":"2010-04-18T05:15:49Z","tz":1,"tags":{"sport":"climbing"}},"558509797":{"location":[52.4323092,9.7567898],"ts":"2020-09-16T21:17:39Z","tz":1,"tags":{"description":"Nicht nur für Kinder!","height":"2.5","name":"Boulderblock","sport":"climbing"}},"558814860":{"location":[52.3519917,9.7501618],"ts":"2020-08-27T12:52:25Z","tz":1,"tags":{"building":"yes","description":"Kleine Halle mit 17 Routen und Boulderbereich. Nur im Rahmen von Kursen zu besuchen, z.B. über DAV-Sektion Hannover.","height":"7","sport":"climbing"}},"689363023":{"location":[52.3851119,9.7311871],"ts":"2024-04-28T09:07:13Z","tz":1,"tags":{"addr:unit":"5","indoor":"yes","leisure":"sports_hall","name":"Beta 2","sport":"climbing","start_date":"2022"}},"689363026":{"location":[52.3852099,9.731985],"ts":"2024-04-28T09:07:13Z","tz":1,"tags":{"addr:unit":"2","indoor":"yes","leisure":"sports_hall","name":"Beta 1","sport":"climbing","start_date":"2019"}},"797496140":{"location":[52.3420948,9.8353626],"ts":"2021-04-27T08:21:46Z","tz":1,"tags":{"architect":"Katrin Schuh","height":"20","name":"Kronsberg life tower","operator":"kronsberg life tower e.V.","playground":"climbingframe","playground:theme":"mikado","sport":"climbing","start_date":"2005","surface":"grass","website":"https://kronsberg-life.de/","wheelchair":"no","wikidata":"Q30300060","wikipedia":"de:Kronsberg life tower"}},"1073498616":{"location":[52.4218147,9.7254886],"ts":"2022-06-26T07:49:45Z","tz":1,"tags":{"leisure":"sports_centre","name":"KletterBar","sport":"climbing"}},"4825241598":{"location":[52.3388018,9.7738309],"ts":"2023-09-11T22:33:26Z","tz":1,"tags":{"addr:city":"Hannover","addr:housenumber":"28","addr:postcode":"30519","addr:street":"Peiner Straße","contact:website":"https://griffreich.de","email":"Ich-will-klettern@GriffReich.de","internet_access":"wlan","internet_access:fee":"no","leisure":"sports_centre","name":"GriffReich - DAV Kletterzentrum Hannover","opening_hours":"Mo 15:00-22:30; Tu 10:00-22:30; We 15:00-22:30; Th 10:00-22:30; Fr 15:00-22:30; Sa 10:00-22:30; Su 10:00-20:00","payment:cash":"yes","payment:credit_cards":"no","payment:maestro":"yes","phone":"+4951185061200","sport":"climbing","website":"https://griffreich.de","wikidata":"Q114053287"}},"7625833273":{"location":[52.3792539,9.7129977],"ts":"2020-06-16T12:07:11Z","tz":1,"tags":{"climbing:boulder":"no","climbing:deepwater":"no","climbing:ice":"no","climbing:mixed":"no","climbing:multipitch":"no","climbing:sport":"yes","climbing:toprope":"yes","climbing:trad":"no","leisure":"sports_centre","name":"KletterCAMPUS","sport":"climbing"}}}