{"171654751":{"lat":50.5664412,"lon":9.7017415,"ts":"2024-09-06T10:24:02Z","tz":1,"tags":{"addr:city":"Petersberg","addr:country":"DE","addr:housenumber":"72","addr:postcode":"36100","addr:street":"Goerdelerstraße","building":"yes","climbing:boulder":"limited","climbing:speed":"no","climbing:sport":"yes","climbing:toprope":"yes","contact:email":"info-kletterzentrum@dav-fulda.de","contact:phone":"+49 661 96256885","fee":"yes","internet_access":"wlan","internet_access:fee":"no","leisure":"sports_centre","name":"DAV Kletterzentrum Fulda","opening_hours":"Mo-Fr 16:00-22:00; Sa-Su 10:00-20:00","service:climbing_belay_device:rental":"yes","service:climbing_harness:rental":"yes","service:climbing_rope:rental":"yes","service:climbing_shoes:rental":"yes","service:climbing_shoes:rental:fee":"yes","sport":"climbing","website":"https://www.kletterzentrum-fulda.de/","wheelchair":"no"}},"316063087":{"lat":50.5380131,"lon":9.6972556,"ts":"2024-07-19T20:50:43Z","tz":1,"tags":{"addr:city":"Fulda","addr:housenumber":"40","addr:postcode":"36043","addr:street":"Kreuzbergstraße","building":"yes","climbing:boulder":"yes","climbing:speed":"no","climbing:sport":"no","climbing:toprope":"no","contact:email":"info@block-barock.de","contact:facebook":"boulderhallefulda","contact:instagram":"block.barock","contact:phone":"+49 661 49988419","contact:website":"https://block-barock.de","fee":"yes","internet_access":"wlan","internet_access:fee":"no","leisure":"sports_centre","name":"Block Barock","opening_hours":"Mo-Su,PH 10:00-23:00","service:climbing_shoes:rental":"yes","service:climbing_shoes:rental:fee":"yes","sport":"climbing","wheelchair":"limited","wheelchair:description":"Eingangsbereich und Tresen erreichbar, weiter innen sind aber Treppen."}}}