{"455141433":{"location":[48.0963901,9.8127094],"ts":"2021-04-24T17:05:32Z","tz":1,"tags":{"building":"yes","height":"13","name":"Kletterturm","sport":"climbing"}},"947614851":{"location":[48.0912313,9.799582],"ts":"2021-07-27T08:20:11Z","tz":1,"tags":{"addr:city":"Biberach an der Riß","addr:housenumber":"17","addr:postcode":"88400","addr:street":"Hans-Liebherr-Straße","building":"yes","email":"info@sparkassen-dome-biberach.de","fee":"yes","fixme":"Genau Lage anpassen, sobald Satbild verfügbar oder manuell mit GPS erfaßt.","height":"0","leisure":"sports_centre","name":"Sparkassen Dome Biberach","opening_hours":"Mo-Fr 16:00-22:30; Sa 10:00-22:30, Su 10:00-21:00; PH 10:00-21:00","operator":"Sektion Biberach des Deutschen Alpenvereins (DAV) e.V.","phone":"+49 7351 3207573","shoes:rental":"yes","sport":"climbing","start_date":"2021-06-13","website":"https://sparkassen-dome-biberach.de/"}},"968112297":{"location":[48.1011784,9.7717581],"ts":"2022-03-09T19:40:14Z","tz":1,"tags":{"artwork_type":"graffiti","barrier":"wall","height":"4","leisure":"sports_centre","sport":"climbing","tourism":"artwork"}},"5165681896":{"location":[48.2118803,9.8406601],"ts":"2017-10-13T16:07:31Z","tz":1,"tags":{"sport":"climbing"}}}