{"307345453":{"location":[47.6522871,9.4964326],"ts":"2025-01-19T22:05:49Z","tz":1,"tags":{"access":"yes","addr:city":"Friedrichshafen","addr:country":"DE","addr:housenumber":"21/1","addr:postcode":"88046","addr:street":"Vogelsangstraße","building":"sports_centre","climbing:boulder":"yes","climbing:grade:french:max":"10","climbing:grade:french:min":"3","climbing:grade:uiaa:max":"10","climbing:grade:uiaa:min":"3","climbing:length":"16","climbing:length:max":"16","climbing:routes":"65","climbing:sport":"yes","climbing:toprope":"yes","fee":"yes","indoor":"yes","leisure":"sports_centre","name":"Kletterhalle DAV Friedrichshafen","opening_hours":"Mo,Th19:30-22:00; We,Fr 19:00-22:00; Sep-Apr: Su 14:00-18:00; PH off","service:climbing_belay_device:rental":"yes","service:climbing_harness:rental":"yes","service:climbing_rope:rental":"yes","service:climbing_shoes:rental":"yes","service:climbing_shoes:rental:fee":"no","shower":"no","sport":"climbing","website":"https://www.dav-fn.de/Kletterzentrum"}},"1203963115":{"location":[47.6787892,9.8307573],"ts":"2025-05-10T07:55:23Z","tz":1,"tags":{"area":"yes","leisure":"pitch","name":"DAV-Kletterturm","sport":"climbing"}},"6030291945":{"location":[47.5919309,9.5951622],"ts":"2021-03-29T17:34:21Z","tz":1,"tags":{"leisure":"sports_hall","name":"Kressbronner Kletterhalle","sport":"climbing","website":"https://www.tv-kressbronn.de/abteilungen/klettern/"}},"6401972286":{"location":[47.6137445,9.714936],"ts":"2025-01-14T20:19:08Z","tz":1,"tags":{"addr:city":"Achberg","addr:country":"DE","addr:housenumber":"11","addr:postcode":"88147","addr:street":"Schulstraße","addr:suburb":"Esseratsweiler","contact:email":"info@adfunture.de","contact:phone":"+49 8382 74921","leisure":"sports_centre","name":"Achberger Nordwand","opening_hours":"Tu-Fr 17:00-22:00","sport":"climbing","website":"https://adfunture.de/kletterhalle"}},"6596101940":{"location":[47.7205695,9.6735692],"ts":"2019-07-08T10:44:32Z","tz":1,"tags":{"access":"private","sport":"climbing"}},"6596101941":{"location":[47.719079,9.6745898],"ts":"2023-12-22T16:23:42Z","tz":1,"tags":{"access":"private","leisure":"pitch","sport":"climbing"}},"8930754494":{"location":[47.6520878,9.5032046],"ts":"2025-01-19T22:02:40Z","tz":1,"tags":{"charge":"12.90 EUR","climbing":"boulder","climbing:boulder":"yes","climbing:speed":"no","climbing:sport":"no","climbing:toprope":"no","contact:facebook":"https://www.facebook.com/BouldernBregenz/","contact:instagram":"https://www.instagram.com/greifbar_friedrichshafen/","contact:website":"https://greifbar-bouldern.de/","description":"Boulderhalle","email":"erreichbar@greifbar-bouldern.de","fee":"yes","indoor":"yes","leisure":"sports_centre","name":"Greifbar","opening_hours":"Mo-Fr 12:00-22:00; Sa,Su,PH 10:00-20:30","phone":"+49 7541 9505828","service:climbing_shoes:rental":"yes","service:climbing_shoes:rental:fee":"yes","sport":"climbing"}},"10133370637":{"location":[47.7083197,9.7470337],"ts":"2024-08-01T23:26:55Z","tz":1,"tags":{"addr:city":"Amtzell","addr:country":"DE","addr:housenumber":"21a","addr:postcode":"88279","addr:street":"Waldburger Straße","contact:email":"info@kletterhalle-amtzell.de","contact:phone":"+49 7520 5282","leisure":"sports_centre","name":"Kletterhalle Amtzell","opening_hours":"Tu-Th 17:30-22:00; Fr 17:30-22:00","sport":"climbing","website":"http://www.kletterhalle-amtzell.de/"}},"10698077081":{"location":[47.6798044,9.6409279],"ts":"2023-02-27T21:23:32Z","tz":1,"tags":{"leisure":"sports_centre","operator":"VAUDE","sport":"climbing"}}}