{"9507742":{"lat":47.3730102,"lon":9.7771247,"ts":"2019-04-22T08:24:40Z","tz":1,"tags":{"leisure":"pitch","name":"Ebnit","sport":"climbing","type":"site"}},"11889110":{"lat":47.4884913,"lon":9.7560422,"ts":"2024-08-29T20:09:47Z","tz":1,"tags":{"leisure":"pitch","name":"Känzele","site":"climbing_area","source":"survey 11.2020 and Vogis 2018","sport":"climbing","type":"site"}},"12044230":{"lat":47.2974322,"lon":9.6593843,"ts":"2021-03-28T12:49:17Z","tz":1,"tags":{"alt_name":"Ganta","climbing":"area","leisure":"pitch","name":"Röthis","site":"climbing_area","source":"survey 03.2021 und Vogis 2018","sport":"climbing","type":"site"}},"17569362":{"lat":47.3581501,"lon":9.7322646,"ts":"2024-05-07T11:56:41Z","tz":1,"tags":{"climbing":"area","climbing:sport":"yes","name":"Löwenzähne","site":"climbing","sport":"climbing","type":"site","wikidata":"Q125822895"}},"17569375":{"lat":47.3539712,"lon":9.7273451,"ts":"2024-05-07T12:03:43Z","tz":1,"tags":{"climbing":"crag","climbing:rock":"limestone","climbing:sport":"yes","name":"Schöner Mann","site":"climbing","sport":"climbing","type":"site","url":"https://www.thecrag.com/en/climbing/austria/area/3974029677","wikidata":"Q125822944"}},"119556839":{"lat":47.3316364,"lon":9.6113673,"ts":"2024-05-07T11:50:49Z","tz":1,"tags":{"climbing:bolted":"yes","climbing:grade:uiaa:max":"VIII+","climbing:grade:uiaa:min":"II","climbing:length:max":"30","climbing:length:min":"12","climbing:multipitch":"no","climbing:orientation":"S","climbing:rock":"limestone","climbing:sport":"90","climbing:toprope":"yes","fee":"no","name":"Klettergarten Koblach","natural":"cliff","old_name":"Militärklettergarten Winkla","opening_hours":"24/7","operator":"Österreichischer Alpenverein - Sektion Vorarlberg - Bezirk Götzis","operator:wikidata":"Q63171150","sport":"climbing","tourism":"attraction","url":"http://www.tourenspuren.at/klettergarten-koblach/"}},"220154669":{"lat":47.3581937,"lon":9.7340118,"ts":"2023-07-19T09:57:09Z","tz":1,"tags":{"natural":"bare_rock","sport":"climbing"}},"220154671":{"lat":47.3580628,"lon":9.7308006,"ts":"2017-07-20T06:03:32Z","tz":1,"tags":{"name":"Löwenzähne","natural":"bare_rock","sport":"climbing"}},"222117099":{"lat":47.3726738,"lon":9.7768781,"ts":"2024-06-01T10:53:09Z","tz":1,"tags":{"climbing:bolted":"yes","climbing:grade:uiaa:max":"9-","climbing:grade:uiaa:min":"6+","climbing:sport":"yes","name":"Block","natural":"cliff","sport":"climbing"}},"222891357":{"lat":47.4209724,"lon":9.7477596,"ts":"2020-08-07T18:19:01Z","tz":1,"tags":{"addr:city":"Dornbirn","addr:country":"AT","addr:housenumber":"42","addr:postcode":"6850","addr:street":"Eisengasse","building":"yes","climbing":"boulder","contact:email":"office@steinblock.at","contact:phone":"+43 5572 392564","leisure":"sports_centre","name":"Steinblock Dornbirn (Boulderhalle)","opening_hours":"Mo-Fr 14:00-22:30; Sa-Su 10:00-22:30","source":"geoimage.at","sport":"climbing","website":"https://steinblock.at/dornbirn/"}},"298438180":{"lat":47.3437661,"lon":9.6098402,"ts":"2024-03-04T10:50:56Z","tz":1,"tags":{"climbing:bolted":"yes","climbing:grade:uiaa:max":"VI+","climbing:grade:uiaa:min":"III","climbing:length:max":"30","climbing:length:min":"12","climbing:multipitch":"no","climbing:orientation":"NW","climbing:rock":"limestone","climbing:sport":"yes","climbing:toprope":"no","fee":"no","name":"Klettergarten Pocksberg","natural":"cliff","opening_hours":"24/7","sport":"climbing","tourism":"attraction","url":"http://www.tourenspuren.at/pocksberg"}},"308876564":{"lat":47.358007,"lon":9.7316822,"ts":"2022-01-23T21:10:47Z","tz":1,"tags":{"natural":"bare_rock","sport":"climbing"}},"333427468":{"lat":47.3715938,"lon":9.7712846,"ts":"2024-06-26T11:07:34Z","tz":1,"tags":{"climbing:bolted":"yes","climbing:sport":"yes","name":"Wassermannweg","natural":"cliff","sport":"climbing"}},"363473017":{"lat":47.3581832,"lon":9.7332745,"ts":"2023-07-19T09:57:09Z","tz":1,"tags":{"natural":"bare_rock","sport":"climbing"}},"509446831":{"lat":47.341435,"lon":9.6837961,"ts":"2019-05-26T20:45:58Z","tz":1,"tags":{"highway":"via_ferrata","name":"Klettersteig Via Kessi","sport":"climbing","via_ferrata_scale":"4"}},"519434268":{"lat":47.2970622,"lon":9.6591237,"ts":"2022-11-06T16:22:10Z","tz":1,"tags":{"alt_name":"Ganta: Rechter Wand","climbing:boulder":"yes","climbing:sport":"yes","informal":"yes","name":"Röthis: Rechte Wand","natural":"cliff","source":"survey 04.2021 und Vogis 2020","sport":"climbing"}},"680742713":{"lat":47.4878018,"lon":9.7506569,"ts":"2021-04-25T18:19:16Z","tz":1,"tags":{"climbing:bolted":"yes","climbing:sport":"yes","name":"Wanzenburgboulder","natural":"rock","source":"survey 05.2020 and heightmodel 50cm","sport":"climbing"}},"681460508":{"lat":47.3252132,"lon":9.6248874,"ts":"2022-11-06T16:23:49Z","tz":1,"tags":{"climbing:quality":"solid","climbing:toprope":"no","fee":"no","fixme":"verify exact position","name":"Schlosswald","natural":"cliff","outdoor":"yes","sport":"climbing"}},"685188147":{"lat":47.3734376,"lon":9.7772968,"ts":"2024-06-02T06:55:50Z","tz":1,"tags":{"climbing:bolted":"yes","climbing:grade:uiaa:max":"9+","climbing:grade:uiaa:min":"6-","climbing:sport":"yes","name":"Kunstwand","natural":"cliff","sport":"climbing"}},"692640310":{"lat":47.3421073,"lon":9.684544,"ts":"2023-10-04T07:52:18Z","tz":1,"tags":{"highway":"via_ferrata","name":"Klettersteig Via Kapf","sport":"climbing","via_ferrata_scale":"4"}},"783241954":{"lat":47.4895142,"lon":9.7479985,"ts":"2022-11-06T16:27:11Z","tz":1,"tags":{"climbing:boulder":"yes","lit":"no","name":"Känzele: Quergang","natural":"cliff","source":"survey 03.2020 and Vogis 2018","sport":"climbing"}},"793144091":{"lat":47.3249684,"lon":9.6233798,"ts":"2024-07-26T19:08:15Z","tz":1,"tags":{"climbing:bolted":"yes","climbing:grade:uiaa:max":"8","climbing:grade:uiaa:min":"5-","climbing:sport":"yes","name":"Schlosswald","natural":"cliff","source":"survey 07.2024 and Geoimage.at 2023","sport":"climbing"}},"806912095":{"lat":47.4878342,"lon":9.7522095,"ts":"2022-11-06T16:27:11Z","tz":1,"tags":{"climbing:bolted":"yes","climbing:rock":"conglomerate","climbing:sport":"yes","name":"Känzele: Timeout","natural":"cliff","source":"survey 05.2020 and heightmodel 50cm","sport":"climbing"}},"806912096":{"lat":47.487982,"lon":9.7516063,"ts":"2022-11-06T16:27:11Z","tz":1,"tags":{"climbing":"crag","climbing:bolted":"yes","climbing:grade:uiaa:max":"7","climbing:grade:uiaa:min":"4","climbing:length":"30","climbing:rock":"conglomerate","climbing:sport":"yes","name":"Känzele: Sophia","natural":"cliff","source":"survey 05.2020 and heightmodel 50cm","sport":"climbing"}},"806912097":{"lat":47.487915,"lon":9.7519209,"ts":"2022-11-06T16:27:11Z","tz":1,"tags":{"climbing:bolted":"yes","climbing:grade:uiaa:max":"8+","climbing:grade:uiaa:min":"4","climbing:rock":"conglomerate","climbing:sport":"yes","name":"Känzele: Just in Time","natural":"cliff","source":"survey 05.2020 and heightmodel 50cm","sport":"climbing"}},"806912098":{"lat":47.488059,"lon":9.7511235,"ts":"2022-06-28T07:52:51Z","tz":1,"tags":{"climbing":"crag","climbing:bolted":"yes","climbing:rock":"conglomerate","climbing:sport":"yes","name":"Känzele: Via Johanna","natural":"cliff","source":"survey 05.2020 and heightmodel 50cm","sport":"climbing"}},"806912099":{"lat":47.4880164,"lon":9.7513911,"ts":"2022-11-06T16:27:11Z","tz":1,"tags":{"climbing":"crag","climbing:bolted":"yes","climbing:grade:uiaa:max":"10-","climbing:grade:uiaa:min":"8-","climbing:rock":"conglomerate","climbing:sport":"yes","name":"Känzele: Kipit","natural":"cliff","source":"survey 05.2020 and heightmodel 50cm","sport":"climbing"}},"807585960":{"lat":47.4880409,"lon":9.7634831,"ts":"2022-11-06T16:27:11Z","tz":1,"tags":{"climbing:boulder":"yes","name":"Känzele: Felsental: Stille","natural":"cliff","source":"survey 08.2020 and heightmodel 50cm","sport":"climbing"}},"807586154":{"lat":47.4883422,"lon":9.7643438,"ts":"2022-11-06T16:27:11Z","tz":1,"tags":{"climbing:bolted":"yes","climbing:grade:uiaa:max":"5+","climbing:grade:uiaa:min":"4","climbing:length":"22","climbing:sport":"yes","height":"25","name":"Känzele: Felsental: Rechnter Bereich","natural":"cliff","source":"survey 08.2020 and heightmodel 50cm","sport":"climbing"}},"807586350":{"lat":47.487811,"lon":9.7627145,"ts":"2022-11-06T16:27:11Z","tz":1,"tags":{"climbing:bolted":"yes","climbing:sport":"yes","height":"50 m","name":"Känzele: Lotus","natural":"cliff","source":"survey 08.2020 and heightmodel 50cm","sport":"climbing"}},"809923827":{"lat":47.4875544,"lon":9.762257,"ts":"2022-11-06T16:27:11Z","tz":1,"tags":{"alt_name":"Känzele: Kanzel","climbing:bolted":"yes","climbing:grade:uiaa:max":"9-","climbing:grade:uiaa:min":"8-","climbing:length":"30","climbing:sport":"yes","height":"50","name":"Känzele: Philipp-Pfeiler","natural":"cliff","source":"survey 08.2020 and heightmodel 50cm","sport":"climbing"}},"810021417":{"lat":47.4873683,"lon":9.7516286,"ts":"2022-11-06T16:27:11Z","tz":1,"tags":{"climbing:bolted":"yes","climbing:grade:uiaa:max":"8+","climbing:grade:uiaa:min":"8","climbing:length":"10","climbing:sport":"yes","height":"10","name":"Känzele: Gichtfinger","natural":"cliff","source":"survey 12.2020 and heightmodel 50cm","sport":"climbing"}},"810021826":{"lat":47.487062,"lon":9.7542258,"ts":"2021-04-25T18:19:16Z","tz":1,"tags":{"climbing:boulder":"yes","informal":"yes","source":"survey 05.2020 and heightmodel 50cm","sport":"climbing"}},"835748366":{"lat":47.2977164,"lon":9.6595337,"ts":"2022-11-06T16:23:49Z","tz":1,"tags":{"alt_name":"Ganta: Hauptwand","climbing:boulder":"yes","climbing:grade:uiaa:max":"8","climbing:grade:uiaa:min":"4+","climbing:sport":"yes","name":"Röthis: Hauptwand","natural":"cliff","source":"survey 03.2021 und Vogis 2018","sport":"climbing"}},"846676639":{"lat":47.4003209,"lon":9.7539918,"ts":"2024-12-24T12:06:59Z","tz":1,"tags":{"building":"no","leisure":"sports_centre","source":"survey 09.2020 and Vogis 2018","sport":"climbing"}},"886528681":{"lat":47.3518377,"lon":9.7488005,"ts":"2022-12-06T13:52:47Z","tz":1,"tags":{"climbing:bolted":"yes","climbing:boulder":"yes","name":"Große Klara","natural":"cliff","source":"Vogis 2018","sport":"climbing"}},"892439300":{"lat":47.4889945,"lon":9.7486907,"ts":"2022-11-06T16:27:11Z","tz":1,"tags":{"climbing":"crag","climbing:bolted":"yes","climbing:grade:uiaa:max":"7+","climbing:grade:uiaa:min":"6+","climbing:sport":"yes","fixme":"exact location, grades","name":"Känzele: Wasserfall","natural":"cliff","sport":"climbing"}},"892442166":{"lat":47.4898657,"lon":9.7476857,"ts":"2022-11-06T16:27:11Z","tz":1,"tags":{"climbing:boulder":"yes","name":"Känzele: Burg","natural":"cliff","source":"Vogis 2018","sport":"climbing"}},"892442914":{"lat":47.490605,"lon":9.7490989,"ts":"2022-11-05T22:45:53Z","tz":1,"tags":{"climbing:boulder":"yes","name":"Känzele: Parkplatz","natural":"cliff","source":"Vogis 2018","sport":"climbing"}},"896157395":{"lat":47.3232404,"lon":9.6460302,"ts":"2024-03-03T14:13:59Z","tz":1,"tags":{"check_date":"2024-03-03","climbing:bolted":"yes","climbing:grade:uiaa:max":"9+","climbing:grade:uiaa:min":"7","climbing:sport":"yes","fixme":"exact location","name":"Sankt Arbogast: Sektor 1","natural":"cliff","sport":"climbing"}},"1212963602":{"lat":47.3301635,"lon":9.6691302,"ts":"2024-07-31T20:32:10Z","tz":1,"tags":{"highway":"via_ferrata","name":"Klettersteig Via Örfla","sport":"climbing","via_ferrata_scale":"4"}},"1217865356":{"lat":47.3087816,"lon":9.5499801,"ts":"2024-05-06T12:15:38Z","tz":1,"tags":{"climbing":"crag","climbing:bolted":"yes","climbing:grade:french:max":"6c","climbing:grade:french:min":"4a","climbing:length:max":"30","climbing:length:min":"10","climbing:sport":"yes","name":"Hirschensprung","natural":"cliff","sport":"climbing","wikidata":"Q125805647"}},"1280498707":{"lat":47.3097383,"lon":9.5399744,"ts":"2024-05-07T08:47:31Z","tz":1,"tags":{"access":"permissive","climbing":"crag","climbing:rock":"limestone","climbing:sport":"yes","natural":"cliff","sport":"climbing","wikidata":"Q125821219"}},"1331685730":{"lat":47.4767151,"lon":9.760878,"ts":"2024-11-07T18:36:12Z","tz":1,"tags":{"access":"permissive","climbing:sport":"yes","contact:email":"kidsbuin@voki.at","contact:phone":"+43 676 9395152","contact:website":"https://www.vorarlberger-kinderdorf.at/subsite/kletterturm","fee":"no","leisure":"sports_centre","man_made":"tower","name":"Kletterturm Kids Buin","sport":"climbing","tower:type":"climbing"}},"1354744274":{"lat":47.3432543,"lon":9.6579019,"ts":"2025-01-27T20:59:00Z","tz":1,"tags":{"climbing:sport":"yes","leisure":"pitch","natural":"cliff","source":"survey 01.2025 and Vogis 2022","sport":"climbing"}},"1726890138":{"lat":47.4148186,"lon":9.7326291,"ts":"2024-09-20T16:02:47Z","tz":1,"tags":{"addr:city":"Dornbirn","addr:country":"AT","addr:housenumber":"10","addr:postcode":"6850","addr:street":"Bildgasse","check_date":"2023-01-03","climbing:boulder":"yes","climbing:sport":"yes","contact:email":"info@k1-dornbirn.at","contact:fax":"+43 5572 3948109","contact:phone":"+43 5572 394810","contact:website":"http://www.k1-dornbirn.at","int_name":"Climbing Hall K1","internet_access":"wlan","internet_access:fee":"no","leisure":"sports_centre","name":"K1","opening_hours":"Mo 10:00-22:00; Tu 12:00-22:00; We 10:00-22:00; Th-Fr 12:00-22:00; Sa-Su,PH 10:00-18:00","source":"survey","sport":"climbing","wheelchair":"yes"}},"4195068601":{"lat":47.3418909,"lon":9.6843708,"ts":"2016-06-01T11:14:49Z","tz":1,"tags":{"name":"Klettersteig Via Kapf","sport":"climbing"}},"6872680468":{"lat":47.4939938,"lon":9.7093679,"ts":"2021-07-19T10:33:46Z","tz":1,"tags":{"addr:city":"Bregenz","addr:country":"AT","addr:housenumber":"1","addr:postcode":"6900","addr:street":"Achsiedlungsstraße","climbing":"boulder","climbing:boulder":"yes","contact:email":"erreichbar@greifbar-bouldern.at","contact:facebook":"https://www.facebook.com/BouldernBregenz/","leisure":"sports_centre","name":"Greifbar","opening_hours":"Mo-Fr 12:00-22:00; Sa-Su 10:00-22:00","operator":"Greifbar Bouldersport GmbH","sport":"climbing","start_date":"01.11.2019","website":"https://greifbar-bouldern.at/"}},"10592193791":{"lat":47.3437062,"lon":9.6556529,"ts":"2023-09-14T13:46:23Z","tz":1,"tags":{"climbing:sport":"yes","leisure":"pitch","lit":"no","sport":"climbing"}}}