{"11859994":{"lat":47.1779218,"lon":9.7810028,"ts":"2020-11-19T19:51:25Z","tz":1,"tags":{"climbing":"area","leisure":"pitch","name":"Hängender Stein","site":"climbing_area","source":"survey 11.2020 and Vogis 2018","sport":"climbing","type":"site"}},"11860305":{"lat":47.2411296,"lon":9.658992,"ts":"2020-11-08T18:47:56Z","tz":1,"tags":{"climbing":"yes","name":"Spiegelstein","site":"climbing","source":"survey 11.2020 and Vogis 2018","type":"site"}},"11860609":{"lat":47.1471205,"lon":9.796826,"ts":"2020-11-08T19:15:47Z","tz":1,"tags":{"climbing":"area","leisure":"pitch","name":"Bürs","site":"climbing_area","source":"survey 11.2020 and Vogis 2018","sport":"climbing","type":"site"}},"12200948":{"lat":47.2521848,"lon":9.6201192,"ts":"2021-01-17T13:01:51Z","tz":1,"tags":{"climbing":"area","leisure":"pitch","name":"Klettergarten Amberg","site":"climbing_area","sport":"climbing","type":"site"}},"12577621":{"lat":47.2520513,"lon":9.5793118,"ts":"2021-04-13T19:00:29Z","tz":1,"tags":{"climbing":"area","leisure":"pitch","name":"Klettergarten Nofels","site":"climbing_area","source":"survey 11.2020 and Vogis 2018","sport":"climbing","type":"site"}},"78252155":{"lat":47.2789834,"lon":9.6540451,"ts":"2023-11-13T19:02:35Z","tz":1,"tags":{"addr:city":"Rankweil","addr:country":"AT","addr:housenumber":"25b","addr:postcode":"6830","addr:street":"Freudenau","building":"yes","building:name":"Alpenvereinsheim Rankweil","club":"nature","email":"obmann@av-rankweil.at","name":"Österreichischer Alpenverein - Sektion Vorarlberg - Bezirk Rankweil","office":"association","phone":"+43 650 236 45 85","source":"geoimage.at","sport":"climbing","website":"https://www.alpenverein.at/vorarlberg-bezirk-rankweil/kontakt/index.php"}},"78363977":{"lat":47.2452259,"lon":9.5950656,"ts":"2020-07-16T14:25:41Z","tz":1,"tags":{"name":"Klettergarten Ardetzenberg Alte Wand","natural":"cliff","sport":"climbing"}},"238545309":{"lat":47.2414538,"lon":9.6587806,"ts":"2022-11-15T21:36:26Z","tz":1,"tags":{"leisure":"pitch","name":"Klettergarten Spiegelstein","natural":"wood","sport":"climbing"}},"296864595":{"lat":47.2520688,"lon":9.5793891,"ts":"2022-11-06T16:27:11Z","tz":1,"tags":{"climbing:bolted":"yes","climbing:grade:uiaa:max":"VII","climbing:grade:uiaa:min":"III+","climbing:height":"20","climbing:length":"25","climbing:multipitch":"no","climbing:orientation":"SE","climbing:sport":"yes","climbing:toprope":"no","fee":"no","name":"Klettergarten Nofels: Hauptwand","natural":"cliff","opening_hours":"24/7","sport":"climbing","tourism":"attraction","url":"http://www.tourenspuren.at/klettergarten-nofels"}},"299038853":{"lat":47.0661705,"lon":9.6113069,"ts":"2016-09-03T19:22:17Z","tz":1,"tags":{"area":"no","name":"Klettergarten Naffkopf/Pfälzerhütte","natural":"cliff","sport":"climbing"}},"299038855":{"lat":47.0661415,"lon":9.6110755,"ts":"2016-09-03T19:22:17Z","tz":1,"tags":{"area":"no","name":"Klettergarten Naffkopf/Pfälzerhütte","natural":"cliff","sport":"climbing"}},"299918056":{"lat":47.2313489,"lon":9.6032381,"ts":"2020-09-11T22:41:11Z","tz":1,"tags":{"climbing:bolted":"yes","climbing:grade:uiaa:max":"VII+","climbing:grade:uiaa:min":"III+","climbing:length":"25","climbing:multipitch":"no","climbing:orientation":"SW","climbing:rock":"limestone","climbing:sport":"yes","climbing:toprope":"no","fee":"no","name":"Klettergarten Illschlucht","natural":"cliff","opening_hours":"24/7","sport":"climbing","tourism":"attraction","url":"http://www.tourenspuren.at/klettergarten-an-der-ill-feldkirch"}},"338703880":{"lat":47.1773216,"lon":9.7810792,"ts":"2020-11-19T19:54:28Z","tz":1,"tags":{"name":"Hängender Stein","natural":"cliff","sport":"climbing"}},"363257247":{"lat":47.0914615,"lon":9.7908679,"ts":"2022-09-12T10:26:52Z","tz":1,"tags":{"climbing":"route","climbing:grade:french":"4a","highway":"path","name":"Zimba-Ostgrat","sac_scale":"difficult_alpine_hiking","source":"GPS, precision Height Model","trail_visibility":"horrible"}},"363268894":{"lat":47.0904943,"lon":9.7870809,"ts":"2022-09-20T14:43:28Z","tz":1,"tags":{"bicycle":"no","climbing":"route","climbing:grade:uiaa":"3+","highway":"path","name":"Zimba-Westgrat","sac_scale":"difficult_alpine_hiking","source":"GPS","trail_visibility":"bad"}},"377619099":{"lat":47.150766,"lon":9.8012261,"ts":"2022-11-06T16:27:11Z","tz":1,"tags":{"climbing:bolted":"no","climbing:grade:french:max":"8b+","climbing:grade:french:min":"8b","climbing:grade:uiaa:max":"10+","climbing:grade:uiaa:min":"10","climbing:length":"40","climbing:sport":"yes","climbing:toprope":"no","lit":"no","name":"Bürser Platte: Südwand","natural":"cliff","source":"survey 06.2020 and Vogis 2018","sport":"climbing","tourism":"attraction"}},"378714734":{"lat":47.150965,"lon":9.8015698,"ts":"2022-11-06T16:27:11Z","tz":1,"tags":{"climbing:bolted":"yes","climbing:sport":"yes","lit":"no","name":"Bürser Platte: Ostwand","natural":"cliff","source":"survey 05.2019 and Vogis 2018","sport":"climbing"}},"516614831":{"lat":47.091977,"lon":9.7887684,"ts":"2022-09-20T14:43:28Z","tz":1,"tags":{"climbing":"route","climbing:grade:uiaa":"2+","highway":"path","name":"ZImba-Nordostgrat","sac_scale":"difficult_alpine_hiking","trail_visibility":"horrible"}},"576483845":{"lat":47.0782947,"lon":9.7715873,"ts":"2013-10-06T15:38:46Z","tz":1,"tags":{"climbing:grade:british:adjectival":"D/E","name":"Saulakopf Klettersteig","note":"Klettersteig D/E","sport":"climbing"}},"684989646":{"lat":47.1446313,"lon":9.7950041,"ts":"2023-07-10T19:17:30Z","tz":1,"tags":{"climbing:bolted":"yes","climbing:sport":"yes","name":"Rumpelkammer","natural":"cliff","source":"survey 06.2019 und Vogis 2018","sport":"climbing"}},"684989648":{"lat":47.1489927,"lon":9.8004893,"ts":"2022-11-06T16:27:11Z","tz":1,"tags":{"access":"no","description":"Klettern ist durch Grundstückseigentümer strengstens verboten","illegal":"yes","name":"Bürser Pfeiler","natural":"cliff","sport":"climbing"}},"684989649":{"lat":47.1485215,"lon":9.799601,"ts":"2022-11-06T16:27:11Z","tz":1,"tags":{"climbing:bolted":"yes","climbing:sport":"yes","name":"Bürser Verschneidung","natural":"cliff","source":"survey 04.2019 and heightmodel 50cm","sport":"climbing"}},"685045477":{"lat":47.1434782,"lon":9.7931102,"ts":"2022-11-05T22:45:53Z","tz":1,"tags":{"name":"Rumpelkammer","natural":"cliff","note":"location and Zugangspfad fehlt","source":"heightmodel 50cm","sport":"climbing"}},"697516976":{"lat":47.1479269,"lon":9.7990679,"ts":"2022-11-06T16:27:11Z","tz":1,"tags":{"climbing:bolted":"yes","climbing:sport":"yes","name":"Große Wand","natural":"cliff","source":"survey 06.2019 und Vogis 2018","sport":"climbing"}},"700539770":{"lat":47.2326759,"lon":9.5947189,"ts":"2022-11-05T22:45:53Z","tz":1,"tags":{"access":"yes","climbing:bolted":"yes","climbing:grade:uiaa:max":"8+","climbing:orientation":"N","climbing:rock":"limestone","climbing:sport":"yes","fee":"no","name":"Stadtschroffen","natural":"cliff","source":"survey 06.2019, Vogis 2018 and heightmodel 50cm","sport":"climbing","url":"https://27crags.com/crags/stadtschroffen"}},"724883136":{"lat":47.2527555,"lon":9.6205022,"ts":"2022-11-06T16:27:11Z","tz":1,"tags":{"alt_name":"Klettergarten Amberg: Alte Wand; Ambergwand","climbing:bolted":"yes","climbing:grade:uiaa:max":"9","climbing:grade:uiaa:min":"5-","climbing:sport":"yes","name":"Klettergarten Amberg: Große Wand","natural":"cliff","sport":"climbing"}},"755698672":{"lat":47.2510827,"lon":9.619033,"ts":"2022-11-06T16:27:11Z","tz":1,"tags":{"access":"no","name":"Little Amberg","natural":"cliff","note":"climbing is prohibited here!","sport":"climbing"}},"756662572":{"lat":47.1458648,"lon":9.8394348,"ts":"2022-11-05T22:45:53Z","tz":1,"tags":{"climbing:grade:french:max":"7","climbing:grade:french:min":"3","climbing:sport":"yes","name":"Klettergarten Bings Stag","natural":"cliff","note":"exact location fehlt","sport":"climbing"}},"801591053":{"lat":47.1767856,"lon":9.783138,"ts":"2022-11-06T16:27:11Z","tz":1,"tags":{"access":"no","alt_name":"Hängender Stein: Gelbe Wand","climbing":"crag","climbing:bolted":"yes","climbing:sport":"yes","name":"Hängender Stein: Gelbes Wändle","natural":"cliff","note:access":"closed due to falling stones","source":"survey 11.2020 and Vogis 2018","sport":"climbing"}},"801591054":{"lat":47.1769127,"lon":9.782065,"ts":"2022-11-06T16:27:11Z","tz":1,"tags":{"climbing:bolted":"yes","climbing:sport":"yes","name":"Hängender Stein","natural":"cliff","source":"survey 06.2020 and Vogis 2018","sport":"climbing"}},"801591055":{"lat":47.1771754,"lon":9.7827662,"ts":"2020-05-08T11:10:37Z","tz":1,"tags":{"name":"Hängender Stein","natural":"cliff","sport":"climbing"}},"828223502":{"lat":47.1466108,"lon":9.7984215,"ts":"2022-11-06T16:27:11Z","tz":1,"tags":{"climbing:bolted":"yes","climbing:sport":"yes","name":"Großer Überhang","natural":"cliff","source":"survey 07.2020 and Vogis 2018","sport":"climbing"}},"838309271":{"lat":47.2412254,"lon":9.5676359,"ts":"2022-11-05T22:45:53Z","tz":1,"tags":{"alt_name":"Schellenberg: Affenfresser","climbing:bolted":"yes","climbing:boulder":"yes","climbing:grade:uiaa:max":"10-","climbing:grade:uiaa:min":"8","climbing:sport":"yes","name":"Schellenberg: Affenhangel","name:boulder":"Schellenberg: Affenhangel","name:climbing":"Schellenberg: Affenfresser","natural":"cliff","source":"survey 08.2020 and Vogis 2018","sport":"climbing"}},"838309273":{"lat":47.2417078,"lon":9.5681036,"ts":"2022-11-05T22:45:53Z","tz":1,"tags":{"climbing:bolted":"yes","climbing:grade:uiaa:max":"10-","climbing:grade:uiaa:min":"8","climbing:sport":"yes","name":"Schellenberg: Katapult","natural":"cliff","source":"survey 08.2020 and Vogis 2018","sport":"climbing"}},"863582763":{"lat":47.2410337,"lon":9.6592115,"ts":"2022-11-06T16:27:11Z","tz":1,"tags":{"climbing:grade:uiaa:max":"8-","climbing:grade:uiaa:min":"5-","climbing:sport":"yes","name":"Spiegelstein: Lilienfels","natural":"cliff","source":"survey 10.2020 and Vogis 2018","sport":"climbing"}},"863582766":{"lat":47.2414227,"lon":9.6587296,"ts":"2022-11-06T16:27:11Z","tz":1,"tags":{"climbing:grade:uiaa:max":"8-","climbing:grade:uiaa:min":"5-","climbing:sport":"yes","name":"Spiegelstein: Höhlenklotz","natural":"cliff","source":"survey 10.2020 and Vogis 2018","sport":"climbing"}},"863582768":{"lat":47.2410924,"lon":9.6589894,"ts":"2020-10-25T18:51:33Z","tz":1,"tags":{"climbing:grade:uiaa:max":"8-","climbing:grade:uiaa:min":"5-","climbing:sport":"yes","leisure":"pitch","name":"Spiegelstein: Schwarzer Stein","natural":"rock","source":"survey 10.2020 and Vogis 2018","sport":"climbing"}},"863582769":{"lat":47.2408186,"lon":9.6587852,"ts":"2022-11-06T16:27:11Z","tz":1,"tags":{"climbing:grade:uiaa:max":"?","climbing:grade:uiaa:min":"?","climbing:sport":"yes","natural":"cliff","source":"survey 10.2020 and Vogis 2018","sport":"climbing"}},"863585116":{"lat":47.2412161,"lon":9.6591905,"ts":"2022-11-06T16:27:11Z","tz":1,"tags":{"climbing:grade:uiaa:max":"8-","climbing:grade:uiaa:min":"5-","climbing:sport":"yes","name":"Spiegelstein: Lilienfels","natural":"cliff","source":"survey 10.2020 and Vogis 2018","sport":"climbing"}},"863585117":{"lat":47.2408406,"lon":9.6592353,"ts":"2022-11-06T16:27:11Z","tz":1,"tags":{"climbing:grade:uiaa:max":"8+","climbing:grade:uiaa:min":"7-","climbing:sport":"yes","fixme":"exact position","name":"Spiegelstein: Lieber Augustin","natural":"cliff","source":"survey 10.2020 and Vogis 2018","sport":"climbing"}},"868403378":{"lat":47.1784723,"lon":9.7791781,"ts":"2022-11-06T16:27:11Z","tz":1,"tags":{"climbing":"crag","climbing:bolted":"yes","climbing:grade:uiaa:max":"8","climbing:grade:uiaa:min":"4+","climbing:sport":"yes","name":"Hängender Stein: Tarzan / Waldmännchen","natural":"cliff","source":"survey 11.2020 and Vogis 2018","sport":"climbing"}},"871967231":{"lat":47.1778625,"lon":9.7798281,"ts":"2022-11-06T16:27:11Z","tz":1,"tags":{"climbing":"crag","climbing:bolted":"yes","climbing:grade:uiaa:max":"9-","climbing:grade:uiaa:min":"6-","climbing:sport":"yes","name":"Hängender Stein: Westkamin","natural":"cliff","source":"survey 11.2020 and Vogis 2018","sport":"climbing"}},"874861066":{"lat":47.1788231,"lon":9.7787791,"ts":"2022-11-06T16:27:11Z","tz":1,"tags":{"climbing":"crag","climbing:bolted":"yes","climbing:grade:uiaa:max":"8","climbing:grade:uiaa:min":"4+","climbing:sport":"yes","fixme":"exact area","name":"Hängender Stein: Wild West","natural":"cliff","source":"survey 11.2020 and Vogis 2018","sport":"climbing"}},"874861067":{"lat":47.1790261,"lon":9.7787067,"ts":"2022-11-06T16:27:11Z","tz":1,"tags":{"climbing":"crag","climbing:bolted":"yes","climbing:grade:uiaa:max":"8","climbing:grade:uiaa:min":"4+","climbing:sport":"yes","fixme":"exact area","name":"Hängender Stein: Cafe April","natural":"cliff","source":"survey 11.2020 and Vogis 2018","sport":"climbing"}},"874864158":{"lat":47.1769733,"lon":9.7818717,"ts":"2022-11-06T16:27:11Z","tz":1,"tags":{"climbing":"crag","climbing:bolted":"yes","climbing:sport":"yes","name":"Hängender Stein: Köpfle","natural":"cliff","sport":"climbing"}},"896164585":{"lat":47.2537142,"lon":9.6214792,"ts":"2022-11-06T16:27:11Z","tz":1,"tags":{"climbing:bolted":"yes","climbing:grade:uiaa:max":"8+","climbing:grade:uiaa:min":"6+","climbing:sport":"yes","name":"Klettergarten Amberg: Gorilla Wand","natural":"cliff","sport":"climbing"}},"930392901":{"lat":47.2518461,"lon":9.5790007,"ts":"2022-11-06T16:27:11Z","tz":1,"tags":{"access":"no","fee":"no","name":"Klettergarten Nofels: Kinderbereich","natural":"cliff","sport":"climbing"}},"930392902":{"lat":47.252274,"lon":9.5797002,"ts":"2022-11-06T16:27:11Z","tz":1,"tags":{"climbing:bolted":"yes","climbing:grade:uiaa:max":"6+","climbing:grade:uiaa:min":"4","climbing:multipitch":"yes","climbing:sport":"yes","fee":"no","name":"Klettergarten Nofels: Stonemonkeys","natural":"cliff","opening_hours":"24/7","source":"survey 04.2021, Vogis 2020 and heightmodel","sport":"climbing","tourism":"attraction"}},"1179839450":{"lat":47.27081,"lon":9.6740527,"ts":"2024-06-04T19:24:37Z","tz":1,"tags":{"alt_name":"Laternsertal","climbing:bolted":"yes","climbing:quality":"medium","climbing:routes":"6","climbing:sport":"yes","description:routes":"Blutspur; Muttertag; Vollpfupfi; Trau Di; ISmile; Geh Nach Hause!","leisure":"pitch","name":"Suldistunnel","natural":"cliff","source":"survey 06.2024 and Vogis 2022","sport":"climbing"}},"1189229054":{"lat":47.148664,"lon":9.7987546,"ts":"2023-12-28T12:09:52Z","tz":1,"tags":{"climbing:boulder":"yes","source":"survey 07.2023 and basemap Ortphoto","sport":"climbing"}},"3637406537":{"lat":47.0896465,"lon":9.7852865,"ts":"2017-08-18T12:35:57Z","tz":1,"tags":{"climbing":"route_bottom"}},"3637407343":{"lat":47.0913596,"lon":9.7888949,"ts":"2015-07-31T08:13:02Z","tz":1,"tags":{"climbing":"route_top"}},"3637407353":{"lat":47.091342,"lon":9.7928409,"ts":"2025-02-16T22:14:48Z","tz":1,"tags":{"climbing":"route_bottom","ele":"2300","mountain_pass":"yes","name":"Neyerscharte","natural":"saddle","source":"GPS","wikidata":"Q21881699"}},"3827840320":{"lat":47.1576029,"lon":9.8064451,"ts":"2021-11-17T21:57:50Z","tz":1,"tags":{"addr:city":"Bürs","addr:country":"AT","addr:housenumber":"10","addr:postcode":"6706","addr:street":"Quadrella","climbing:boulder":"yes","climbing:sport":"no","contact:website":"https://www.klimmerei.at","leisure":"sports_centre","name":"Klimmerei","sport":"climbing","start_date":"2015-11-21"}},"4257358689":{"lat":47.2765666,"lon":9.6572966,"ts":"2022-09-14T18:00:06Z","tz":1,"tags":{"UID":"ATU70035749","addr:city":"Rankweil","addr:country":"AT","addr:housenumber":"49","addr:postcode":"6830","addr:street":"Alemannenstraße","contact:email":"guntram@steinblock.at","contact:phone":"+43 5522 22217","contact:website":"https://www.steinblock.at/","leisure":"sports_centre","level":"0","name":"Steinblock Boulderhalle","opening_hours":"Mo-Fr 14:00-22:30; Sa - Su 10:00-22:30","operator":"Steinblock Boulderhalle GmbH","sport":"climbing"}},"5839055541":{"lat":47.1563702,"lon":9.820976,"ts":"2023-07-27T09:34:37Z","tz":1,"tags":{"climbing:boulder":"yes","leisure":"sports_centre","name":"Österreichischer Alpenverein - Sektion Vorarlberg - Bezirk Bludenz","shop":"outdoor","sport":"climbing"}},"6033584907":{"lat":47.2681201,"lon":9.5919943,"ts":"2019-08-19T20:22:50Z","tz":1,"tags":{"addr:city":"Feldkirch","addr:country":"AT","addr:housenumber":"6","addr:postcode":"6800","addr:street":"Im Letten","contact:email":"info@blockmonkey.at","fee":"yes","leisure":"sports_centre","name":"Block Monkey","opening_hours":"Mo-Su 07:00-22:00","sport":"climbing","website":"http://blockmonkey.at/"}},"6759265236":{"lat":47.1099511,"lon":9.7540149,"ts":"2020-05-20T15:28:46Z","tz":1,"tags":{"leisure":"sports_centre","name":"Klettersteig Kellenegg","sport":"climbing"}},"8143717242":{"lat":47.1769428,"lon":9.7818846,"ts":"2020-11-19T20:01:03Z","tz":1,"tags":{"climbing":"route","climbing:bolted":"yes","climbing:grade:uiaa":"4","climbing:sport":"yes","leisure":"pitch","name":"Köpfle: Normalweg","sport":"climbing"}},"11638699430":{"lat":47.1570554,"lon":9.8322786,"ts":"2024-02-18T18:46:59Z","tz":1,"tags":{"access":"customers","climbing:bolted":"yes","leisure":"pitch","name":"Val Blu","source":"survey 02.2024 and Vogis 2022","sport":"climbing"}},"11649806752":{"lat":47.229543,"lon":9.6348488,"ts":"2024-02-21T18:51:00Z","tz":1,"tags":{"climbing:boulder":"yes","name":"Slotter","sport":"climbing"}},"12075881196":{"lat":47.2733023,"lon":9.6429656,"ts":"2024-07-26T19:20:48Z","tz":1,"tags":{"access":"private","climbing:bolted":"yes","climbing:sport":"yes","covered":"no","note":"Kletterwand Feuerwehr","source":"survey 07.2024 and Geoimage.at 2023","sport":"climbing"}},"12159717864":{"lat":47.2381259,"lon":9.5645328,"ts":"2024-10-06T08:35:34Z","tz":1,"tags":{"climbing":"boulder","description":"Durch tolle und anspruchsvolle Boulder ist dieses Gebiet bekannt geworden. Achtung teils oberhalb der Knautschzone - Matten sind vorhanden.","name":"Kletterwand Gantenstein","sport":"climbing"}},"12379439691":{"lat":47.105101,"lon":9.6043912,"ts":"2024-11-27T18:59:23Z","tz":1,"tags":{"man_made":"tower","name":"Kletterturm LAV Malbun","sport":"climbing","tower:type":"climbing"}}}