{"4950080032":{"lat":14.5785396,"lon":121.0539248,"ts":"2024-02-20T13:28:13Z","tz":8,"tags":{"addr:city":"Mandaluyong","addr:district":"Greenfield","addr:postcode":"1552","addr:province":"Metro Manila","addr:street":"Mayflower Street","email":"info@climbcentral.ph","fixme":"Address Format:\n\nThe Portal, Mayflower St., Greenfield District, Mandaluyong City, Metro Manila 1552","indoor":"yes","leisure":"sports_centre","name":"Climb Central Manila","operator":"Climb Central","sport":"climbing","website":"https://climbcentral.ph/"}},"8191303098":{"lat":14.5785523,"lon":121.0539743,"ts":"2020-12-03T16:22:17Z","tz":8,"tags":{"addr:street":"Mayflower Street","name":"Climb Central","sport":"climbing"}},"9329113138":{"lat":14.6022522,"lon":121.1488201,"ts":"2021-12-11T08:38:37Z","tz":8,"tags":{"building":"yes","name":"Camp Conquer","sport":"climbing"}},"11544999699":{"lat":14.5757738,"lon":121.0197908,"ts":"2024-01-24T02:35:02Z","tz":8,"tags":{"leisure":"sports_centre","name":"The Bouldering Hive","sport":"climbing"}},"11545049088":{"lat":14.5507303,"lon":121.0496551,"ts":"2024-01-24T02:44:53Z","tz":8,"tags":{"leisure":"sports_centre","name":"Power Up","operator":"Power Up Climbing Gyms","sport":"climbing"}},"11545063934":{"lat":14.4149552,"lon":121.042697,"ts":"2024-01-24T02:51:35Z","tz":8,"tags":{"leisure":"sports_centre","name":"Power Up","operator":"Power Up Climbing Gyms","sport":"climbing"}}}