{"187528387":{"location":[53.1129308,8.8559438],"ts":"2024-12-31T13:01:44Z","tz":1,"tags":{"addr:city":"Bremen","addr:country":"DE","addr:housenumber":"19","addr:postcode":"28359","addr:street":"Robert-Hooke-Straße","check_date":"2024-09-27","climbing:boulder:indoor":"yes","climbing:boulder:outdoor":"no","climbing:sport:indoor":"yes","climbing:sport:outdoor":"yes","climbing:toprope:indoor":"yes","climbing:toprope:outdoor":"yes","description":"Das \"UNTERWEGS - DAV Kletterzentrum Bremen\" ist die Kletterhalle der Sektion Bremen des Deutschen Alpenvereins e.V., mit über 5000 Mitgliedern Bremens drittgrößter Verein. Das Kletterzentrum wurde am 11.12.2015 eröffnet.","email":"hallo@kletterzentrum-bremen.de","leisure":"sports_centre","name":"UNTERWEGS - DAV Kletterzentrum Bremen","note":"- Kletterfläche gesamt 2.040 m2 - Kletterfläche indoor 1205 m2 - Kletterfläche outdoor 689 m2 - Hallenhöhe 10 - 14 m - Boulderbereich 146 m2 - Routenzahl ca. 230 + ca. 30 Boulder - ca. 40% im Toprope bekletterbar (indoor) - Schwierigkeitsgrad (UIAA) 3 - 1","opening_hours":"Mo-Fr 10:00-22:30; Sa-Su,PH 10:00-21:00","operator":"Deutscher Alpenverein Sektion Bremen e.V.","phone":"+49 421 51429053","sport":"climbing","start_date":"2015-12","website":"https://www.kletterzentrum-bremen.com/","wheelchair":"yes"}},"236315461":{"location":[53.0860619,8.8055064],"ts":"2023-07-30T07:30:16Z","tz":1,"tags":{"addr:city":"Bremen","addr:full":"Am Güterbahnhof beim Handelsmuseum Tor 43, 28195 Bremen","addr:housenumber":"43","addr:postcode":"28195","addr:street":"Beim Handelsmuseum Tor","alt_name":"Linie7 - Bouldern in Bremen","check_date":"2023-07-30","climbing:boulder":"yes","climbing:multipitch":"no","climbing:sport":"limited","climbing:toprope":"limited","email":"info@linie7.com","fee":"yes","indoor":"yes","leisure":"sports_centre","name":"Linie7 – Bouldern in Bremen","name:de":"Linie7 – Bouldern in Bremen","opening_hours":"Mo,We,Fr-Su 10:00-22:00; Tu,Th 10:00-23:00c","operator":"Busse und Denk Kletteranlagenbetriebs GbR","operator:type":"private","outdoor":"no","phone":"+4942157730327","short_name":"Linie7","sport":"climbing","website":"http://www.linie7.com/","wheelchair":"no"}},"486137250":{"location":[53.062542,8.8486583],"ts":"2011-08-30T00:33:00Z","tz":1,"tags":{"name":"Klettergarten Bremen","sport":"climbing"}},"1347791213":{"location":[53.1128372,8.8558885],"ts":"2025-04-29T11:18:37Z","tz":1,"tags":{"addr:city":"Bremen","addr:country":"DE","addr:housenumber":"19","addr:postcode":"28359","addr:street":"Robert-Hooke-Straße","building":"yes","leisure":"sports_centre","name":"DAV kletterzentrum Bremen","sport":"climbing"}},"3966827862":{"location":[53.1061722,8.7975242],"ts":"2023-08-15T06:05:46Z","tz":1,"tags":{"addr:city":"Bremen","addr:country":"DE","addr:housenumber":"5","addr:postcode":"28219","addr:street":"Hohweg","climbing:boulder":"yes","climbing:multipitch":"no","climbing:sport":"no","climbing:toprope":"no","colour":"#9ec420","contact:email":"info@boulderbasebremen.de","contact:facebook":"https://www.facebook.com/boulderbasebremen/","contact:instagram":"https://www.instagram.com/boulderbasebremen/","contact:phone":"+49 421 36564422","contact:website":"https://www.boulderbasebremen.de/","contact:youtube":"https://www.youtube.com/c/BoulderbasebremenDeineBoulderhalle","fee":"yes","indoor":"yes","leisure":"sports_centre","name":"Boulder Base Bremen","opening_hours":"Mo 13:00-23:00; Tu-Fr 10:00-23:00; Sa,Su,PH 10:00-21:00","outdoor":"yes","short_name":"BBB","sport":"climbing","wheelchair":"limited","wikidata":"Q114139311"}}}