{"17564655":{"location":[47.141173,9.1242288],"ts":"2024-05-06T12:19:10Z","tz":1,"tags":{"climbing":"area","climbing:rock":"limestone","climbing:sport":"yes","name":"Galerie","sport":"climbing","type":"site","wikidata":"Q125802909"}},"17564965":{"location":[47.0910548,9.0536986],"ts":"2024-05-06T12:18:33Z","tz":1,"tags":{"climbing":"area","climbing:rock":"limestone","climbing:sport":"yes","name":"Deponie","natural":"cliff","site":"climbing","sport":"climbing","type":"site","wikidata":"Q125807506"}},"17579170":{"location":[47.0998174,9.0510646],"ts":"2024-05-10T05:02:32Z","tz":1,"tags":{"climbing":"area","name":"Plattenwald","site":"climbing","sport":"climbing","type":"site","url":"https://www.thecrag.com/en/climbing/switzerland/alpen/glarner-alpen/area/563118939","website":"https://www.bohrstaub.ch/","wikidata":"Q125865318"}},"231958339":{"location":[47.1410067,9.126376],"ts":"2024-05-06T10:01:29Z","tz":1,"tags":{"name":"Waldsektor unten","natural":"cliff","sport":"climbing"}},"231958340":{"location":[47.1414077,9.1250903],"ts":"2024-05-06T10:01:29Z","tz":1,"tags":{"name":"Waldsektor oben","natural":"cliff","sport":"climbing"}},"443896449":{"location":[47.1201493,9.0051576],"ts":"2021-06-06T14:26:54Z","tz":1,"tags":{"leisure":"track","name":"Wageten Nordwand","sport":"climbing"}},"570368787":{"location":[47.1197269,9.0554166],"ts":"2021-05-20T16:48:49Z","tz":1,"tags":{"natural":"cliff","sport":"climbing"}},"574196218":{"location":[47.1012963,9.0539266],"ts":"2024-05-10T05:02:32Z","tz":1,"tags":{"climbing":"crag","climbing:rock":"limestone","climbing:sport":"yes","name":"Plattenkreuz","natural":"cliff","sport":"climbing","wikidata":"Q125865438"}},"580213427":{"location":[47.0714823,9.0879105],"ts":"2021-08-16T16:02:44Z","tz":1,"tags":{"natural":"cliff","sport":"climbing"}},"927808714":{"location":[47.1085652,9.065114],"ts":"2021-04-08T16:48:43Z","tz":1,"tags":{"building":"roof","climbing":"wall","outdoor":"yes","source:geometry":"Geodaten Kanton Glarus 2021"}},"1086355333":{"location":[47.1255473,9.1231035],"ts":"2024-05-08T14:56:23Z","tz":1,"tags":{"climbing":"crag","name":"Nordgalerie","natural":"cliff","sport":"climbing","wikidata":"Q125846905"}},"1197823344":{"location":[47.1445543,9.0555553],"ts":"2024-05-07T15:57:21Z","tz":1,"tags":{"area":"yes","name":"Windegg","natural":"cliff","sport":"climbing","website":"https://www.thecrag.com/de/klettern/switzerland/alpen/appenzeller-alpen/area/7344107538","wikidata":"Q125824674"}},"1279737953":{"location":[47.140816,9.1240007],"ts":"2024-05-06T10:01:29Z","tz":1,"tags":{"name":"Matrosen","natural":"cliff","sport":"climbing"}},"1280134288":{"location":[47.1417606,9.1216296],"ts":"2024-05-06T10:01:29Z","tz":1,"tags":{"name":"Untere Galerie","natural":"cliff","sport":"climbing"}},"1280134289":{"location":[47.1415133,9.1226904],"ts":"2024-05-06T10:01:29Z","tz":1,"tags":{"name":"Gorubi","natural":"cliff","sport":"climbing"}},"1280156685":{"location":[47.0906717,9.0533382],"ts":"2024-05-29T07:28:10Z","tz":1,"tags":{"climbing":"crag","climbing:rock":"limestone","climbing:sport":"yes","name":"Deponie Hauptsektor","natural":"cliff","sport":"climbing","subject:wikidata":"Q125807506"}},"1280156686":{"location":[47.0918469,9.0542994],"ts":"2024-05-29T07:28:45Z","tz":1,"tags":{"climbing":"crag","climbing:rock":"limestone","climbing:sport":"yes","name":"Kleine Plattenwand","natural":"cliff","sport":"climbing"}},"3813183443":{"location":[47.11705,8.9853392],"ts":"2025-04-29T18:24:21Z","tz":1,"tags":{"climbing":"area","climbing:grade:french:mean":"6a","climbing:grade:french:min":"4a","climbing:length":"250","climbing:multipitch":"50","image":"http://www.allgaeu-plaisir.de/klettern-am-brueggler/","name":"Brüggler","sport":"climbing"}},"5331258692":{"location":[47.2244507,8.8420843],"ts":"2022-11-06T19:47:24Z","tz":1,"tags":{"addr:city":"Jona","addr:housenumber":"82","addr:postcode":"8645","addr:street":"Schachenstrasse","climbing:boulder":"yes","club":"sport","fee":"yes","indoor":"yes","leisure":"sports_centre","name":"Quergang","opening_hours":"We 11:00-21:00; Su 09:00-17:00","outdoor":"no","sport":"climbing","website":"https://www.quergang.ch/"}},"6465764316":{"location":[47.0485099,9.0854773],"ts":"2021-03-04T17:07:22Z","tz":1,"tags":{"leisure":"track","name":"Klettergarten Hüttenkopf","sport":"climbing"}},"7578218438":{"location":[47.1073555,9.0650728],"ts":"2021-04-08T16:48:43Z","tz":1,"tags":{"leisure":"sports_centre","name":"Kletterhalle 1","sport":"climbing"}},"7922205407":{"location":[47.0982134,9.0478928],"ts":"2024-05-10T05:02:32Z","tz":1,"tags":{"climbing":"crag","climbing:bolted":"yes","climbing:bolts:max":"17","climbing:length:max":"33","climbing:length:min":"10","climbing:orientation":"E","climbing:sport":"yes","fee":"no","name":"Plattenwand","sport":"climbing","url":"https://www.thecrag.com/de/klettern/switzerland/alpen/glarner-alpen/area/563118939","website":"https://www.bohrstaub.ch/","wikidata":"Q125865354"}},"8607468910":{"location":[47.1085917,9.0652241],"ts":"2021-04-08T16:48:43Z","tz":1,"tags":{"leisure":"sports_centre","name":"Kletterhalle 2","sport":"climbing"}},"11889214216":{"location":[47.1209549,9.1121398],"ts":"2024-05-08T14:43:23Z","tz":1,"tags":{"climbing":"crag","fixme":"validate location","name":"Gäsi","sport":"climbing","wikidata":"Q125846778"}}}