{"16068105":{"lat":45.7861074,"lon":9.0984599,"ts":"2023-07-08T11:13:46Z","tz":1,"tags":{"climbing":"crag","name":"Falesia Placche di Albate","type":"site"}},"418070443":{"lat":45.6146966,"lon":8.9904077,"ts":"2018-12-22T12:39:42Z","tz":1,"tags":{"addr:city":"Uboldo","addr:housenumber":"130","addr:postcode":"21040","addr:street":"Via Enrico Fermi","building":"yes","description":"Palestra di arrampicata sportiva. Zona corda 10 mt di altezza, 12 mt di sviluppo totale, 50-60 tiri di corda, Gradi dal 4A all'8A. Zona boulder di 300mq con 6 Livelli di difficoltà","leisure":"sports_centre","name":"Stone Age Climbing Park","opening_hours":"Mo-Fr 16:00-23:00; Sa,Su 10:00-20:00","sport":"climbing","website":"http://www.stoneageclimb.it/"}},"3837475731":{"lat":45.5951515,"lon":8.8301407,"ts":"2015-11-15T15:56:41Z","tz":1,"tags":{"sport":"climbing"}},"6967070864":{"lat":45.8077596,"lon":8.8356413,"ts":"2022-09-21T12:32:03Z","tz":1,"tags":{"addr:city":"Varese","addr:housenumber":"1","addr:postcode":"21100","addr:street":"Via Donatello","building":"yes","fee":"yes","leisure":"sports_centre","name":"Arrampicata Varese","opening_hours":"Mo-Fr 18:00-22:30; Sa 14:30-18:30","sport":"climbing","website":"https://www.arrampicatavarese.com"}},"10881915560":{"lat":45.7300425,"lon":9.1384975,"ts":"2023-05-10T13:22:28Z","tz":1,"tags":{"addr:city":"Cantù","addr:housenumber":"7","addr:postcode":"22063","addr:street":"Via Bisbino","leisure":"sports_centre","name":"Vertical block","opening_hours":"Mo-Fr 18:00-23:00","sport":"climbing"}},"11034011915":{"lat":45.786016,"lon":9.0985426,"ts":"2023-07-08T11:25:17Z","tz":1,"tags":{"climbing":"route_bottom","climbing:bolted":"yes","climbing:grade:french":"6b","climbing:length":"30","climbing:multipitch":"no","climbing:pitches":"1","climbing:sport":"yes","leisure":"sports_centre","name":"Spingi sui piedi","sport":"climbing"}},"11034011916":{"lat":45.786225,"lon":9.0983207,"ts":"2023-07-08T11:11:47Z","tz":1,"tags":{"climbing":"route_bottom","climbing:bolted":"yes","climbing:grade:french":"5b","climbing:length":"30","climbing:multipitch":"no","climbing:pitches":"1","climbing:sport":"yes","leisure":"sports_centre","name":"Tibia","sport":"climbing"}},"11034011917":{"lat":45.7862131,"lon":9.0983336,"ts":"2023-07-08T11:25:17Z","tz":1,"tags":{"climbing":"route_bottom","climbing:bolted":"yes","climbing:grade:french":"6a+","climbing:length":"30","climbing:multipitch":"no","climbing:pitches":"1","climbing:sport":"yes","leisure":"sports_centre","name":"Il Placchista","sport":"climbing"}},"11034011918":{"lat":45.7861585,"lon":9.098387,"ts":"2023-07-08T11:25:17Z","tz":1,"tags":{"climbing":"route_bottom","climbing:bolted":"yes","climbing:grade:french":"5c","climbing:length":"30","climbing:multipitch":"no","climbing:pitches":"1","climbing:sport":"yes","leisure":"sports_centre","name":"Fiorellino","sport":"climbing"}},"11034011919":{"lat":45.7861454,"lon":9.0984043,"ts":"2023-07-08T11:25:17Z","tz":1,"tags":{"climbing":"route_bottom","climbing:bolted":"yes","climbing:grade:french":"6a","climbing:length":"30","climbing:multipitch":"no","climbing:pitches":"1","climbing:sport":"yes","leisure":"sports_centre","name":"Base","sport":"climbing"}},"11034011920":{"lat":45.7860043,"lon":9.0985666,"ts":"2023-07-08T11:25:17Z","tz":1,"tags":{"climbing":"route_bottom","climbing:bolted":"yes","climbing:grade:french":"6a","climbing:length":"30","climbing:multipitch":"no","climbing:pitches":"1","climbing:sport":"yes","leisure":"sports_centre","name":"Caianesimo","sport":"climbing"}},"11034011921":{"lat":45.7859898,"lon":9.098599,"ts":"2023-07-08T11:25:17Z","tz":1,"tags":{"climbing":"route_bottom","climbing:bolted":"yes","climbing:grade:french":"6c+","climbing:length":"30","climbing:multipitch":"no","climbing:pitches":"1","climbing:sport":"yes","leisure":"sports_centre","name":"Gioele","sport":"climbing"}},"11034011922":{"lat":45.7861981,"lon":9.0983489,"ts":"2023-07-08T11:25:17Z","tz":1,"tags":{"climbing":"route_bottom","climbing:bolted":"yes","climbing:grade:french":"6a","climbing:length":"30","climbing:multipitch":"no","climbing:pitches":"1","climbing:sport":"yes","leisure":"sports_centre","name":"Perone","sport":"climbing"}},"11034011923":{"lat":45.7861319,"lon":9.0984107,"ts":"2023-07-08T11:25:17Z","tz":1,"tags":{"climbing":"route_bottom","climbing:bolted":"yes","climbing:grade:french":"5c+","climbing:length":"030","climbing:multipitch":"no","climbing:pitches":"1","climbing:sport":"yes","leisure":"sports_centre","name":"Via N","sport":"climbing"}},"11034011924":{"lat":45.7861171,"lon":9.0984286,"ts":"2023-07-08T11:25:17Z","tz":1,"tags":{"climbing":"route_bottom","climbing:bolted":"yes","climbing:grade:french":"6a","climbing:length":"30","climbing:multipitch":"no","climbing:pitches":"1","climbing:sport":"yes","leisure":"sports_centre","name":"Colata Bianca","sport":"climbing"}},"11034011925":{"lat":45.7861063,"lon":9.0984359,"ts":"2023-07-08T11:25:17Z","tz":1,"tags":{"climbing":"route_bottom","climbing:bolted":"yes","climbing:grade:french":"6a","climbing:length":"30","climbing:multipitch":"no","climbing:pitches":"1","climbing:sport":"yes","leisure":"sports_centre","name":"Piastrine Rosse","sport":"climbing"}},"11034011926":{"lat":45.7860894,"lon":9.0984576,"ts":"2023-07-08T11:25:17Z","tz":1,"tags":{"climbing":"route_bottom","climbing:bolted":"yes","climbing:grade:french":"5c+","climbing:length":"30","climbing:multipitch":"no","climbing:pitches":"1","climbing:sport":"yes","leisure":"sports_centre","name":"Piastrine Bianche","sport":"climbing"}},"11034011927":{"lat":45.7860287,"lon":9.0985185,"ts":"2023-07-08T11:25:17Z","tz":1,"tags":{"climbing":"route_bottom","climbing:bolted":"yes","climbing:grade:french":"6a+","climbing:length":"30","climbing:multipitch":"no","climbing:pitches":"1","climbing:sport":"yes","leisure":"sports_centre","name":"First Round First Hole","sport":"climbing"}},"12718149506":{"lat":45.6792606,"lon":8.9475553,"ts":"2025-04-01T09:36:55Z","tz":1,"tags":{"addr:city":"Mozzate","addr:housenumber":"1/3","addr:postcode":"22076","addr:street":"Via Anna Frank (già Via Milanes Veggia)","charge":"10 EUR (single entrance)","fee":"yes","leisure":"sports_centre","name":"Lezard Climbing","opening_hours":"Sa-Su 10:00-20:00; Mo-Fr 10:00-23:00; Tu 16:00-23:00; Th 16:00-23:00; ","operator":"ASD Lezard","operator:type":"private","payment:cash":"yes","payment:credit_cards":"yes","payment:debit_cards":"yes","sport":"climbing"}}}