{"30060848":{"location":[51.5626961,-0.1219337],"ts":"2009-01-11T01:10:46Z","tz":0,"tags":{"sport":"climbing"}},"30955182":{"location":[51.5276782,-0.0397953],"ts":"2025-01-21T18:15:41Z","tz":0,"tags":{"addr:city":"London","addr:housename":"Mile End Climbing Wall","addr:postcode":"E3 5BE","addr:street":"Haverfield Road","building":"yes","check_date":"2025-01-21","climbing:boulder":"yes","climbing:toprope":"yes","email":"enquiries@mileendwall.org.uk","fee":"yes","indoor":"yes","internet_access":"wlan","leisure":"sports_centre","name":"Mile End Climbing Wall","note":"Free bicycle parking for customers, sheffield stands in car park, approx 50 bikes capacity.","opening_hours":"Mo-Fr,PH 07:00-22:00; Sa-Su 09:00-20:00","operator":"Development Through Challenge","operator:type":"private_non_profit","payment:cash":"no","payment:contactless":"yes","payment:credit_cards":"yes","payment:debit_cards":"yes","payment:others":"no","phone":"+44 20 8980 0289","sport":"climbing","toilets":"yes","website":"https://www.mileendwall.org.uk/"}},"97209805":{"location":[51.4923297,-0.1145915],"ts":"2023-07-12T17:21:42Z","tz":0,"tags":{"addr:city":"London","addr:housenumber":"1","addr:postcode":"SE11 6BD","addr:street":"Cabanel Place","alt_name":"VauxEast","building":"commercial;detached","climbing:boulder":"yes","climbing:sport":"no","climbing:toprope":"no","fee":"yes","leisure":"sports_centre","name":"VauxWall East Climbing Centre","opening_hours":"Mo-Fr 09:00-22:00; Sa-Su,PH 09:00-19:00","operator":"London Climbing Centres","operator:type":"private_for_profit","payment:cash":"no","payment:contactless":"yes","payment:credit_cards":"yes","payment:debit_cards":"yes","payment:others":"no","source":"Bing","sport":"climbing","website":"https://londonclimbingcentres.co.uk/centre/vauxeast/"}},"107024158":{"location":[51.5371878,-0.0039442],"ts":"2024-11-06T03:10:15Z","tz":0,"tags":{"addr:city":"London","addr:housenumber":"234","addr:postcode":"E15 2JA","addr:street":"High Street","building":"commercial","contact:email":"stratford@citybouldering.co.uk","contact:facebook":"https://www.facebook.com/cityboulderingstratford","contact:instagram":"https://www.instagram.com/cityboulderingstratford/","contact:phone":"+44 20 3488 1123","leisure":"sports_centre","name":"City Bouldering Stratford","opening_hours":"Mo-Fr 07:00-22:30; Sa-Su 09:00-21:00","operator":"City Bouldering","operator:type":"private","sport":"climbing","was:building:levels":"2","was:name":"Universal Automobile Engineers","was:shop":"car_repair","was:source":"Bing","website":"https://www.citybouldering.co.uk/locations/stratford"}},"272408747":{"location":[51.540728,-0.0150976],"ts":"2021-08-15T12:32:59Z","tz":0,"tags":{"barrier":"wall","est_height":"2.5","leisure":"pitch","lit":"no","note":"traversal wall","sport":"climbing"}},"272544372":{"location":[51.5407147,-0.0151234],"ts":"2021-08-15T12:32:51Z","tz":0,"tags":{"barrier":"wall","est_height":"3","leisure":"pitch","lit":"no","note":"bouldering wall","sport":"climbing"}},"273447989":{"location":[51.5407211,-0.0151101],"ts":"2021-08-15T12:32:55Z","tz":0,"tags":{"leisure":"pitch","lit":"no","sport":"climbing","wheelchair":"no"}},"273787952":{"location":[51.5413894,-0.0149156],"ts":"2020-07-20T11:51:01Z","tz":0,"tags":{"barrier":"wall","sport":"climbing"}},"320344531":{"location":[51.5489644,-0.032624],"ts":"2023-10-29T01:19:25Z","tz":0,"tags":{"artist_name":"John Frankland","artwork_type":"sculpture","material":"granite","name":"Boulder (Mabley Green)","sport":"climbing","start_date":"14 August 2008","tourism":"artwork","website":"https://www.peeruk.org/chrisdorleybrownjohnfrankland"}},"364176703":{"location":[51.5462192,-0.0099394],"ts":"2022-07-13T10:55:39Z","tz":0,"tags":{"barrier":"wall","name":"Victory Park Traversing Wall","sport":"climbing"}},"532315474":{"location":[51.4779606,-0.1885885],"ts":"2023-09-26T12:43:37Z","tz":0,"tags":{"addr:housenumber":"19","addr:street":"Michael Road","building":"yes","fee":"yes","leisure":"sports_centre","name":"Clip'n'Climb","sport":"climbing","website":"https://www.clipnclimbchelsea.co.uk/"}},"543985620":{"location":[51.5068715,-0.2652484],"ts":"2024-01-20T19:03:11Z","tz":0,"tags":{"addr:city":"London","addr:housename":"The Arch Climbing Wall","addr:housenumber":"20-24","addr:postcode":"W3 6LJ","addr:street":"High Street","building":"yes","check_date":"2024-01-20","leisure":"sports_centre","name":"The Arch Climbing Wall: Arch Acton","sport":"climbing"}},"736488881":{"location":[51.4932919,-0.0610598],"ts":"2023-11-05T19:41:08Z","tz":0,"tags":{"addr:city":"London","addr:housename":"Tower Bridge Business Centre","addr:postcode":"SE16 4DG","addr:street":"Drummond Road","building":"commercial","building:levels":"1","climbing:boulder":"yes","climbing:sport":"no","climbing:toprope":"no","fee":"yes","leisure":"sports_centre","name":"The Arch Climbing Wall: Building One","note":"Free bicycle parking for customers inside, high saddle holders only. Capacity around 25 bikes, this fills up at peak times.","opening_hours":"Mo-Fr 06:30-22:30; Sa-Su 09:00-21:00","operator":"Inner Ape Ltd","operator:type":"private_for_profit","payment:cash":"no","payment:contactless":"yes","payment:credit_cards":"yes","payment:debit_cards":"yes","payment:others":"no","sport":"climbing","website":"https://www.archclimbingwall.com/building-one"}},"757708322":{"location":[51.4472776,-0.1912095],"ts":"2023-07-12T12:44:36Z","tz":0,"tags":{"addr:city":"London","addr:housenumber":"30","addr:postcode":"SW18 4LR","addr:street":"Lydden Road","building":"yes","climbing:boulder":"yes","climbing:sport":"no","climbing:toprope":"no","fee":"yes","leisure":"sports_centre","name":"The Font Wandsworth","note":"Free bicycle parking for customers. Approx 30 spaces in dutch-style lift-and-slide double decker cycle racks.","opening_hours":"Mo-Fr 06:00-22:00; Sa-Su 08:00-20:00","operator":"The Font Climbing Ltd","operator:type":"private_for_profit","sport":"climbing","website":"https://www.the-font.co.uk/wandsworth"}},"837838755":{"location":[51.4587276,-0.1283887],"ts":"2025-01-20T00:11:14Z","tz":0,"tags":{"addr:city":"London","addr:postcode":"SW2 5DZ","addr:street":"Ellerslie Square","addr:unit":"13","building":"commercial","leisure":"sports_centre","name":"Substation","opening_hours":"Mo-Fr 07:00-22:00; Sa-Su 08:00-20:00","sport":"climbing","website":"https://substation.co.uk/brixton/"}},"848571598":{"location":[51.489902,-0.1701264],"ts":"2021-01-09T14:08:49Z","tz":0,"tags":{"landuse":"recreation_ground","sport":"climbing"}},"963992061":{"location":[51.5652788,-0.0924406],"ts":"2024-11-26T21:49:41Z","tz":0,"tags":{"addr:city":"London","addr:housename":"The Castle","addr:postcode":"N4 2HA","addr:street":"Green Lanes","building":"industrial","building:parts":"vertical","climbing:boulder":"yes","climbing:sport":"yes","climbing:toprope":"yes","description":"Engine House of Metropolitan Water Board","fee":"yes","he:inscription_date":"1972-05-16","heritage":"2","heritage:operator":"Historic England","heritage:website":"https://historicengland.org.uk/listing/the-list/list-entry/1226755","historic":"building","leisure":"sports_centre","listed_status":"Grade II*","material":"brick","name":"The Castle Climbing Centre","opening_hours":"Mo-Fr 08:00-22:00, Sa-Su 09:00-20:00","ref:GB:nhle":"1226755","ref:GB:uprn":"10008241969","sport":"climbing","website":"https://www.castle-climbing.co.uk/","wikidata":"Q17551191"}},"1189380721":{"location":[51.4850511,-0.1229171],"ts":"2024-08-18T16:00:46Z","tz":0,"tags":{"addr:city":"London","addr:housename":"Arch 45b-47c","addr:postcode":"SW8 1SU","addr:street":"South Lambeth Road","addr:unit":"Arches 47-47A","alt_name":"VauxWest","area":"yes","check_date":"2024-08-18","climbing":"bouldering","climbing:boulder":"yes","climbing:sport":"no","climbing:toprope":"no","email":"info@vauxwallclimbing.co.uk","fee":"yes","fhrs:authority":"Lambeth","fhrs:id":"690939","fhrs:inspectiondate":"2014-07-15","fhrs:rating":"5","leisure":"sports_centre","name":"VauxWall West Climbing Centre","opening_hours":"Mo-Su,PH 06:00-23:00","operator":"London Climbing Centres","operator:type":"private_for_profit","payment:cash":"no","payment:contactless":"yes","payment:credit_cards":"yes","payment:debit_cards":"yes","payment:others":"no","phone":"+44 20 7160 0248","sport":"climbing","website":"https://londonclimbingcentres.co.uk/centre/vauxwest/"}},"1189858234":{"location":[51.4549274,-0.1931177],"ts":"2023-12-28T09:48:34Z","tz":0,"tags":{"addr:city":"London","addr:housenumber":"52-58","addr:postcode":"SW18 4TF","addr:street":"Garratt Lane","email":"wandsworth@parthianclimbing.com","fee":"yes","fhrs:id":"1627837","leisure":"sports_centre","name":"Parthian Climbing Wandsworth","opening_hours":"Mo-Fr 07:00-22:30; Sa-Su 08:00-21:30","operator":"Parthian Climbing","phone":"+44 20 3988 6624","sport":"climbing","website":"https://parthianclimbing.com/wandsworth/"}},"1232796440":{"location":[51.4565792,-0.1914057],"ts":"2023-12-20T23:09:43Z","tz":0,"tags":{"fixme":"Opening Feb 2024, get address and opening hours etc","leisure":"sports_centre","name":"Clip 'n Climb","sport":"climbing","website":"https://wandsworth.clipnclimb.co.uk"}},"2417949821":{"location":[51.4404062,-0.0631736],"ts":"2013-08-13T15:55:19Z","tz":0,"tags":{"leisure":"playground","name":"Outdoor climbing wall","sport":"climbing"}},"4103115961":{"location":[51.5383726,-0.2150862],"ts":"2016-04-06T18:25:29Z","tz":0,"tags":{"leisure":"wall","sport":"climbing"}},"4313286505":{"location":[51.4308063,-0.0657487],"ts":"2016-07-20T17:51:49Z","tz":0,"tags":{"leisure":"sports_centre","sport":"climbing"}},"5392665527":{"location":[51.5277422,-0.056381],"ts":"2023-07-12T17:19:07Z","tz":0,"tags":{"addr:city":"London","addr:housename":"Arch 243-247","addr:postcode":"E2 9QX","addr:street":"Hollybush Place","climbing:boulder":"yes","climbing:sport":"no","climbing:toprope":"no","fee":"yes","leisure":"sports_centre","name":"BethWall Climbing Centre","note":"Free bicycle parking inside for customers, approx 10 wheelbender spaces, 8 high saddle hook spaces.","opening_hours":"Mo-Fr 06:00-23:00; Sa-Su,PH 08:00-21:00","operator":"London Climbing Centres","operator:type":"private_for_profit","payment:cash":"no","payment:contactless":"yes","payment:credit_cards":"yes","payment:debit_cards":"yes","payment:others":"no","sport":"climbing","website":"https://londonclimbingcentres.co.uk/centre/bethwall/"}},"6474751775":{"location":[51.5344721,-0.0867204],"ts":"2023-10-29T06:03:37Z","tz":0,"tags":{"artist_name":"John Frankland","artwork_type":"sculpture","material":"granite","name":"Boulder (Shoreditch Park)","sport":"climbing","start_date":"14 August 2008","tourism":"artwork","website":"https://www.peeruk.org/chrisdorleybrownjohnfrankland"}},"6695727486":{"location":[51.5806563,-0.3443853],"ts":"2024-11-06T03:27:33Z","tz":0,"tags":{"addr:postcode":"HA1 4HX","addr:street":"Neptune Road","addr:unit":"2A","contact:email":"harrowall@londonclimbingcentres.co.uk","contact:instagram":"harrowall","contact:phone":"+44 20 3026 4960","fhrs:id":"1273865","leisure":"fitness_centre","name":"Harrowall","opening_hours":"Mo-Fr 10:00-23:00; Tu,Th 06:00-23:00; Sa,Su 08:00-22:00","sport":"climbing","website":"https://londonclimbingcentres.co.uk/centre/harrowall/"}},"8844791018":{"location":[51.5896021,-0.0409418],"ts":"2024-11-26T22:23:02Z","tz":0,"tags":{"addr:city":"London","addr:country":"GB","addr:housenumber":"4-6","addr:postcode":"E17 6DP","addr:street":"Hookers Road","leisure":"sports_centre","name":"Yonder Climbing","opening_hours":"Mo-Fr 07:00-22:00; Sa-Su 08:45-18:00","phone":"+44 20 3746 3869","sport":"climbing","website":"https://www.thisisyonder.com/yonder-climbing-new"}},"9031636962":{"location":[51.5346509,-0.0603288],"ts":"2024-07-29T13:59:37Z","tz":0,"tags":{"addr:city":"London","addr:housename":"Unit 30, Canal Place","addr:postcode":"E8 4FX","addr:street":"Andrews Road","climbing:boulder":"yes","climbing:sport":"no","climbing:toprope":"no","cuisine":"coffee_shop","email":"londonfields@thestrongholduk.com","fee":"yes","food":"yes","leisure":"sports_centre","name":"Stronghold London Fields","note":"Free bike storage for customers. Downstairs, approx 70 bike capacity. Ask at front desk.","opening_hours":"Mo-Fr 07:00-22:30; Sa-Su 09:00-21:00","operator":"Stronghold Climbing Centres","operator:type":"private_for_profit","payment:cash":"no","payment:contactless":"yes","payment:credit_cards":"yes","payment:debit_cards":"yes","payment:others":"no","phone":"+44 20 8350 2453","sport":"climbing","website":"https://www.thestrongholduk.com/locations/london-fields/","wheelchair":"limited"}},"9425765774":{"location":[51.5143877,-0.074975],"ts":"2024-04-12T15:22:10Z","tz":0,"tags":{"addr:city":"London","addr:housename":"Aldgate House","addr:housenumber":"33","addr:postcode":"EC3N 1AH","addr:street":"Aldgate High Street","climbing:boulder":"yes","climbing:sport":"no","climbing:toprope":"no","email":"info@citybouldering.co.uk","fee":"yes","leisure":"sports_centre","name":"City Bouldering","opening_hours":"Mo-Fr 06:30-23:00; Sa-Su 08:00-22:00","phone":"+44 20 7247 3121","service:climbing_harness:rental":"no","service:climbing_shoes:rental":"yes","service:climbing_shoes:rental:fee":"yes","sport":"climbing","website":"https://www.citybouldering.co.uk/"}},"9515319794":{"location":[51.5096695,-0.0273713],"ts":"2024-11-06T02:55:35Z","tz":0,"tags":{"addr:city":"London","addr:housename":"Arch 313","addr:housenumber":"21-23","addr:postcode":"E14 8AA","addr:street":"Trinidad Street","alt_name":"Canary Wall","climbing:boulder":"yes","climbing:sport":"no","climbing:toprope":"no","contact:instagram":"canarywall","contact:phone":"+44 20 3026 4964","fee":"yes","fixme":"Address needs triple checking. Seems inconsistent with neighbouring arches. Where does 21-23 Trinidad Street come from? It should be an arch number like the others.","leisure":"sports_centre","name":"Canary Wall","note":"Free bicycle parking inside for customers, ask for gate code at front desk. Approx 10 capacity, sheffield stands.","opening_hours":"Mo-Fr 11:00-23:00; Tu,Th 06:00-23:00; Sa,Su,PH 09:00-21:00","operator":"London Climbing Centres","operator:type":"private_for_profit","payment:cash":"no","payment:contactless":"yes","payment:credit_cards":"yes","payment:debit_cards":"yes","payment:others":"no","ref":"LIMV3130","sport":"climbing","website":"https://londonclimbingcentres.co.uk/centre/canarywall/"}},"9967520716":{"location":[51.5854474,-0.0607538],"ts":"2023-07-12T15:53:54Z","tz":0,"tags":{"addr:city":"London","addr:housename":"First Floor, Unit 10, The Archives, High Corss Centre","addr:postcode":"N15 4BE","addr:street":"Fountayne Road","check_date":"2022-08-21","cuisine":"coffee_shop","fee":"yes","fhrs:id":"1359537","food":"yes","leisure":"sports_centre","level":"1","name":"Stronghold Tottenham Hale","note":"Public free bike parking, capacity approx 20 on sheffield stands in car park outside.","opening_hours":"Mo,Tu,Fr 07:00-22:30; We,Th 08:00-22:30; Sa 09:00-19:00; Su 09:00-21:00","operator":"Stronghold Climbing Centres","operator:type":"private_for_profit","payment:contactless":"yes","payment:credit_cards":"yes","payment:debit_cards":"yes","payment:others":"no","sport":"climbing","website":"https://thestrongholduk.com/locations/tottenham-hale/"}},"10552592178":{"location":[51.5244151,-0.1420434],"ts":"2023-07-12T17:17:11Z","tz":0,"tags":{"addr:city":"London","addr:housenumber":"350","addr:postcode":"NW1 3AX","addr:street":"Euston Road","alt_name":"Euston Wall","climbing:boulder":"yes","climbing:sport":"no","climbing:toprope":"no","fee":"yes","leisure":"sports_centre","name":"EustonWall Climbing Centre","opening_hours":"Mo-Fr 06:00-23:00; Sa-Su,PH 09:00-21:00","operator":"London Climbing Centres","operator:type":"private_for_profit","payment:cash":"no","payment:contactless":"yes","payment:credit_cards":"yes","payment:debit_cards":"yes","payment:others":"no","sport":"climbing","website":"https://londonclimbingcentres.co.uk/centre/eustonwall/"}},"11042163878":{"location":[51.4955073,-0.0472809],"ts":"2023-07-12T17:19:58Z","tz":0,"tags":{"addr:city":"London","addr:housename":"Surrey Quays Shopping Centre","addr:postcode":"SE16 7LL","climbing:boulder":"yes","climbing:sport":"no","climbing:toprope":"no","fee":"yes","leisure":"sports_centre","name":"The Arch Climbing Wall Surrey Quays","opening_hours":"Mo-Fr 06:30-22:00; Sa-Su 09:00-21:00","operator":"Inner Ape Ltd","operator:type":"private_for_profit","payment:cash":"no","payment:contactless":"yes","payment:credit_cards":"yes","payment:debit_cards":"yes","payment:others":"no","sport":"climbing","website":"https://www.archclimbingwall.com/surrey-quays-centre"}},"11042290163":{"location":[51.5071808,-0.0971764],"ts":"2023-07-12T12:35:31Z","tz":0,"tags":{"addr:city":"London","addr:housename":"Unit 1b, Triptych Place","addr:housenumber":"185","addr:postcode":"SE1 9BL","addr:street":"Park Street","climbing:boulder":"yes","climbing:sport":"no","climbing:toprope":"no","fee":"yes","leisure":"sports_centre","name":"The Font Borough","note":"Free bicycle parking for customers inside.","opening_hours":"Mo-Fr 06:30-22:30; Sa-Su 10:00-18:00","operator":"The Font Climbing Ltd","operator:type":"private_for_profit","sport":"climbing","website":"https://www.the-font.co.uk/borough"}},"11343785902":{"location":[51.5094954,-0.2229755],"ts":"2023-11-12T16:53:54Z","tz":0,"tags":{"leisure":"sports_centre","name":"City Bouldering","sport":"climbing"}},"11747234586":{"location":[51.4650031,-0.1028668],"ts":"2024-10-31T21:57:53Z","tz":0,"tags":{"addr:city":"London","addr:housename":"Arch 266","addr:housenumber":"241","addr:postcode":"SW9 8RR","addr:street":"Coldharbour Lane","addr:unit":"266","check_date":"2024-10-31","leisure":"sports_centre","name":"Blocfit","phone":"+44 207 738 4585","sport":"climbing"}},"11780635082":{"location":[51.509725,-0.0274909],"ts":"2024-05-18T16:33:49Z","tz":0,"tags":{"addr:city":"London","addr:housename":"Arch 312","addr:housenumber":"312","addr:postcode":"E14 8AB","addr:street":"Trinidad Street","leisure":"sports_centre","name":"Canary Wall","note":"In arch under bridge","opening_hours:signed":"no","ref":"LIMV3120","sport":"climbing"}},"11780635084":{"location":[51.5095715,-0.0271245],"ts":"2024-04-08T04:42:21Z","tz":0,"tags":{"addr:city":"London","addr:housename":"Arch 315","addr:postcode":"E14 8AB","addr:street":"Trinidad Street","leisure":"sports_centre","name":"Canary Wall","ref":"LIMV3150","sport":"climbing"}}}