{"108807202":{"location":[49.3008235,-0.0742853],"ts":"2020-09-07T10:50:59Z","tz":1,"tags":{"building":"yes","leisure":"sports_centre","name":"Croquan","source":"cadastre-dgi-fr source : Direction Générale des Impôts - Cadastre. Mise à jour : 2011","sport":"climbing"}},"700578232":{"location":[49.1536232,-0.2894319],"ts":"2019-06-29T20:59:56Z","tz":1,"tags":{"addr:city":"Mondeville","addr:postcode":"14120","building":"yes","email":"contact@isatix.com","fee":"yes","leisure":"sports_centre","level":"0;1","name":"Isatix","opening_hours":"Mo-Fr 10:00-22:30; Sa,Su 10:00-20:00","payment:cash":"yes","payment:credit_cards":"yes","payment:mastercard":"yes","payment:visa":"yes","phone":"+33 2 31822133","source":"local knowledge;aerial imagery","sport":"climbing","website":"https://isatix.com/"}},"884073806":{"location":[49.1768261,-0.3513971],"ts":"2025-04-22T11:32:39Z","tz":1,"tags":{"addr:city":"Caen","addr:postcode":"14000","addr:street":"Les Rives de l'Orne","email":"caen@climb-up.fr","fee":"yes","indoor":"yes","leisure":"sports_centre","name":"Climb Up","opening_hours":"Mo-Fr 10:00-23:00; Sa,Su 10:00-21:00","phone":"+33 2 90 87 00 54","ref:FR:SIRET":"85187350500016","sport":"climbing","website":"https://caen.climb-up.fr/"}},"1280615601":{"location":[49.196626,-0.334074],"ts":"2025-01-12T18:10:48Z","tz":1,"tags":{"addr:housenumber":"4","addr:postcode":"14200","addr:street":"Boulevard du Grand Parc","building":"yes","email":"info@escaladeaventure.com","internet_access":"wlan","leisure":"sports_hall","name":"Escalade Aventure","opening_hours":"Mo-Fr 17:00-22:00; Sa 10:00-18:00","phone":"02 31 94 19 86","sport":"climbing","website":"https://escaladeaventure.com/","wheelchair":"yes"}}}