{"69035830":{"lat":48.1714434,"lon":17.1778087,"ts":"2023-11-06T02:49:00Z","tz":1,"tags":{"addr:city":"Bratislava","addr:conscriptionnumber":"631","addr:country":"SK","addr:housenumber":"631/1B","addr:postcode":"821 04","addr:street":"Stará Ivanská cesta","addr:streetnumber":"1B","building":"industrial","import":"budovy201004","leisure":"sports_centre","name":"Lezecká Stena K2","source":"kapor2","sport":"climbing","website":"https://www.lezeckastena.sk/"}},"1063997042":{"lat":48.1294919,"lon":17.1308657,"ts":"2022-05-26T11:34:47Z","tz":1,"tags":{"climbing":"route","climbing:trad":"yes","name":"Lezecká stena Slnečné hodiny","source":"Ortofotomozaika SR","sport":"climbing","support":"ground"}},"2437843115":{"lat":48.1427189,"lon":17.087671,"ts":"2018-06-15T16:23:07Z","tz":1,"tags":{"climbing:boulder":"yes","name":"Múrik - bouldering","sport":"climbing"}},"2654458764":{"lat":48.1524139,"lon":17.1389909,"ts":"2024-01-19T13:26:58Z","tz":1,"tags":{"email":"vertigo@lezeckecentrum.sk","leisure":"sports_centre","name":"Lezecké centrum Vertigo","opening_hours":"Mo 15:00-22:00; Tu-Th 07:00-22:00; Fr 09:00-22:00; Sa,Su 09:00-21:00","phone":"+421 948 223 173","sport":"climbing","website":"https://lezeckecentrum.sk"}},"4073869549":{"lat":48.1513003,"lon":17.1096152,"ts":"2023-11-10T02:30:01Z","tz":1,"tags":{"club":"sport","name":"Ferrata club","source":"survey","sport":"climbing","website":"https://www.ferrata.sk/"}},"8356176455":{"lat":48.1466371,"lon":17.1434942,"ts":"2021-01-24T00:25:57Z","tz":1,"tags":{"leisure":"pitch","source":"survey","sport":"climbing"}},"8933858827":{"lat":48.2144439,"lon":17.1644498,"ts":"2021-10-22T18:05:50Z","tz":1,"tags":{"alt_name":"Block Dock boulder","leisure":"sports_centre","name":"Block Dock","phone":"+421221020520","sport":"climbing","website":"https://blockdock.me"}},"11147301952":{"lat":48.1466827,"lon":17.1430372,"ts":"2023-08-27T00:01:16Z","tz":1,"tags":{"climbing:boulder":"yes","leisure":"pitch","source":"survey","sport":"climbing"}},"12498993265":{"lat":48.1985382,"lon":16.9869932,"ts":"2025-01-13T20:41:22Z","tz":1,"tags":{"climbing":"crag","name":"Kamenné srdce","sport":"climbing","url":"https://www.zagurami.eu/kamenne-srdce/"}}}