{"18282703":{"location":[44.684861,17.1758565],"ts":"2024-11-13T13:26:29Z","tz":1,"tags":{"climbing":"crag","name":"Amfiteatar","site":"climbing","type":"site"}},"18282748":{"location":[44.6839443,17.1708128],"ts":"2024-11-13T13:30:43Z","tz":1,"tags":{"climbing":"crag","name":"Oker","site":"climbing","type":"site"}},"18282749":{"location":[44.6861426,17.1768246],"ts":"2024-11-13T13:30:43Z","tz":1,"tags":{"climbing":"crag","name":"Krilo","site":"climbing","type":"site"}},"326375281":{"location":[44.7759729,17.2104128],"ts":"2023-10-28T00:54:10Z","tz":1,"tags":{"addr:city":"Banja Luka","addr:housenumber":"1","addr:postcode":"78000","addr:street":"Bulevar vojvode Petra Bojovića","building":"yes","club":"climbing","indoor":"yes","leisure":"sports_centre","name":"Penjački klub pk Extreme","phone":"+387 65 779 027","sport":"climbing","website":"https://www.extremebl.com/"}},"1323449974":{"location":[44.7775717,17.2118591],"ts":"2024-10-13T10:51:33Z","tz":1,"tags":{"leisure":"pitch","sport":"climbing"}},"4016477789":{"location":[44.684861,17.1758565],"ts":"2024-11-13T13:26:29Z","tz":1,"tags":{"climbing":"crag","name":"Amfiteatar","sport":"climbing"}},"6799417045":{"location":[44.6839443,17.1708128],"ts":"2019-09-16T13:22:16Z","tz":1,"tags":{"name":"Oker","sport":"climbing"}},"7052015958":{"location":[44.6861426,17.1768246],"ts":"2019-12-12T14:55:06Z","tz":1,"tags":{"climbing":"crag","climbing:rock":"limestone","climbing:sport":"12","name":"Krilo extension","name:en":"Krilo extension","sport":"climbing"}}}