{"7634847":{"location":[45.5401515,-122.3763846],"ts":"2017-10-07T17:56:38Z","tz":-8,"tags":{"name":"Broughton Bluff","sport":"climbing","type":"site"}},"107749087":{"location":[45.5232862,-122.6539391],"ts":"2024-03-06T06:21:52Z","tz":-8,"tags":{"addr:city":"Portland","addr:housenumber":"21","addr:postcode":"97232","addr:state":"OR","addr:street":"Northeast 12th Avenue","building":"yes","climbing:bolted":"yes","climbing:boulder":"yes","climbing:toprope":"yes","contact:phone":"+1-503-232-8310","contact:website":"https://www.portlandrockgym.com/","leisure":"sports_centre","name":"Portland Rock Gym","opening_hours":"Mo-Fr 07:00-23:00; Sa 09:00-21:00; Su 09:00-18:00","sport":"climbing"}},"166803490":{"location":[45.5331024,-122.6860669],"ts":"2023-10-24T18:32:07Z","tz":-8,"tags":{"addr:city":"Portland","addr:housenumber":"1405","addr:postcode":"97209","addr:state":"OR","addr:street":"Northwest 14th Avenue","branch":"Portland","building":"yes","building:levels":"2","climbing:boulder":"yes","climbing:toprope":"yes","contact:phone":"+1 503 477 5666","contact:website":"https://movementgyms.com/portland/","height":"10","leisure":"sports_centre","name":"Movement","opening_hours":"Mo-Fr 06:00-23:00; Sa 08:00-20:00; Su 08:00-18:00","sport":"climbing","was:name":"Planet Granite"}},"227086461":{"location":[45.5476705,-122.5622149],"ts":"2021-05-31T05:38:24Z","tz":-8,"tags":{"climbing":"boulder","climbing:rock":"basalt","name":"Schwingus - Rocky Butte Quarry","natural":"cliff"}},"227086462":{"location":[45.5494178,-122.5631292],"ts":"2013-06-24T05:09:29Z","tz":-8,"tags":{"climbing":"crag","climbing:rock":"basalt","name":"Rocky Butte Quarry","natural":"cliff"}},"227086463":{"location":[45.5514272,-122.5665969],"ts":"2021-10-17T07:01:12Z","tz":-8,"tags":{"climbing":"crag","climbing:rock":"basalt","name":"Rocky Butte Quarry","natural":"cliff"}},"306350417":{"location":[45.480292,-122.6723814],"ts":"2020-06-18T07:18:12Z","tz":-8,"tags":{"addr:city":"Portland","addr:housenumber":"6050","addr:postcode":"97239","addr:state":"OR","addr:street":"South Macadam Avenue","addr:unit":"C","building":"yes","leisure":"sports_centre","name":"The Circuit","phone":"+1-503-246-5111","sport":"climbing","website":"https://www.thecircuitgym.com/"}},"357277878":{"location":[45.5401515,-122.3763846],"ts":"2020-09-15T23:18:30Z","tz":-8,"tags":{"ele":"118","gnis:feature_id":"1118117","name":"Broughton Bluff","natural":"cliff","sport":"climbing"}},"553164748":{"location":[45.3907909,-122.4572424],"ts":"2019-11-09T23:54:17Z","tz":-8,"tags":{"climbing:rock":"basalt","name":"Madrone Wall","natural":"cliff","sport":"climbing"}},"4591494889":{"location":[45.5260439,-122.6480475],"ts":"2025-02-11T05:58:56Z","tz":-8,"tags":{"addr:city":"Portland","addr:housenumber":"410","addr:postcode":"97232","addr:state":"OR","addr:street":"Northeast 17th Avenue","climbing:boulder":"yes","climbing:toprope":"no","contact:phone":"+1-503-719-7041","contact:website":"https://www.thecircuitgym.com/northeast","leisure":"sports_centre","name":"The Circuit Northeast","opening_hours":"Mo,We,Fr 10:00-23:00; Tu,Th 07:00-23:00; Sa,Su 09:00-23:00","sport":"climbing"}},"12164570416":{"location":[45.5053187,-122.6535076],"ts":"2024-09-08T23:50:31Z","tz":-8,"tags":{"addr:city":"Portland","addr:housenumber":"2436","addr:postcode":"97214","addr:state":"OR","addr:street":"Southeast 12th Avenue","climbing:boulder":"yes","contact:website":"https://www.skyhookbouldering.com/","leisure":"sports_centre","name":"Skyhook Bouldering","sport":"climbing"}}}