{"19340106":{"location":[37.7653418,-122.4373033],"ts":"2025-07-10T05:41:07Z","tz":-8,"tags":{"climbing":"crag","name":"Beaver Street Wall","site":"climbing","sport":"climbing","type":"site"}},"24334661":{"location":[37.8043617,-122.4683743],"ts":"2025-06-12T00:06:52Z","tz":-8,"tags":{"addr:housenumber":"924","addr:postcode":"94129","addr:street":"Mason Street","building":"sports_centre","fee":"yes","height":"10","leisure":"sports_centre","name":"Movement San Francisco","old_name:-2021":"Planet Granite San Francisco","opening_hours":"Mo-Fr 06:00-23:00,Sa 08:00-20:00,Su 08:00-18:00","sport":"climbing","toilets":"customers","website":"https://movementgyms.com/san-francisco/"}},"113283290":{"location":[37.7606787,-122.4124142],"ts":"2023-11-23T15:46:17Z","tz":-8,"tags":{"addr:city":"San Francisco","addr:housenumber":"2295","addr:postcode":"94110","addr:street":"Harrison Street","building":"yes","changing_table":"yes","changing_table:count":"2","changing_table:location":"female_toilet;male_toilet","check_date":"2023-02-13","fee":"yes","indoor":"yes","leisure":"sports_centre","name":"Mission Cliffs","opening_hours":"Mo-Fr 06:00-22:00; Sa-Su 08:00-19:00","operator":"Touchstone Climbing Inc.","operator:type":"private","outdoor":"no","payment:mastercard":"yes","payment:visa":"yes","phone":"+1 415-550-0515","sport":"climbing","website":"https://touchstoneclimbing.com/mission-cliffs/"}},"295776961":{"location":[37.8857335,-122.6296351],"ts":"2014-08-04T06:30:13Z","tz":-8,"tags":{"name":"The Egg","natural":"stone","sport":"climbing"}},"329837638":{"location":[37.8885505,-122.632643],"ts":"2021-04-15T22:03:32Z","tz":-8,"tags":{"description":"110' tall rock with shear face.  Access via indicated trall.  Note climbing bolts on top.","name":"Main Rock","natural":"stone","source":"survey","sport":"climbing"}},"329837642":{"location":[37.8916977,-122.6351716],"ts":"2015-02-23T10:36:29Z","tz":-8,"tags":{"name":"Old Man Boulder","natural":"stone","sport":"climbing"}},"498803169":{"location":[37.7777825,-122.5135632],"ts":"2017-06-07T08:20:09Z","tz":-8,"tags":{"area":"yes","climbing":"crag","name":"Cliff House Boulders","sport":"climbing"}},"498803170":{"location":[37.7653418,-122.4372851],"ts":"2017-06-07T08:20:10Z","tz":-8,"tags":{"climbing":"route","climbing:grade:yds_class":"5.10a","name":"Beaver Street Crack","sport":"climbing"}},"498803171":{"location":[37.7653353,-122.437309],"ts":"2017-06-07T08:20:10Z","tz":-8,"tags":{"climbing":"route","climbing:grade:yds_class":"5.11b","name":"Beaver Street Right","sport":"climbing"}},"498803172":{"location":[37.7653435,-122.4372974],"ts":"2017-06-07T08:20:10Z","tz":-8,"tags":{"climbing":"route","climbing:grade:yds_class":"5.11a","name":"Beaver Street Direct","sport":"climbing"}},"498811296":{"location":[37.9110748,-122.4915836],"ts":"2017-06-07T08:52:11Z","tz":-8,"tags":{"climbing":"boulder","name":"Turtle Rock","natural":"rock","sport":"climbing"}},"498811303":{"location":[37.9117193,-122.4851259],"ts":"2017-06-07T08:52:12Z","tz":-8,"tags":{"climbing":"crag","name":"Split Rock","natural":"rock","sport":"climbing"}},"1147540862":{"location":[37.8773276,-122.6181131],"ts":"2023-02-19T08:40:57Z","tz":-8,"tags":{"name":"Vent 5","natural":"cliff","sport":"climbing"}},"3367837859":{"location":[37.8918313,-122.6353429],"ts":"2015-02-23T10:36:29Z","tz":-8,"tags":{"name":"Stinson Beach Boulders","sport":"climbing"}},"4004802465":{"location":[37.7888897,-122.4217728],"ts":"2023-07-11T03:43:47Z","tz":-8,"tags":{"addr:city":"San Francisco","addr:country":"US","addr:housenumber":"1414","addr:postcode":"94109","addr:state":"CA","addr:street":"Van Ness Avenue","check_date":"2023-07-10","contact:facebook":"benchmarkclimbing","contact:instagram":"benchmarkclimbing","email":"info@benchmarkclimbing.com","leisure":"sports_centre","name":"Benchmark Climbing","opening_hours":"Mo-Fr 11:00-22:00; Sa,Su 10:00-19:00","opening_hours:url":"https://www.benchmarkclimbing.com/locations","phone":"+1 415 9137490","sport":"climbing","website":"https://www.benchmarkclimbing.com/","wheelchair":"yes"}},"4057014702":{"location":[37.7566304,-122.3877723],"ts":"2019-09-24T04:50:10Z","tz":-8,"tags":{"addr:city":"San Francisco","addr:housenumber":"2573","addr:postcode":"94107","addr:street":"3rd Street","changing_table":"yes","changing_table:count":"2","changing_table:location":"female_toilet;male_toilet","leisure":"sports_centre","name":"Dogpatch Boulders","opening_hours":"Mo 07:00-22:00; Tu 11:00-23:00; We 07:00-22:00; Th 11:00-23:00; Fr 07:00-22:00; Sa-Su 10:00-19:00","sport":"climbing","website":"https://touchstoneclimbing.com/dogpatch-boulders/"}},"4901432250":{"location":[37.7653601,-122.4372858],"ts":"2017-06-07T08:20:09Z","tz":-8,"tags":{"climbing":"route_bottom"}},"4901432251":{"location":[37.7653236,-122.4372794],"ts":"2017-06-07T08:20:09Z","tz":-8,"tags":{"climbing":"route_top"}},"4901432256":{"location":[37.7653488,-122.4373064],"ts":"2017-06-07T08:20:09Z","tz":-8,"tags":{"climbing":"route_bottom"}},"4901432257":{"location":[37.7653399,-122.4373272],"ts":"2017-06-07T08:20:09Z","tz":-8,"tags":{"climbing":"route_bottom"}},"12908540320":{"location":[37.8042407,-122.4683933],"ts":"2025-06-12T00:06:52Z","tz":-8,"tags":{"opening_hours":"Mo-Fr 06:00-23:00, Sa 08:00-20:00, Su 08:00-18:00","shop":"sports; snack","sport":"climbing"}}}