{"9186198":{"location":[46.0782486,6.1119772],"ts":"2024-09-03T18:56:14Z","tz":1,"tags":{"climbing":"route","name":"Via Ferrata Jacques Révaclier","route":"via_ferrata","type":"route","via_ferrata_scale":"4"}},"17858268":{"location":[46.1850926,6.272081],"ts":"2024-09-16T19:36:08Z","tz":1,"tags":{"addr:city":"Vétraz-Monthoux","addr:housenumber":"10","addr:postcode":"74100","addr:street":"Allée des Chênes","brand:wikidata":"Q124329187","building":"yes","building:levels":"2","charge":"17 EUR/day","climbing:boulder":"yes","climbing:grade:french:max":"8A","climbing:grade:french:min":"4","climbing:speed":"no","climbing:sport":"no","contact:facebook":"arkosegenevois","contact:instagram":"arkose.genevois","description":"Salle d'escalade de Bloc, Yoga, Restaurant","fee":"yes","image":"https://arkose.com/files/img/page/ee00f21511f6c/b25b5e9e65-disp.jpg","internet_access":"no","leisure":"sports_centre","name":"Arkose Genevois","opening_hours":"Mo-Su 07:00-00:00","payment:cards":"yes","payment:cash":"yes","payment:mastercard":"yes","payment:qr_code":"no","payment:visa":"yes","phone":"+33 4 57 43 60 62","service:climbing_shoes:rental":"yes","service:climbing_shoes:rental:fee":"yes","shower":"hot","smoking":"no","sport":"climbing","website":"https://arkose.com/genevois","wheelchair":"yes"}},"254362837":{"location":[46.1802282,6.1565224],"ts":"2013-12-30T18:02:15Z","tz":1,"tags":{"leisure":"pitch","sport":"climbing"}},"660594434":{"location":[46.0787455,6.1135424],"ts":"2024-09-03T18:56:14Z","tz":1,"tags":{"climbing":"crag","name":"Le Belvédère","natural":"cliff"}},"2412952105":{"location":[46.1355567,6.1841627],"ts":"2024-08-30T20:47:21Z","tz":1,"tags":{"denotation":"natural_monument","ele":"1280","height":"5","material":"sandstone","name":"Rochers de Faverges","name:en":"Rochers de Faverges","natural":"stone","sport":"climbing","tourism":"attraction"}},"2622294522":{"location":[46.1603593,6.1967859],"ts":"2024-05-09T10:53:19Z","tz":1,"tags":{"ele":"700","name":"Salève - Canapé","natural":"cliff","ref:camptocamp":"103306","sport":"climbing"}},"2622303116":{"location":[46.163437,6.2054295],"ts":"2024-05-09T10:53:19Z","tz":1,"tags":{"ele":"750","name":"Salève - Monnetier","ref:camptocamp":"103305","sport":"climbing"}},"3205119250":{"location":[46.1366423,6.1647283],"ts":"2019-03-18T20:48:54Z","tz":1,"tags":{"climbing:boulder":"yes","climbing:rock":"limestone","height":"200","name":"Le Coin","natural":"cliff","sport":"climbing","website":"http://www.cactus-sports.ch/topos/topos.html"}},"3205119251":{"location":[46.142004,6.1706228],"ts":"2020-07-22T07:39:28Z","tz":1,"tags":{"ele":"800","name":"Bloc la plaine de l'Ours","natural":"rock","sport":"climbing"}},"3205136772":{"location":[46.1865344,6.1598724],"ts":"2014-11-25T19:43:41Z","tz":1,"tags":{"leisure":"sports_centre","sport":"climbing"}},"4407921595":{"location":[46.2210352,6.0880368],"ts":"2023-11-04T08:35:01Z","tz":1,"tags":{"addr:city":"Vernier","addr:housenumber":"18","addr:postcode":"1214","addr:street":"Chemin des Batailles","climbing:boulder":"yes","leisure":"sports_centre","name":"Structure Pan d'Escalade","sport":"climbing","website":"https://www.panstructure.ch/"}},"6324167030":{"location":[46.1505682,6.1791068],"ts":"2020-07-20T14:23:38Z","tz":1,"tags":{"height":"3","name":"Bloc du Golf","name:en":"Boulder the Golf","natural":"rock","sport":"climbing"}},"6324891612":{"location":[46.1483334,6.1774993],"ts":"2020-07-20T14:24:26Z","tz":1,"tags":{"height":"3","name":"Bloc de la Lame","name:en":"Boulder la Lame","natural":"rock","sport":"climbing"}},"6324951921":{"location":[46.1374119,6.1595926],"ts":"2020-07-20T14:27:29Z","tz":1,"tags":{"height":"5","name":"Bloc du Carrousel","name:en":"Boulder Carrousel","natural":"rock","sport":"climbing","website":"http://www.cactus-sports.ch/topos/topos.html"}},"6325047495":{"location":[46.1321695,6.1702971],"ts":"2023-04-21T01:17:52Z","tz":1,"tags":{"height":"20","name":"Falaise des Balmes","name:en":"Cliff Les Balmes","natural":"cliff","sport":"climbing","website":"http://www.cactus-sports.ch/topos/topos.html"}},"6345925123":{"location":[46.1362029,6.1630204],"ts":"2020-07-22T07:39:28Z","tz":1,"tags":{"name":"Bloc l'Alpinodrome","natural":"rock","sport":"climbing"}},"6345933663":{"location":[46.1355801,6.1628297],"ts":"2021-08-23T23:52:51Z","tz":1,"tags":{"height":"10","name":"Bloc Les fonctionnaires","natural":"rock","sport":"climbing"}},"6345935074":{"location":[46.1349846,6.1640188],"ts":"2020-07-22T07:39:28Z","tz":1,"tags":{"height":"20","name":"La Corne","natural":"cliff","sport":"climbing"}},"7172991285":{"location":[46.2588078,6.0314383],"ts":"2023-08-17T21:14:02Z","tz":1,"tags":{"addr:city":"Saint-Genis-Pouilly","addr:housenumber":"550","addr:postcode":"01630","addr:street":"Rue du Mont Blanc","charge":"15 EUR","email":"contact@cortigrimpe01.fr","fee":"yes","leisure":"sports_centre","name":"Cortigrimpe 01","opening_hours":"Mo,Tu,Th,Fr 11:00-22:00, We 10:00-22:00, Sa,Su 10:00-19:00","payment:cash":"yes","payment:credit_cards":"yes","payment:debit_cards":"yes","phone":"+33 4 50 13 32 18","sport":"climbing","website":"https://cortigrimpe01.fr/"}},"7728399087":{"location":[46.2750655,6.1673318],"ts":"2023-08-21T08:48:30Z","tz":1,"tags":{"addr:city":"Versoix","addr:housenumber":"2","addr:postcode":"1290","addr:street":"Chemin de la Scie","fee":"yes","leisure":"sports_centre","name":"Totem Versoix","opening_hours":"Mo-Fr 10:00-22:30, Sa-Su 13:30-20:00","sport":"climbing"}},"7731566830":{"location":[46.1410253,6.1678029],"ts":"2020-07-22T07:39:28Z","tz":1,"tags":{"name":"Blocs Nounours","natural":"rock","sport":"climbing"}},"7731640131":{"location":[46.1402047,6.1668291],"ts":"2022-02-21T18:23:53Z","tz":1,"tags":{"name":"Blocs à Ralf","natural":"rock","sport":"climbing"}},"7964489633":{"location":[46.1541194,6.193152],"ts":"2024-08-18T07:51:16Z","tz":1,"tags":{"leisure":"sports_centre","sport":"climbing"}},"9134858988":{"location":[46.2225809,6.0728939],"ts":"2023-05-01T14:57:55Z","tz":1,"tags":{"addr:city":"Meyrin","addr:housenumber":"5B","addr:postcode":"1217","addr:street":"Rue Emma-Kammacher","charge":"18CHF","email":"contact@totem.ch","fee":"yes","leisure":"sports_centre","name":"Totem Meyrin","opening_hours":"Mo-Fr 09:00-22:30; Sa, Su 09:00-20:00","phone":"+41 22 995 94 23","sport":"climbing","website":"https://totem.ch/my","wheelchair":"yes"}},"9160275224":{"location":[46.3035204,6.3087407],"ts":"2021-10-09T10:12:06Z","tz":1,"tags":{"location":"indoor","source":"Le ministère de la ville, de la jeunesse et des sports - 2021-04","sport":"climbing"}},"10289256906":{"location":[46.1847629,6.1382651],"ts":"2022-12-27T10:18:47Z","tz":1,"tags":{"access":"private","addr:city":"Carouge","addr:housenumber":"3","addr:postcode":"1227","addr:street":"Rue des Charmettes","fee":"no","leisure":"sports_centre","operator":"Club Alpin Suisse - Carouge","sport":"climbing"}},"11012073064":{"location":[46.191027,6.12231],"ts":"2024-06-19T09:42:42Z","tz":1,"tags":{"climbing":"boulder","fitness_station":"boulder","leisure":"fitness_station","sport":"fitness"}},"11012073065":{"location":[46.1908881,6.1225488],"ts":"2024-06-19T09:42:42Z","tz":1,"tags":{"climbing":"boulder","fitness_station":"boulder","leisure":"fitness_station","sport":"fitness"}},"11012073066":{"location":[46.1909136,6.1223979],"ts":"2024-06-19T09:42:42Z","tz":1,"tags":{"climbing":"boulder","fitness_station":"boulder","leisure":"fitness_station","sport":"fitness"}},"11097921537":{"location":[46.1657444,6.1033001],"ts":"2023-11-03T19:13:51Z","tz":1,"tags":{"name":"Planet Climbing","opening_hours":"Mo-Fr 10:00-22:00; Sa, Su 10:00-21:00","sport":"climbing","website":"https://planetclimbing.ch/plan-les-ouates"}},"11819175472":{"location":[46.2219648,6.1198436],"ts":"2024-04-15T14:33:08Z","tz":1,"tags":{"leisure":"sports_centre","name":"Salla d'Escalade André Chavanna","sport":"climbing"}}}