{"458233394":{"lat":43.1605977,"lon":6.0024353,"ts":"2017-01-30T15:30:20Z","tz":1,"tags":{"ele":"627","name":"Batterie Sud","sport":"climbing"}},"2938063180":{"lat":43.13531,"lon":6.09797,"ts":"2014-06-28T21:19:40Z","tz":1,"tags":{"name":"Rochers-Le Fenouillet","source":"data.gouv.fr:Le ministère des droits des femmes, de la ville, de la jeunesse et des sports - 2014","sport":"climbing"}},"3832714396":{"lat":43.1602867,"lon":6.009726,"ts":"2024-03-22T09:41:20Z","tz":1,"tags":{"climbing":"route","climbing:sport":"yes","name":"Kilian'S Vertical","outdoor":"yes","sport":"climbing"}},"9739961204":{"lat":43.2357226,"lon":6.0763293,"ts":"2022-05-14T17:11:33Z","tz":1,"tags":{"amenity":"dojo","source":"Le ministère de la ville, de la jeunesse et des sports - 2021-04","sport":"climbing"}},"11728828249":{"lat":43.1383924,"lon":5.9990624,"ts":"2025-02-23T21:10:59Z","tz":1,"tags":{"addr:city":"La valette-du-Var","addr:postcode":"83160","addr:street":"Avenue Lavoisier","email":"toulon@vertical-art.fr","leisure":"sports_centre","name":"Vertical'art Toulon","opening_hours":"Mo-Fr 11:00-23:00, Sa-Su 09:00-21:00","phone":"+33494205592","sport":"climbing"}}}