{"4927102957":{"location":[48.953824,2.3219625],"ts":"2022-08-31T09:58:48Z","tz":1,"tags":{"addr:city":"Épinay-sur-Seine","addr:housenumber":"8","addr:postcode":"93800","addr:street":"Rue Henri Wallon","building":"yes","climbing:boulder":"no","climbing:speed":"no","climbing:sport":"yes","climbing:toprope":"yes","climbing:traditional":"no","fee":"yes","indoor":"yes","leisure":"sports_centre","name":"Climb Up Épinay","opening_hours":"Mo-Tu 12:00-23:00; We 10:00-23:00; Th-Fr 12:00-23:00; Sa 10:00-20:00; Su 10:00-18:00","phone":"+33 1 48 21 80 39","sport":"climbing","website":"https://epinay.climb-up.fr/"}},"8018668925":{"location":[48.9916968,2.2209295],"ts":"2021-03-31T00:50:01Z","tz":1,"tags":{"addr:housenumber":"25","addr:street":"Avenue des Marais","leisure":"sports_centre","name":"Big Wall Franconville","sport":"climbing","website":"https://bigwallfranconville.fr"}},"9735127671":{"location":[48.9732565,2.366593],"ts":"2022-05-12T14:12:55Z","tz":1,"tags":{"addr:city":"Pierrefitte-sur-Seine","addr:housenumber":"156","addr:postcode":"93380","addr:street":"Boulevard Jean Mermoz","climbing:length":"9","climbing:toprope":"yes","club":"sport","federation":"FSGT","name":"AS Pierrefitte","sport":"climbing","website":"https://www.aspierrefitte.fr/"}},"9735138532":{"location":[48.9229864,2.4244632],"ts":"2023-03-07T18:48:35Z","tz":1,"tags":{"addr:housenumber":"100","climbing:length":"6","climbing:routes":"10","climbing:toprope":"yes","club":"sport","federation":"FSGT","name":"AS Drancy - section escalade","sport":"climbing","website":"https://www.asdrancy.fr/sections/escalade.html"}},"9735141088":{"location":[48.9289748,2.3885353],"ts":"2022-05-12T14:05:02Z","tz":1,"tags":{"addr:city":"La Courneuve","addr:housenumber":"5","addr:postcode":"93120","addr:street":"Sente de la Souche","climbing:toprope":"yes","club":"sport","federation":"FSGT","name":"APACHE","sport":"climbing"}},"9735287255":{"location":[48.9542515,2.3690204],"ts":"2022-05-12T15:41:46Z","tz":1,"tags":{"addr:city":"Stains","addr:housenumber":"31","addr:postcode":"93240","addr:street":"Rue d'Amiens","climbing:length":"6,5","climbing:routes":"20","climbing:toprope":"yes","club":"sport","federation":"FSGT","name":"ES Stains Escalade","sport":"climbing","website":"https://www.esstains-escalade.com/"}},"11407434121":{"location":[48.9856765,2.2442539],"ts":"2023-12-10T14:20:40Z","tz":1,"tags":{"leisure":"pitch","sport":"climbing"}},"12891914406":{"location":[48.9237513,2.3548025],"ts":"2025-06-06T13:10:37Z","tz":1,"tags":{"leisure":"sports_centre","name":"Arkose Saint Denis","sport":"climbing"}}}