{"16246552":{"lat":48.8940856,"lon":2.2167709,"ts":"2022-01-25T03:25:00Z","tz":1,"tags":{"image":"https://upload.wikimedia.org/wikipedia/commons/9/92/Mur_d_escalage_du_Parc_départemental_André-Malraux_Nanterre.jpg","leisure":"pitch","lit":"no","name":"Mur d'escalade","source":"survey;BDOrtho IGN 2022","sport":"climbing"}},"70665205":{"lat":48.7227211,"lon":2.2696439,"ts":"2021-10-16T10:07:12Z","tz":1,"tags":{"building":"yes","climbing:boulder":"yes","climbing:sport":"no","climbing:toprope":"no","climbing:traditional":"no","leisure":"sports_centre","name":"Blocpark Arkose","opening_hours":"Mo-Su 07:00-00:00;PH open","phone":"+33 1 64 47 07 47","source":"cadastre-dgi-fr source : Direction Générale des Impôts - Cadastre. Mise à jour : 2010","sport":"climbing","website":"https://massy.arkose.com/"}},"70666217":{"lat":48.7341615,"lon":2.2683816,"ts":"2022-04-20T21:00:54Z","tz":1,"tags":{"building":"yes","climbing:boulder":"no","climbing:speed":"yes","climbing:sport":"yes","climbing:toprope":"yes","climbing:traditional":"no","leisure":"sports_centre","name":"Salle de difficulté","source":"cadastre-dgi-fr source : Direction Générale des Impôts - Cadastre. Mise à jour : 2010","sport":"climbing"}},"74625508":{"lat":48.8136337,"lon":2.1251853,"ts":"2024-08-21T13:09:54Z","tz":1,"tags":{"addr:city":"Versailles","addr:housenumber":"11","addr:postcode":"78000","addr:street":"Rue Exelmans","building":"yes","climbing:boulder":"yes","climbing:sport":"no","fee":"yes","leisure":"sports_centre","name":"Blocbuster","opening_hours":"Mo,Tu,Th,Fr 11:00-23:00; We 09:00-23:00; Sa-Su 09:00-20:00","phone":"+33 1 30 21 63 53","source":"extraction vectorielle v1 cadastre-dgi-fr source : Direction Générale des Impôts - Cadas. Mise à jour : 2010","sport":"climbing","wall":"no","website":"https://blocbuster.fr/versailles/"}},"77743146":{"lat":48.844596,"lon":2.3062818,"ts":"2025-02-15T20:27:30Z","tz":1,"tags":{"addr:city":"Paris","addr:housenumber":"27","addr:postcode":"75015","addr:street":"Rue François Bonvin","building":"yes","building:levels":"4","contact:city":"Paris","contact:housenumber":"27","contact:phone":"+33 6 52 63 72 67","contact:postcode":"75015","contact:street":"Rue François Bonvin","denomination":"gallican","fee":"yes","leisure":"sports_centre","name":"Climbing District Sèvres-Lecourbe","opening_hours":"Mo-Fr 07:00-24:00; Sa-Su 08:00-24:00","operator":"Climbing District","operator:type":"private","source":"Cadastre. Mise à jour : 2010;wikipedia","sport":"climbing","website":"https://climbingdistrict.com/"}},"79083537":{"lat":48.8209087,"lon":2.3651181,"ts":"2022-07-08T13:27:39Z","tz":1,"tags":{"building":"yes","building:levels":"1","leisure":"sports_centre","name":"Gymnase de Choisy","source":"cadastre-dgi-fr source : Direction Générale des Impôts - Cadastre. Mise à jour : 2010","sport":"climbing"}},"79084780":{"lat":48.8209304,"lon":2.3649062,"ts":"2022-04-08T20:25:57Z","tz":1,"tags":{"access":"members","building":"school","building:levels":"1","leisure":"sports_centre","name":"Gymnase Choisy-Masséna","source":"cadastre-dgi-fr source : Direction Générale des Impôts - Cadastre. Mise à jour : 2010;local knowledge","sport":"climbing"}},"79804379":{"lat":48.8270313,"lon":2.3355884,"ts":"2023-11-24T12:09:03Z","tz":1,"tags":{"building":"yes","leisure":"sports_centre","name":"Gymnase Alice Milliat","source":"cadastre-dgi-fr source : Direction Générale des Impôts - Cadastre. Mise à jour : 2010","sport":"climbing","wheelchair":"limited"}},"81618772":{"lat":48.8606051,"lon":2.4174993,"ts":"2022-05-13T18:16:20Z","tz":1,"tags":{"building":"yes","leisure":"sports_centre","name":"Gymnase Georges Politzer","source":"extraction vectorielle v1 cadastre-dgi-fr source : Direction Générale des Impôts - Cadas. Mise à jour : 2010","sport":"climbing"}},"81776027":{"lat":48.8516273,"lon":2.4192722,"ts":"2024-04-05T06:15:23Z","tz":1,"tags":{"addr:city":"Montreuil","addr:housenumber":"33","addr:postcode":"93100","addr:street":"Rue du Progrès","building":"yes","building:levels":"2","climbing:boulder":"yes","fee":"yes","indoor":"yes","leisure":"sports_centre","name":"Arkose Montreuil","opening_hours":"Mo-Su 07:00-00:00","phone":"+33 1 49 88 45 07","source":"cadastre-dgi-fr source : Direction Générale des Impôts - Cadastre. Mise à jour : 2011","sport":"climbing","website":"https://www.arkose.com/montreuil"}},"131396195":{"lat":48.9131634,"lon":2.1857722,"ts":"2022-02-08T21:54:02Z","tz":1,"tags":{"building":"sports_hall","opening_hours":"Mo-Fr 08:00-22:30; Sa 09:00-19:00","source":"cadastre-dgi-fr source : Direction Générale des Impôts - Cadastre. Mise à jour : 2011","sport":"climbing"}},"177175453":{"lat":48.7112106,"lon":2.1942003,"ts":"2024-05-09T10:53:19Z","tz":1,"tags":{"climbing:boulder":"yes","climbing:sport":"no","climbing:toprope":"no","climbing:traditional":"no","description":"Anciennes carrières de la Troche ; désormais, site d'escalade","landuse":"recreation_ground","name":"Carrière de la Troche","natural":"rock","opening_hours":"24/7","operator":"Communes de Palaiseau et d'Orsay","outdoor":"yes","ref:camptocamp":"166764","sport":"climbing","url":"https://bleau.info/troche"}},"335581893":{"lat":48.8755313,"lon":2.3531198,"ts":"2018-07-17T16:33:56Z","tz":1,"tags":{"addr:city":"Paris","addr:housenumber":"5","addr:postcode":"75010","addr:street":"Rue Léon Schwartzenberg","building":"yes","leisure":"sports_centre","name":"Centre sportif Marie-Paradis","source":"cadastre-dgi-fr source : Direction Générale des Impôts - Cadastre. Mise à jour : 2017","sport":"climbing","website":"http://equipement.paris.fr/centre-sportif-marieparadis-ex-saint-lazare-16438"}},"463549966":{"lat":48.8234134,"lon":2.2624384,"ts":"2023-11-11T20:44:28Z","tz":1,"tags":{"addr:city":"Issy-les-Moulineaux","addr:country":"FR","addr:housename":"Les Arches d'Issy","addr:housenumber":"1-6","addr:postcode":"92130","addr:street":"Boulevard Garibaldi","brand":"MurMur","climbing:boulder":"yes","climbing:length":"11,5","climbing:speed":"no","climbing:sport":"yes","climbing:toprope":"yes","climbing:traditional":"no","leisure":"sports_centre","name":"MurMur Issy","name:en":"Arkose Issy-les-Moulineaux (ex MurMur)","name:fr":"Arkose Issy-les-Moulineaux (ex MurMur)","opening_hours":"Mo-Su 07:00-24:00; PH open","phone":"+33 1 58 88 00 22","source":"cadastre-dgi-fr source : Direction Générale des Impôts - Cadastre. Mise à jour : 2009","sport":"climbing","website":"https://arkose.com/"}},"505413150":{"lat":48.7338469,"lon":2.2683031,"ts":"2021-10-16T10:09:57Z","tz":1,"tags":{"building":"yes","climbing:boulder":"yes","climbing:sport":"no","climbing:toprope":"no","climbing:traditional":"no","leisure":"sports_centre","name":"Salle de bloc","sport":"climbing"}},"578168218":{"lat":48.8328225,"lon":2.2992154,"ts":"2022-06-06T13:46:01Z","tz":1,"tags":{"climbing:boulder":"yes","climbing:sport":"no","climbing:toprope":"no","climbing:traditional":"no","leisure":"sports_centre","name:signed":"no","sport":"climbing","survey:date":"2020-05-23"}},"658587628":{"lat":48.7656169,"lon":2.4030951,"ts":"2018-12-27T21:58:44Z","tz":1,"tags":{"leisure":"playground","sport":"climbing"}},"698905776":{"lat":48.9087587,"lon":2.4480779,"ts":"2019-06-21T14:14:27Z","tz":1,"tags":{"leisure":"sports_centre","name":"mur d'escalade","sport":"climbing"}},"789357451":{"lat":48.8664522,"lon":2.3834175,"ts":"2023-03-05T22:24:11Z","tz":1,"tags":{"access":"yes","climbing:boulder":"yes","fee":"no","leisure":"pitch","lit":"yes","name":"Jardin Jane Avril","source:name":"cadsatre","sport":"climbing"}},"802278283":{"lat":48.8074483,"lon":2.4121667,"ts":"2024-08-21T13:47:53Z","tz":1,"tags":{"addr:city":"Alfortville","addr:housenumber":"11","addr:postcode":"94140","addr:street":"Rue Parmentier","climbing:boulder":"yes","climbing:sport":"no","email":"contact@hardbloc.fr","fee":"yes","indoor":"yes","leisure":"sports_centre","name":"Hardbloc","opening_hours":"Mo-Fr 10:30-22:30; Sa-Su 10:00-20:00","phone":"+33 6 09 85 57 15","sport":"climbing","website":"https://www.hardbloc.fr"}},"837152672":{"lat":48.9143663,"lon":2.3748807,"ts":"2020-10-24T18:15:27Z","tz":1,"tags":{"building":"school","leisure":"sports_centre","sport":"climbing"}},"925644897":{"lat":48.8999561,"lon":2.3510963,"ts":"2021-04-03T19:50:46Z","tz":1,"tags":{"description":"Need a climbing club license.","fee":"no","leisure":"sports_centre","name":"Mur des poissoniers","sport":"climbing"}},"975258168":{"lat":48.8261766,"lon":2.3150353,"ts":"2023-11-24T13:11:22Z","tz":1,"tags":{"addr:city":"Paris","addr:housenumber":"101","addr:postcode":"75014","addr:street":"Boulevard Brune","building":"yes","climbing":"boulder","climbing:boulder":"yes","climbing:speed":"no","climbing:sport":"no","climbing:toprope":"no","climbing:traditional":"no","email":"contactdidot@arkose.com","fee":"yes","leisure":"sports_centre","name":"Arkose Didot","opening_hours":"Mo-Su 07:00-24:00","phone":"+33 1 77 35 44 11","service:climbing_shoes:rental":"yes","service:climbing_shoes:rental:fee":"yes","sport":"climbing","website":"https://didot.arkose.com","wheelchair":"limited"}},"1040866442":{"lat":48.8317337,"lon":2.3736061,"ts":"2024-12-01T08:56:03Z","tz":1,"tags":{"architect":"Odile + Guzy Architectes","building":"yes","layer":"-1","leisure":"sports_hall","location":"underground","name":"Gymnase Charcot","note":"parc sur le toit du gymnase","sport":"climbing","start_date":"2020"}},"1047413570":{"lat":48.8541873,"lon":2.392825,"ts":"2022-04-02T13:18:52Z","tz":1,"tags":{"leisure":"sports_centre","name":"Mur Philippe Auguste","sport":"climbing","website":"https://www.cimes19.fr/2021/04/03/collectif-esterieurs/"}},"1071941782":{"lat":48.8924713,"lon":2.2618849,"ts":"2022-06-21T12:10:12Z","tz":1,"tags":{"leisure":"sports_centre","man_made":"tower","sport":"climbing","tower:type":"climbing"}},"1144467565":{"lat":48.8818146,"lon":2.3261641,"ts":"2024-03-26T12:57:39Z","tz":1,"tags":{"addr:housenumber":"26 bis","addr:postcode":"75008","addr:street":"Rue de Saint-Pétersbourg","building":"church","building:levels":"6","check_date":"2024-03-26","climbing:boulder":"no","climbing:toprope":"yes","climbing:traditional":"no","denomination":"catholic","disused:amenity":"place_of_worship","disused:religion":"christian","email":"26@climbingdistrict.com","fee":"yes","indoor":"yes","internet_access":"wlan","internet_access:fee":"no","leisure":"sports_centre","name":"Climbing District Saint-Lazare","opening_hours":"Mo-Fr 07:00-00:00; Sa-Su 08:00-00:00","operator:type":"private","payment:cash":"yes","payment:credit_cards":"yes","payment:debit_cards":"yes","phone":"+33 7 69 12 51 33","sport":"climbing","website":"https://climbingdistrict.com/saint-lazare/"}},"1158743849":{"lat":48.8664504,"lon":2.3834175,"ts":"2023-03-31T15:14:32Z","tz":1,"tags":{"access":"yes","area":"yes","climbing:boulder":"yes","fee":"no","lit":"yes","name":"Jardin Jane Avril","source:name":"cadsatre","sport":"climbing"}},"1966811708":{"lat":48.9113364,"lon":2.3247937,"ts":"2023-05-08T08:48:50Z","tz":1,"tags":{"addr:housenumber":"50","alt_name":"Block Out","amenity":"restaurant","bar":"yes","brand":"Block'Out","climbing:boulder":"yes","climbing:sport":"no","climbing:toprope":"no","climbing:traditional":"no","leisure":"sports_centre","name":"Block'Out","opening_hours":"Mo-Fr 11:00-23:00; Sa-Su 09:00-21:00; PH 09:00-21:00","phone":"+33 1 40 10 91 50","sport":"climbing","website":"https://www.blockout.fr/bo2-paris","wheelchair":"yes"}},"2199815454":{"lat":48.830478,"lon":2.2434026,"ts":"2022-07-08T13:27:39Z","tz":1,"tags":{"addr:city":"Boulogne-Billancourt","addr:postcode":"92100","addr:street":"Rue de Clamart","climbing:boulder":"no","climbing:length":"12","climbing:routes":"35","climbing:sport":"yes","climbing:toprope":"yes","climbing:traditional":"no","club":"sport","federation":"FFME","name":"Agrippine Club d'Escalade","sport":"climbing","url":"https://www.agrippine.com/","website":"https://www.agrippine.com"}},"2934286437":{"lat":48.8182242,"lon":2.1387497,"ts":"2017-04-13T18:29:39Z","tz":1,"tags":{"source":"data.gouv.fr:Le ministère des droits des femmes, de la ville, de la jeunesse et des sports - 2014","sport":"climbing"}},"2934286444":{"lat":48.8308607,"lon":2.1320356,"ts":"2014-06-26T14:10:43Z","tz":1,"tags":{"source":"data.gouv.fr:Le ministère des droits des femmes, de la ville, de la jeunesse et des sports - 2014","sport":"climbing"}},"3105289259":{"lat":48.8516526,"lon":2.4192138,"ts":"2025-01-20T20:55:45Z","tz":1,"tags":{"addr:city":"Montreuil","addr:housenumber":"33","addr:postcode":"93100","addr:street":"Rue du Progrès","brand":"Arkose","climbing:boulder":"yes","club":"sport","fee":"yes","leisure":"sports_centre","name":"Arkose Montreuil","opening_hours":"Mo-Su 07:00-00:00","phone":"+33 1 49 88 45 07","smoking":"outside","sport":"climbing","website":"https://arkose.com/montreuil"}},"3168767886":{"lat":48.78133,"lon":2.19156,"ts":"2021-11-02T21:27:11Z","tz":1,"tags":{"name":"Mur du collège Maryse Bastié","source":"data.gouv.fr:Le ministère des droits des femmes, de la ville, de la jeunesse et des sports - 2014","sport":"climbing"}},"3427783125":{"lat":48.8039911,"lon":2.3654203,"ts":"2023-11-26T10:40:11Z","tz":1,"tags":{"brand":"Antrebloc","climbing:boulder":"yes","climbing:length":"11","climbing:routes":"21","climbing:toprope":"yes","contact:city":"Villejuif","contact:email":"contact@antrebloc.com","contact:housenumber":"5","contact:phone":"+33 1 47 26 52 44","contact:postcode":"94800","contact:street":"Rue Henri Barbusse","contact:website":"https://www.antrebloc.com/","fee":"yes","indoor":"yes","leisure":"sports_centre","name":"Antrebloc","opening_hours":"Mo-Fr 11:00-23:00; Sa-Su 10:00-19:00","sport":"climbing"}},"3693601597":{"lat":48.9048246,"lon":2.3406325,"ts":"2015-08-12T15:07:56Z","tz":1,"tags":{"source":"data.gouv.fr:Le ministère des droits des femmes, de la ville, de la jeunesse et des sports - 2014","sport":"climbing"}},"3756603528":{"lat":48.8904763,"lon":2.1216596,"ts":"2015-09-23T22:30:07Z","tz":1,"tags":{"source":"data.gouv.fr:Le ministère des droits des femmes, de la ville, de la jeunesse et des sports - 2014","sport":"climbing"}},"4107643277":{"lat":48.7129704,"lon":2.18433,"ts":"2024-05-26T13:16:28Z","tz":1,"tags":{"alt_name":"Le Toit d'Orsay","climbing":"crag","climbing:boulder":"yes","climbing:sport":"no","climbing:toprope":"no","climbing:traditional":"no","name":"Le Toit d'Orsay","natural":"cave_entrance","ref:bleau.info":"orsay","source:alt_name":"nom donné par les grimpeurs","sport":"climbing","url":"https://bleau.info/orsay"}},"4323654289":{"lat":48.8030207,"lon":2.142372,"ts":"2021-11-02T21:29:28Z","tz":1,"tags":{"climbing:boulder":"no","climbing:speed":"no","climbing:sport":"yes","climbing:toprope":"yes","climbing:traditional":"no","leisure":"sports_centre","name":"Mur d'escalade","source":"data.gouv.fr:Le ministère des droits des femmes, de la ville, de la jeunesse et des sports - 11/2015","sport":"climbing","website":"https://ecversailles.fr/"}},"4752600712":{"lat":48.9060403,"lon":2.2584894,"ts":"2022-12-27T16:48:49Z","tz":1,"tags":{"addr:city":"Courbevoie","addr:housenumber":"47","addr:postcode":"92400","addr:street":"Avenue de l'Europe","brand":"Blocbuster","climbing:boulder":"yes","climbing:sport":"no","climbing:toprope":"no","climbing:traditional":"no","fee":"yes","leisure":"sports_centre","name":"Blocbuster","opening_hours":"Mo-Fr 11:00-23:00; Sa-Su 10:00-20:00;PH 10:00-20:00","phone":"+33 1 71 12 86 32","sport":"climbing","website":"https://blocbuster.fr/","wheelchair":"no"}},"4926983305":{"lat":48.7518716,"lon":2.3736781,"ts":"2022-03-13T13:59:26Z","tz":1,"tags":{"addr:housenumber":"3","addr:street":"Rue des Alouettes","charge":"14 EUR","climbing:boulder":"no","climbing:speed":"no","climbing:sport":"yes","climbing:toprope":"yes","climbing:traditional":"no","email":"info@roc-et-resine.fr","fee":"yes","indoor":"yes","leisure":"sports_centre","name":"Roc & Résine","opening_hours":"Mo-Fr 11:00-23:00; Sa,Su 09:30-20:00","phone":"+33 1 46 75 04 21","sport":"climbing","website":"https://rocetresine.com/"}},"5003109330":{"lat":48.8575349,"lon":2.3451996,"ts":"2024-01-03T08:22:20Z","tz":1,"tags":{"access":"yes","leisure":"playground","sport":"climbing","survey:date":"2024-01-03"}},"5003109332":{"lat":48.8552638,"lon":2.3522362,"ts":"2024-01-03T08:22:20Z","tz":1,"tags":{"playground":"climbingframe","sport":"climbing","survey:date":"2024-01-03"}},"5104890766":{"lat":48.8511883,"lon":2.4023078,"ts":"2023-12-21T14:07:53Z","tz":1,"tags":{"addr:housenumber":"35","addr:street":"Rue des Grands Champs","brand":"Arkose","climbing:boulder":"yes","climbing:speed":"no","climbing:sport":"no","climbing:toprope":"no","climbing:traditional":"no","email":"contactnation@arkose.com","fee":"yes","leisure":"sports_centre","name":"Arkose Nation","opening_hours":"Mo-Fr 07:00-24:00; Sa-Su 09:00-24:00","phone":"+33 1 71 93 14 34","sport":"climbing","website":"https://arkose.com/nation"}},"5177676110":{"lat":48.7417891,"lon":2.3500682,"ts":"2021-11-02T21:18:22Z","tz":1,"tags":{"addr:city":"Rungis","addr:housenumber":"133","addr:postcode":"94150","addr:street":"Rue des Solets","climbing:boulder":"yes","climbing:sport":"no","climbing:toprope":"no","climbing:traditional":"no","email":"rungis@vertical-art.fr","leisure":"sports_centre","name":"Vertical'Art","opening_hours":"Mo-Fr 11:00-23:00; Sa-Su 09:00-21:00","phone":"+33 1 84 25 66 11","sport":"climbing","website":"https://rungis.vertical-art.fr/"}},"5582060594":{"lat":48.8272623,"lon":2.3355295,"ts":"2022-12-10T12:33:46Z","tz":1,"tags":{"access":"members","climbing:length":"10","climbing:routes":"44","climbing:sport":"yes","climbing:toprope":"yes","club":"sport","contact:city":"Paris","contact:postcode":"75014","contact:street":"Rue d'Alésia","contact:website":"https://roc14.org","description":"Mur d'escalade de l'association Roc 14","federation":"FSGT","name":"Roc 14","sport":"climbing"}},"5838825485":{"lat":48.8438668,"lon":2.3354141,"ts":"2022-10-14T18:02:41Z","tz":1,"tags":{"addr:city":"Paris","addr:postcode":"75006","addr:street":"Rue Auguste Comte","climbing:length":"6.50","climbing:routes":"17","climbing:toprope":"yes","club":"sport","description":"Grimpo6 est une association d’escalade et de trail (et peut-être d’autres activités plus tard !), encore très jeune, créée le 1er juillet 2017.\n\nGrimpo6 est affiliée à la FSGT et fait partie du comité de Paris.","email":"grimpo6-contact@framalistes.org","federation":"FSGT","internet_access":"no","level":"-1","name":"Grimpo6","opening_hours":"Mo 18:30-22:30; Tu 20:00-22:30; We 18:30-22:30; Th 18:30-22:30; Fr 20:00-22:30; Sa 13:00-18:30; Su 12:00-18:00","source":"yes;survey","sport":"climbing","website":"https://grimpo6.org","wheelchair":"limited"}},"5876008085":{"lat":48.9074505,"lon":2.3749419,"ts":"2025-01-20T19:22:25Z","tz":1,"tags":{"addr:city":"Aubervilliers","addr:housenumber":"111","addr:postcode":"93300","addr:street":"Avenue Victor Hugo","amenity":"restaurant","brand":"Climb Up","climbing:boulder":"yes","climbing:length":"10","climbing:routes":"200","climbing:toprope":"yes","contact:facebook":"https://www.facebook.com/ClimbUpAubervilliers/","contact:tripadvisor":"https://www.tripadvisor.fr/Attraction_Review-g3347617-d23981562-Reviews-Climb_Up_Aubervilliers-Aubervilliers_Seine_Saint_Denis_Ile_de_France.html","fee":"yes","leisure":"sports_centre","name":"Climb Up Aubervilliers","opening_hours":"Mo 18:35-23:36; Tu-Fr 08:00-00:00; Sa-Su 09:00-23:00","sport":"climbing","start_date":"2022-04-21","website":"https://aubervilliers.climb-up.fr/"}},"5984213874":{"lat":48.7865477,"lon":2.3260867,"ts":"2022-08-27T11:51:40Z","tz":1,"tags":{"leisure":"pitch","source":"data.gouv.fr:Le ministère des droits des femmes, de la ville, de la jeunesse et des sports - 11/2015","sport":"climbing","surface":"wood"}},"5984213877":{"lat":48.7848228,"lon":2.325066,"ts":"2018-10-14T23:34:10Z","tz":1,"tags":{"description":"Mur d'escalade intérieur","leisure":"pitch","source":"data.gouv.fr:Le ministère des droits des femmes, de la ville, de la jeunesse et des sports - 11/2015","sport":"climbing"}},"5984213880":{"lat":48.7849065,"lon":2.3252318,"ts":"2018-10-14T23:34:10Z","tz":1,"tags":{"description":"Mur d'escalade extérieur","leisure":"pitch","source":"data.gouv.fr:Le ministère des droits des femmes, de la ville, de la jeunesse et des sports - 11/2015","sport":"climbing"}},"6943326863":{"lat":48.8510268,"lon":2.2592708,"ts":"2023-06-03T22:57:31Z","tz":1,"tags":{"max_age":"12","playground":"climbingwall","sport":"climbing"}},"7026657132":{"lat":48.7644279,"lon":2.197385,"ts":"2019-12-02T16:49:12Z","tz":1,"tags":{"climbing":"route","sport":"climbing"}},"7071524730":{"lat":48.8764889,"lon":2.3059703,"ts":"2025-01-28T21:51:37Z","tz":1,"tags":{"addr:city":"Paris","addr:housenumber":"7","addr:postcode":"75008","addr:street":"Allée Louis de Funès","climbing:length":"19","climbing:routes":"18","climbing:toprope":"yes","club":"sport","federation":"FFME","leisure":"pitch","name":"Le 8 assure","sport":"climbing"}},"7117231204":{"lat":48.8592436,"lon":2.4275588,"ts":"2024-08-28T18:59:45Z","tz":1,"tags":{"addr:city":"Montreuil","addr:postcode":"93100","addr:street":"Boulevard Chanzy","check_date":"2024-08-28","climbing:length":"7","climbing:routes":"12","climbing:toprope":"yes","club":"sport","federation":"FSGT","leisure":"sports_centre","name":"Escalade Populaire Montreuilloise","sport":"climbing"}},"7275090334":{"lat":48.902353,"lon":2.4004617,"ts":"2024-11-07T17:01:18Z","tz":1,"tags":{"addr:city":"Pantin","addr:housenumber":"55","addr:postcode":"93500","addr:street":"Rue Cartier Bresson","brand":"Arkose","building":"yes","climbing:boulder":"yes","climbing:routes":"75","contact:email":"contactpantin@arkose.com","contact:phone":"+33 1 74 88 06 61","fee":"17€","leisure":"sports_centre","name":"Arkose Pantin","opening_hours":"Mo-Su 07:00-00:00","payment:cash":"yes","payment:credit_cards":"yes","sport":"climbing","website":"https://arkose.com/pantin"}},"7918375387":{"lat":48.8242317,"lon":2.3145864,"ts":"2020-09-17T21:08:06Z","tz":1,"tags":{"leisure":"pitch","sport":"climbing"}},"7919388583":{"lat":48.907597,"lon":2.3819029,"ts":"2020-09-19T14:17:15Z","tz":1,"tags":{"access":"permissive","building":"school","climbing:length:max":"8","climbing:routes":"7","indoor":"yes","leisure":"sports_centre","name":"Mur d'escalade du collège Gisèle Halimi","opening_hours":"Mo 20:00-22:00; We 20:00-22:00","sport":"climbing"}},"8301096321":{"lat":48.8911894,"lon":2.3105121,"ts":"2024-02-23T09:40:51Z","tz":1,"tags":{"addr:city":"Paris","addr:housenumber":"69","addr:postcode":"75017","addr:street":"Rue Mstislav Rostropovitch","brand":"Climbing District","check_date":"2023-07-20","climbing:boulder":"yes","climbing:sport":"no","climbing:toprope":"no","climbing:traditional":"no","fee":"yes","leisure":"sports_centre","name":"Climbing District Batignolles","opening_hours":"mo-su 07:00-24:00","operator:type":"private","phone":"+33 7 49 85 88 16","sport":"climbing","website":"https://www.climbingdistrict.com","wheelchair":"no"}},"8608463149":{"lat":48.8783646,"lon":2.3954333,"ts":"2021-09-11T08:18:46Z","tz":1,"tags":{"addr:housenumber":"5","addr:street":"Rue des Lilas","climbing:length":"7.5","leisure":"sports_centre","name":"Mur du gymnase des Lilas","sport":"climbing"}},"8608536803":{"lat":48.8275898,"lon":2.2940341,"ts":"2022-07-08T13:27:39Z","tz":1,"tags":{"addr:city":"Paris","addr:postcode":"75015","addr:street":"Rue du Général Guillaumat","climbing:length":"10","climbing:routes":"24","climbing:toprope":"yes","club":"sport","club:name":"ESC 15 escalade","federation":"FSGT","leisure":"sports_centre","name":"ESC 15 escalade","sport":"climbing","website":"https://www.esc15escalade.fr/page/171886-la-plaine"}},"8608559350":{"lat":48.8204917,"lon":2.3647676,"ts":"2021-08-21T08:48:01Z","tz":1,"tags":{"addr:housenumber":"4 bis","addr:street":"Avenue de Choisy","leisure":"sports_centre","name":"Gymnase de Choisy","sport":"climbing","website":"https://paris.fr/equipements/gymnase-choisy-19548"}},"8942657492":{"lat":48.9029109,"lon":2.4012722,"ts":"2023-02-14T18:57:38Z","tz":1,"tags":{"addr:city":"Pantin","brand":"MurMur","building":"yes","climbing:boulder":"yes","climbing:grade:french:max":"9a","climbing:length":"9","climbing:length:max":"17","climbing:rock":"32","climbing:routes":"100","climbing:sport":"yes","contact:email":"contactpantin@murmur.fr","contact:phone":"+33 1 48 46 11 00","fee":"yes","information":"terminal","leisure":"sports_centre","level":"0","name":"MurMur Pantin","opening_hours":"Mo-Th 09:30-23:00; Fr 09:30-24:00; Sa 09:30-20:00; Su 09:30-18:30; Dec 25 off; Jan 1 off","payment:cash":"yes","payment:credit_cards":"yes","sport":"climbing","website":"https://www.murmur.fr/salle-escalade-pantin/"}},"9044357052":{"lat":48.832988,"lon":2.3856966,"ts":"2022-05-12T09:21:38Z","tz":1,"tags":{"addr:city":"Paris","addr:housenumber":"24","addr:postcode":"75012","addr:street":"François truffaut","brand":"Le Triangle","climbing:boulder":"yes","climbing:sport":"no","climbing:toprope":"no","climbing:traditional":"no","leisure":"sports_centre","name":"Le Triangle","opening_hours":"Mo-Su 07:00-00:00","phone":"+33 7 77 94 60 05","sport":"climbing","website":"https://www.letriangle.net/"}},"9066641127":{"lat":48.9074274,"lon":2.3977601,"ts":"2022-12-29T09:16:21Z","tz":1,"tags":{"climbing":"boulder","fee":"no","fixme":"position","outdoor":"yes","playground":"climbingwall","sport":"climbing"}},"9155195318":{"lat":48.8290418,"lon":2.2332023,"ts":"2023-10-05T18:40:38Z","tz":1,"tags":{"addr:city":"Boulogne-Billancourt","addr:housenumber":"177","addr:postcode":"92100","addr:street":"Allée du Forum","brand":"Arkose","check_date":"2023-10-05","climbing:boulder":"yes","climbing:speed":"no","climbing:sport":"yes","climbing:toprope":"no","climbing:traditional":"no","contact:website":"https://pontdesevres.arkose.com/","email":"contactpontdesevres@arkose.com","leisure":"sports_centre","name":"Arkose Pont de Sèvres","opening_hours":"Mo-Su 07:00-00:00; PH open","payment:mastercard":"yes","payment:visa":"yes","phone":"+33 1 77 35 36 01","shop":"sports","sport":"climbing","website":"https://pontdesevres.arkose.com/"}},"9213692464":{"lat":48.8815868,"lon":2.3734136,"ts":"2025-03-27T17:48:34Z","tz":1,"tags":{"addr:city":"Paris","addr:housenumber":"55","addr:postcode":"75019","addr:street":"Rue de Meaux","brand":"Climbing District","check_date":"2025-03-27","climbing:boulder":"yes","climbing:sport":"no","climbing:toprope":"no","climbing:traditional":"no","fee":"yes","leisure":"sports_centre","name":"Climbing District Buttes-Chaumont","opening_hours":"Mo-Fr 07:00-00:00; Sa-Su 08:00-00:00","payment:mastercard":"yes","payment:visa":"yes","phone":"+33 6 70 05 44 48","sport":"climbing","website":"https://climbingdistrict.com/"}},"9233033506":{"lat":48.8881537,"lon":2.4298131,"ts":"2024-07-07T12:14:19Z","tz":1,"tags":{"access":"no","name":"Mur d'escalade","playground":"climbingwall","sport":"climbing"}},"9355532901":{"lat":48.7898322,"lon":2.2280887,"ts":"2023-08-17T20:56:03Z","tz":1,"tags":{"climbing:boulder":"yes","climbing:length":"10","climbing:routes":"27","climbing:toprope":"yes","club":"sport","contact:facebook":"https://www.facebook.com/asmescalade92","description":"Le Club ASM Escalade à Meudon accueille les grimpeurs enfants, adultes et comités d'entreprise au gymnase Pierre et Marie Curie à Meudon-la-Forêt.","email":"asmesc@gmail.com","federation":"FFME","name":"Les grimpeurs de Meudon","operator":"ASM Escalade","phone":"+33672943906","sport":"climbing","website":"https://www.asm-escalade.com/"}},"9355621973":{"lat":48.7897817,"lon":2.2278928,"ts":"2021-12-21T12:52:58Z","tz":1,"tags":{"addr:city":"Meudon","addr:postcode":"92360","addr:street":"Rue Pierre et Marie Curie","indoor":"yes","leisure":"sports_centre","name":"Salle d'escalade Pierre et Marie Curie","sport":"climbing"}},"9394086166":{"lat":48.8504392,"lon":2.2801022,"ts":"2022-01-05T11:06:24Z","tz":1,"tags":{"leisure":"sports_centre","sport":"climbing"}},"9394086167":{"lat":48.8502732,"lon":2.2798736,"ts":"2022-11-22T01:32:29Z","tz":1,"tags":{"leisure":"fitness_station","sport":"climbing"}},"9394086168":{"lat":48.8501576,"lon":2.2800626,"ts":"2022-11-22T01:32:29Z","tz":1,"tags":{"leisure":"fitness_station","sport":"climbing"}},"9394086169":{"lat":48.8503144,"lon":2.2803019,"ts":"2022-01-05T11:06:24Z","tz":1,"tags":{"leisure":"sports_centre","sport":"climbing"}},"9456207103":{"lat":48.8335023,"lon":2.3686051,"ts":"2025-01-20T21:24:59Z","tz":1,"tags":{"addr:city":"Paris","addr:housenumber":"181","addr:postcode":"75013","addr:street":"Rue du Chevaleret","amenity":"bar","brand":"Arkose","climbing:boulder":"yes","climbing:grade:french:min":"4a","climbing:sport":"no","climbing:toprope":"no","climbing:traditional":"no","contact:phone":"+33 1 45 85 87 04","leisure":"sports_centre","name":"Arkose Chevaleret","opening_hours":"Mo-Su 07:00-00:00","operator":"Arkose","operator:type":"private_for_profit","phone":"+33 1 45 85 87 04","sport":"climbing","website":"https://arkose.com/chevaleret"}},"9620314580":{"lat":48.7450862,"lon":2.2887424,"ts":"2024-11-12T17:33:15Z","tz":1,"tags":{"access":"yes","climbing":"boulder","noname":"yes","panoramax":"50f364ee-e547-46d4-b69e-2304d46f8aed","sport":"climbing"}},"9652629892":{"lat":48.8416532,"lon":2.3890677,"ts":"2022-07-08T13:27:39Z","tz":1,"tags":{"addr:city":"Paris","addr:postcode":"75012","addr:street":"Rue Antoine-Julien Hénard","climbing:boulder":"yes","climbing:length":"7","climbing:routes":"10","climbing:toprope":"yes","club":"sport","federation":"FSGT","name":"Vertical 12","sport":"climbing","website":"https://www.vertical12.org/"}},"9652670432":{"lat":48.8542398,"lon":2.3929971,"ts":"2022-05-12T09:59:43Z","tz":1,"tags":{"addr:city":"Paris","addr:housenumber":"68","addr:postcode":"75011","addr:street":"Avenue Philippe Auguste","climbing:length":"7","climbing:routes":"15","climbing:toprope":"yes","club":"sport","federation":"FSGT","name":"Onze C+","sport":"climbing","website":"https://onzecplus.org/"}},"9652672480":{"lat":48.82722,"lon":2.3427969,"ts":"2022-07-08T13:01:29Z","tz":1,"tags":{"climbing:length":"9","climbing:routes":"19","climbing:toprope":"yes","club":"sport","federation":"FSGT","name":"Cordée 13","sport":"climbing","website":"https://cordee13.fr/"}},"9652684652":{"lat":48.8208557,"lon":2.3649359,"ts":"2022-07-08T13:27:39Z","tz":1,"tags":{"addr:city":"Paris","addr:postcode":"75013","addr:street":"Avenue de Choisy","climbing:length":"9","climbing:routes":"32","climbing:toprope":"yes","club":"sport","federation":"FSGT","name":"Grimpe 13","sport":"climbing","website":"https://www.grimpe13.org/"}},"9652688861":{"lat":48.874242,"lon":2.4118853,"ts":"2023-07-21T14:57:09Z","tz":1,"tags":{"addr:city":"Paris","addr:postcode":"75020","addr:street":"Rue Paul Meurice","alt_name":"LE MUR ESCALADE","climbing:length":"8.9","climbing:routes":"18","climbing:toprope":"yes","club":"sport","federation":"FSGT","name":"Le Mur","sport":"climbing","website":"https://www.lemur-escalade.org"}},"9652692741":{"lat":48.8755844,"lon":2.3532495,"ts":"2022-07-08T13:27:39Z","tz":1,"tags":{"addr:city":"Paris","addr:postcode":"75010","addr:street":"Rue Léon Schwartzenberg","climbing:length":"6","climbing:routes":"16","climbing:toprope":"yes","club":"sport","federation":"FSGT","name":"Faites le mur","sport":"climbing","website":"https://faiteslemur.org/"}},"9652696905":{"lat":48.8930987,"lon":2.3967281,"ts":"2022-05-12T08:20:54Z","tz":1,"tags":{"addr:city":"Paris","addr:postcode":"75019","addr:street":"Route des Petits Ponts","climbing:boulder":"yes","climbing:length":"12","climbing:routes":"30","climbing:toprope":"yes","club":"sport","federation":"FSGT","name":"Cimes 19","sport":"climbing","website":"https://www.cimes19.fr/"}},"9652775587":{"lat":48.877866,"lon":2.3329101,"ts":"2023-07-21T14:57:09Z","tz":1,"tags":{"addr:city":"Paris","addr:postcode":"75009","addr:street":"Rue de la Tour des Dames","alt_name":"Neuf à pic","climbing:toprope":"yes","club":"sport","federation":"FSGT","name":"9apic","sport":"climbing","website":"https://www.9apic.org"}},"9652780697":{"lat":48.8417463,"lon":2.2954641,"ts":"2024-09-23T11:58:47Z","tz":1,"tags":{"addr:city":"Paris","addr:postcode":"75015","addr:street":"Rue de la Croix Nivert","check_date":"2024-09-23","climbing:boulder":"yes","climbing:length":"6,5","climbing:routes":"15","climbing:toprope":"yes","club":"sport","federation":"FSGT","name":"ESC 15 escalade","sport":"climbing","website":"https://www.esc15escalade.fr/"}},"9660447811":{"lat":48.8611058,"lon":2.4176237,"ts":"2022-07-08T13:27:39Z","tz":1,"tags":{"addr:city":"Bagnolet","addr:postcode":"93170","addr:street":"Avenue de la République","climbing:length":"8","climbing:routes":"30","climbing:toprope":"yes","club":"sport","federation":"FSGT","name":"ASG Bagnolet - section escalade","sport":"climbing","website":"https://escalade-bagnolet-asgb.fr/"}},"9660447812":{"lat":48.9084679,"lon":2.4345491,"ts":"2022-07-08T13:27:39Z","tz":1,"tags":{"addr:city":"Bobigny","addr:postcode":"93000","addr:street":"Rue du Pré Souverain","climbing:routes":"17","climbing:toprope":"yes","club":"sport","federation":"FSGT","name":"Athlétic Club de Bobigny - section escalade & montagne","sport":"climbing","website":"escaladeacb.free.fr"}},"9660447814":{"lat":48.8150511,"lon":2.3996896,"ts":"2022-05-12T13:37:16Z","tz":1,"tags":{"addr:city":"Ivry-sur-Seine","addr:housenumber":"28","addr:postcode":"94200","addr:street":"Boulevard de Brandebourg","climbing:length":"6,5","climbing:routes":"19","climbing:toprope":"yes","club":"sport","federation":"FSGT","name":"US Ivry section Montagne Escalade","sport":"climbing","website":"http://escalade.usivry.org/"}},"9733049784":{"lat":48.8961615,"lon":2.3116202,"ts":"2022-07-08T13:04:54Z","tz":1,"tags":{"climbing:length":"7","climbing:toprope":"yes","club":"sport","federation":"FFME","name":"17e Degré","sport":"climbing"}},"9734432016":{"lat":48.8789929,"lon":2.44299,"ts":"2022-05-12T09:46:50Z","tz":1,"tags":{"addr:city":"Romainville","addr:housenumber":"15","addr:postcode":"93230","addr:street":"Rue Pasteur","building":"school","climbing:length":"11","height":"11","leisure":"sports_centre","name":"Mur d'escalade du complexe sportif Jean Guimier","sport":"climbing"}},"9735124143":{"lat":48.8808903,"lon":2.2179574,"ts":"2023-07-21T14:57:09Z","tz":1,"tags":{"addr:city":"Nanterre","addr:housenumber":"22","addr:postcode":"92000","addr:street":"Rue de Suresnes","alt_name":"ES Nanterre","climbing:length":"9","climbing:routes":"20","climbing:toprope":"yes","club":"sport","federation":"FSGT","name":"Nanterre Grimpe","sport":"climbing","website":"http://esnanterre-grimpe.fr/"}},"9735173671":{"lat":48.9048118,"lon":2.340782,"ts":"2022-05-12T14:18:48Z","tz":1,"tags":{"addr:city":"Saint-Ouen","addr:housenumber":"8","addr:postcode":"93400","addr:street":"Rue Pierre Curie","climbing:length":"6,5","climbing:routes":"64","climbing:toprope":"yes","club":"sport","federation":"FSGT","name":"USMA","sport":"climbing","website":"http://www.usma-escalade.fr/"}},"9735342638":{"lat":48.8029899,"lon":2.4075949,"ts":"2024-06-26T10:33:25Z","tz":1,"tags":{"addr:city":"Vitry-sur-Seine","addr:housenumber":"22","addr:postcode":"94400","addr:street":"Rue Charles Fourier","check_date":"2024-06-26","climbing:toprope":"yes","club":"sport","federation":"FSGT","name":"Quatre Plus","sport":"climbing","website":"http://quatreplus.org/"}},"9735387512":{"lat":48.842761,"lon":2.3395659,"ts":"2022-05-12T16:06:37Z","tz":1,"tags":{"addr:city":"Paris","addr:housenumber":"11","addr:postcode":"75005","addr:street":"Rue Henri Barbusse","climbing:boulder":"yes","climbing:length":"10","climbing:toprope":"yes","club":"sport","federation":"FFME","name":"Escalad'Indoor","sport":"climbing","website":"https://www.escalad-indoor.com/"}},"9735422902":{"lat":48.8468884,"lon":2.4063364,"ts":"2022-05-12T16:22:42Z","tz":1,"tags":{"brand":"Just Climb It","climbing:boulder":"yes","club":"sport","name":"Just Climb It","sport":"climbing","website":"https://just-climb-it.com/"}},"10048915769":{"lat":48.7060137,"lon":2.4487871,"ts":"2023-02-18T07:58:14Z","tz":1,"tags":{"leisure":"sports_centre","man_made":"yes","sport":"climbing"}},"11059671162":{"lat":48.7847146,"lon":2.3599945,"ts":"2023-07-21T14:57:09Z","tz":1,"tags":{"club":"sport","contact:email":"bureau@villejuifaltitude.org","federation":"FSGT","name":"Villejuif Altitude","sport":"climbing","website":"https://villejuifaltitude.org/"}},"11162412436":{"lat":48.8477962,"lon":2.370589,"ts":"2024-04-09T20:20:30Z","tz":1,"tags":{"addr:city":"Paris","addr:housenumber":"37","addr:postcode":"75012","addr:street":"Avenue Ledru-Rollin","air_conditioning":"yes","brand":"Climbing District","climbing:boulder":"yes","email":"bastille@climbingdistrict.com","fee":"yes","leisure":"sports_centre","name":"Climbing District Bastille","opening_hours":"Mo-Fr 07:00-24:00; Sa-Su 08:00-24:00","phone":"+33 7 68 56 19 24","sport":"climbing","website":"https://climbingdistrict.com/salle-escalade-bastille/"}},"11197714747":{"lat":48.9000571,"lon":2.2131495,"ts":"2023-11-25T17:39:53Z","tz":1,"tags":{"addr:city":"Nanterre","addr:housenumber":"189","addr:postcode":"92000","addr:street":"Allée de Corse","description":"pour enfants","leisure":"sports_centre","name":"Hapik","opening_hours":"We 10:40-17:00; Fr 14:40-17:00; Sa 10:40-20:00; Su 10:40-19:00","phone":"+33 1 47 24 45 96","sport":"climbing","website":"https://hapik.fr/centres-tarifs/nanterre"}},"11228753539":{"lat":48.871864,"lon":2.3513924,"ts":"2025-01-18T10:55:11Z","tz":1,"tags":{"addr:housenumber":"21","addr:postcode":"75010","addr:street":"Rue d'Enghien","brand":"Arkose","leisure":"fitness_centre","name":"Arkose Strasbourg Saint-Denis","opening_hours":"Mo-Su 07:00-00:00","phone":"+33 1 77 37 91 00","sport":"climbing","website":"https://arkose.com/"}},"11265502857":{"lat":48.709371,"lon":2.194819,"ts":"2023-10-19T15:58:52Z","tz":1,"tags":{"climbing":"crag","climbing:boulder":"yes","name":"La Troche","ref:bleau.info":"troche","sport":"climbing"}},"11279552225":{"lat":48.905633,"lon":2.2011155,"ts":"2025-01-12T20:38:33Z","tz":1,"tags":{"climbing:boulder":"yes","climbing:sport":"no","climbing:toprope":"no","climbing:traditional":"no","contact:phone":"+33 1 77 37 91 01","leisure":"sports_centre","name":"Arkose Nanterre Arboretum","operator":"Arkose","operator:type":"private","sport":"climbing","url":"https://arkose.com/nanterre-arboretum"}},"11279574390":{"lat":48.8868715,"lon":2.333085,"ts":"2023-10-21T13:56:57Z","tz":1,"tags":{"addr:city":"Paris","addr:housenumber":"16 bis","addr:postcode":"75018","addr:street":"Rue Caulaincourt","leisure":"sports_centre","name":"Arkose Montmartre","operator":"arkose","sport":"climbing"}},"11851098255":{"lat":48.8900762,"lon":2.2452045,"ts":"2024-08-19T08:53:48Z","tz":1,"tags":{"addr:city":"Courbevoie","addr:housenumber":"48","addr:postcode":"92400","addr:street":"Square des Corolles","climbing:boulder":"yes","climbing:speed":"no","climbing:sport":"no","climbing:toprope":"no","email":"info@blocbuster.fr","fee":"yes","leisure":"sports_centre","name":"Blocbuster La Défense","opening_hours":"Mo-Fr 11:00-23:00; Sa-Su 10:00-20:00","payment:cards":"yes","payment:cash":"yes","payment:qr_code":"no","phone":"+33 1 41 30 14 04","service:climbing_belay_device:rental":"no","service:climbing_harness:rental":"no","service:climbing_rope:rental":"no","service:climbing_shoes:rental":"yes","service:climbing_shoes:rental:fee":"yes","sport":"climbing","website":"https://blocbuster.fr/la-defense/"}},"12165167593":{"lat":48.82636,"lon":2.2641539,"ts":"2025-03-02T22:52:37Z","tz":1,"tags":{"addr:city":"Issy-les-Moulineaux","addr:housenumber":"5","addr:postcode":"92130","addr:street":"Rue du Bateau Lavoir","brand":"Arkose","climbing:boulder":"yes","climbing:sport":"no","fee":"yes","leisure":"sports_centre","name":"Arkose Issy-les-Moulineaux - Bloc","opening_hours":"Mo-Su 07:00-24:00","phone":"+33 1 77 37 89 22","sport":"climbing","website":"https://arkose.com/issy-les-moulineaux-bloc"}},"12193983534":{"lat":48.8777941,"lon":2.34713,"ts":"2024-09-23T07:16:58Z","tz":1,"tags":{"name":"Prises d'escalade au mur dans la rue sous le pont","sport":"climbing"}},"12326445433":{"lat":48.8835186,"lon":2.1915954,"ts":"2024-11-09T12:50:37Z","tz":1,"tags":{"description":"Escalade de blocs, studio fitness, bistrot, coworking","leisure":"sports_centre","name":"Granit","opening_hours":"Mo-Fr 10:00-23:00; We 09:00-23:00; Sa 09:00-22:00; Su 09:00-20:00","phone":"01 47 49 50 17","sport":"climbing"}},"12535851015":{"lat":48.8257197,"lon":2.2645001,"ts":"2025-01-27T09:15:45Z","tz":1,"tags":{"addr:city":"Issy-les-Moulineaux","addr:housenumber":"5","addr:postcode":"92130","addr:street":"avenue Jean Bouin","description":"Au coeur de la cité des sports d'Issy les Moulineaux, la nouvelle salle Hapik démocratise la pratique de l'escalade auprès des familles.\nChez Hapik l'escalade se pratique en auto-assurage pour un maximum de sécurité et d'autonomie pour tous les âges.","fee":"yes","leisure":"sports_centre","name":"Hapik","operator":"Hapik","operator:type":"private","payment:cash":"yes","payment:credit_cards":"yes","source":"gps","sport":"climbing","website":"https://hapik.fr/centres-tarifs/issy-les-moulineaux"}}}