{"75164540":{"location":[43.9219054,2.1779905],"ts":"2014-07-28T09:58:09Z","tz":1,"tags":{"building":"yes","leisure":"sports_centre","name":"Gymnase","source":"extraction vectorielle v1 cadastre-dgi-fr source : Direction Générale des Impôts - Cadas. Mise à jour : 2010","sport":"climbing","surface":"concrete"}},"6933079220":{"location":[43.897989,2.4431866],"ts":"2020-09-11T22:41:11Z","tz":1,"tags":{"access":"yes","climbing:grade:uiaa:max":"5","climbing:grade:uiaa:min":"3","climbing:length":"10","climbing:length:max":"10","climbing:length:min":"10","climbing:mixed":"yes","climbing:routes":"6","climbing:trad":"yes","fee":"no","name":"Roc Saint-Michel","outdoor":"yes","sport":"climbing"}},"8245223817":{"location":[44.0639963,2.1217748],"ts":"2022-03-24T16:58:25Z","tz":1,"tags":{"name":"Site d'Escalade Le Vic","name:en":"Climbing Area Le Vic","name:pt":"Sitio de escalada Le Vic","sport":"climbing"}},"12119978106":{"location":[43.9334128,2.1670571],"ts":"2024-08-19T09:46:36Z","tz":1,"tags":{"addr:city":"Albi","addr:housenumber":"7","addr:postcode":"81000","addr:street":"Rue Francisco Goya","climbing:boulder":"yes","fee":"yes","leisure":"sports_centre","name":"The Roof Albi - Maison de l'escalade","opening_hours":"Mo 17:00-22:00; Tu-Fr 11:00-22:00; Sa-Su 10:00-20:00","phone":"+33 5 63 40 38 55","sport":"climbing","website":"https://albi.theroof.fr/"}}}