{"273678661":{"location":[41.5182367,2.3585482],"ts":"2024-09-30T00:40:04Z","tz":1,"tags":{"addr:city":"Vilassar de Dalt","addr:housenumber":"4","addr:postcode":"08339","addr:street":"carrer Miquel Marti i Pol","building":"yes","height":"16","leisure":"sports_centre","name":"Rocòdrom Germans Estorach","sport":"climbing"}},"402029814":{"location":[41.7495607,2.2481466],"ts":"2022-11-21T02:54:33Z","tz":1,"tags":{"name":"Escola d'Escalada La Soleia de Sant Martí de Centelles","name:ca":"Escola d'Escalada La Soleia de Sant Martí de Centelles","natural":"cliff","sport":"climbing","website":"http://grimpantenelscingles.blogspot.com/2014/07/ressenyes-de-la-soleia-avui-aprofito.html"}},"457957782":{"location":[41.5381017,2.3785768],"ts":"2023-09-11T14:20:01Z","tz":1,"tags":{"name":"Banyadores","natural":"cliff","sport":"climbing","wikidata":"Q122411192"}},"459278686":{"location":[41.7264784,2.2498623],"ts":"2023-03-31T21:11:41Z","tz":1,"tags":{"name":"Salt del Prat","name:ca":"Salt del Prat","natural":"cliff","sport":"climbing","waterway":"waterfall"}},"632418879":{"location":[41.7355805,2.2556393],"ts":"2018-10-10T07:28:36Z","tz":1,"tags":{"name":"Sot de la Guillota","natural":"cliff","sport":"climbing","website":"http://grimpantenelscingles.blogspot.com/2016/03/resenyes-del-sot-de-la-guillota.html; http://grimpantenelscingles.blogspot.com/2015/09/sot-de-la-guillota-escola-descalada.html"}},"1216355372":{"location":[41.6201837,2.4276354],"ts":"2024-02-09T21:18:24Z","tz":1,"tags":{"leisure":"sports_centre","man_made":"tower","sport":"climbing","tower:type":"climbing"}},"1241557934":{"location":[41.7493189,2.2654914],"ts":"2023-03-31T21:12:27Z","tz":1,"tags":{"name":"Cingles del Folló","name:ca":"Cingles del Folló","place":"locality","sport":"climbing","tourism":"yes"}},"4106350933":{"location":[41.7663318,2.2378526],"ts":"2016-04-07T20:52:08Z","tz":1,"tags":{"sport":"climbing"}},"8180034134":{"location":[41.5548676,2.33964],"ts":"2023-10-07T07:39:58Z","tz":1,"tags":{"name":"escalada Cellecs","playground":"climbingwall","sport":"climbing","wikidata":"Q21530974","wikipedia":"ca:Roques de Céllecs"}},"8199214269":{"location":[41.5590371,2.3372588],"ts":"2024-02-09T21:18:24Z","tz":1,"tags":{"fee":"no","leisure":"sports_centre","name":"Céllecs, sector Contravent","sport":"climbing"}},"8435954617":{"location":[41.55765,2.3399704],"ts":"2021-02-18T21:13:55Z","tz":1,"tags":{"sport":"climbing"}},"9386155914":{"location":[41.638202,2.3627283],"ts":"2024-07-06T21:52:17Z","tz":1,"tags":{"charge":"3 euros si vas amb una sòcia o 80 euros l'any si ets sòcia","fee":"yes","leisure":"sports_centre","name":"Boulder La Fusteria","sport":"climbing"}},"9699126450":{"location":[41.5547979,2.339395],"ts":"2025-01-16T11:05:06Z","tz":1,"tags":{"name":"escalada Cellecs","sport":"climbing"}},"10612051338":{"location":[41.5484576,2.1805145],"ts":"2023-04-21T04:06:46Z","tz":1,"tags":{"addr:city":"Santa Perpètua de Mogoda","addr:housenumber":"18","addr:street":"Carrer del Vallès","fee":"yes","leisure":"sports_centre","name":"Búlder Planet Vallès","opening_hours":"Mo-Fr 10:00-14:30,16:00-22:00; Sa-Su 10:00-20:00","operator":"Búlder Planet","operator:type":"private","sport":"climbing"}},"10881097176":{"location":[41.6429516,2.3544436],"ts":"2023-05-09T14:05:19Z","tz":1,"tags":{"leisure":"sports_centre","playground":"climbingwall","sport":"climbing"}},"12319119495":{"location":[41.5424364,2.4533611],"ts":"2024-11-06T17:47:23Z","tz":1,"tags":{"addr:housenumber":"62","addr:street":"Antoni de Capmany","name":"Búlder Planet","opening_hours":"Mo-Th 10:00-14:00, 16:00-22:00; Fr 10:00-14:00, 16:00-21:00; Sa, Su 10:00-14:30, 16:30-20:30","sport":"climbing","website":"https://www.bulderplanet.com/maresme/"}}}