{"35161869":{"location":[41.3661139,2.1473591],"ts":"2024-02-27T17:22:55Z","tz":1,"tags":{"area":"yes","name":"La Foixarda","sport":"climbing"}},"94207972":{"location":[41.3654313,2.1454642],"ts":"2013-04-14T19:00:48Z","tz":1,"tags":{"area":"yes","sport":"climbing","type":"artificial rock outside"}},"156221288":{"location":[41.3666202,2.1481059],"ts":"2024-11-24T17:38:12Z","tz":1,"tags":{"access":"customers","building":"public","building:levels":"2","building:levels:underground":"1","climbing:boulder":"yes","climbing:toprope":"yes","contact:email":"lafoixarda@climbat.com","contact:instagram":"https://www.instagram.com/climbatcenters/","fee":"yes","leisure":"sports_centre","name":"Centre Municipal d'Escalada: CLIMBAT La Foixarda","opening_hours":"Mo-Th 09:00-23:00; Fr-Su 10:00-21:00","operator":"Climbat","operator:type":"private","payment:cards":"yes","payment:cash":"yes","payment:contactless":"yes","payment:qr_code":"no","phone":"+34 932 925 480","service:climbing_harness:rental":"yes","service:climbing_shoes:rental":"yes","service:climbing_shoes:rental:fee":"yes","sport":"climbing","website":"https://climbat.com/"}},"759412926":{"location":[41.4427125,2.1706578],"ts":"2019-12-29T18:06:50Z","tz":1,"tags":{"description":"Pared con muchas presas artificiales. Tiene una zona con desplome y una zona sin. Escalada horizontal, sin cuerda.","fee":"no","leisure":"sports_centre","name":"Pared con rocódromo gratis","sport":"climbing"}},"759412927":{"location":[41.4336114,2.152706],"ts":"2019-12-29T18:06:50Z","tz":1,"tags":{"description":"Zona de escalada con presas artificiales. Sin desplome. Para escalada horizontal y tiene diversas vías equipadas de escalada con cuerda de unos 4-5 metros de alto.","fee":"no","leisure":"sports_centre","name":"Area de escalada gratis Botticelli","sport":"climbing"}},"1136835567":{"location":[41.3655744,2.1457409],"ts":"2024-02-27T17:27:40Z","tz":1,"tags":{"access":"yes","climbing":"boulder","climbing:speed":"no","fee":"no","internet_access":"no","layer":"-1","leisure":"sports_centre","man_made":"tunnel","name":"Túnel d'escalada de la Foixarda","opening_hours":"24/7","sport":"climbing","tunnel":"passage"}},"2696668384":{"location":[41.3736417,2.1374191],"ts":"2015-03-06T14:19:57Z","tz":1,"tags":{"addr:city":"Barcelona","addr:housenumber":"11-15","addr:postcode":"08014","addr:street":"Carrer de Rossend Arús","leisure":"sports_centre","name":"Freebloc, gimnasio de escalada","opening_hours":"Mo-Su 09:00-24:00","opening_hours:url":"http://www.freebloc.com/","sport":"climbing"}},"3116622102":{"location":[41.4113867,2.1891159],"ts":"2022-08-09T08:09:59Z","tz":1,"tags":{"addr:city":"Barcelona","addr:housenumber":"3","addr:postcode":"08026","addr:street":"Carrer de Gabriel y Galán","email":"clotmg@indoorwall.com","leisure":"sports_centre","name":"Indoorwall el Clot","opening_hours":"Mo-Fr 10:00-22:30; Sa 11:00-21:00; Su 16:00-21:00","phone":"+34 93 255 79 12","sport":"climbing","website":"https://www.indoorwall.com/centros-indoorwall-rocodromos/indoorwall-el-clot-barcelona/"}},"4020389092":{"location":[41.4157253,2.2105633],"ts":"2024-01-06T16:19:03Z","tz":1,"tags":{"addr:city":"Barcelona","addr:housenumber":"206","addr:postcode":"08019","addr:street":"Carrer del Marroc","email":"info@sharmaclimbingbcn.com","leisure":"sports_centre","name":"Sharma Climbing BCN","opening_hours":"Mo-Sa 11:00-23:00; Su 09:00-18:00","phone":"+34 93 611 9725","sport":"climbing","website":"https://www.sharmaclimbing.com/ca/espanya/barcelona-poble-nou/","wheelchair":"yes"}},"4637881456":{"location":[41.4369161,2.1839032],"ts":"2024-07-14T16:57:31Z","tz":1,"tags":{"leisure":"pitch","name":"rocòdrom","name:ca":"rocòdrom","sport":"climbing"}},"4734317058":{"location":[41.3883417,2.1764616],"ts":"2020-05-31T15:36:41Z","tz":1,"tags":{"addr:housenumber":"29","addr:postcode":"08003","addr:street":"Carrer de Sant Pere Més Alt","leisure":"sports_centre","name":"Sala Boulder CEC","name:en":"Boulder's room CEC","name:es":"Sala Boulder CEC","sport":"climbing","website":"https://cec.cat/"}},"7093620491":{"location":[41.3692635,2.1371099],"ts":"2025-01-02T22:25:53Z","tz":1,"tags":{"addr:city":"Barcelona","addr:postcode":"08014","charge":"1 euro (donación)","description":"Rocódromo interior con presas artificiales y desplome. Abre los lunes, miércoles y viernes de 18 a 21. Los miércoles por la mañana sólo para grupos no mixtos.","fee":"yes","leisure":"sports_centre","name":"Rocódromo autogestionado de Can Batlló","operator":"Can Batlló","payment:cash":"yes","sport":"climbing"}},"7093620492":{"location":[41.4145733,2.1498057],"ts":"2023-11-16T11:44:35Z","tz":1,"tags":{"climbing":"boulder","climbing:sport":"yes","description":"Muro de unos 3 metros con muchos agujeros. Para escalada horizontal. Buenas vistas.","fee":"no","informal":"yes","sport":"climbing"}},"7093657070":{"location":[41.4376884,2.1696614],"ts":"2025-03-30T16:14:23Z","tz":1,"tags":{"description":"Rocódromo gratis:Tres paredes sin desplome con presas artificiales. Para escalada horizontal.","fee":"no","leisure":"sports_centre","sport":"climbing"}},"7242414741":{"location":[41.4504427,2.1775829],"ts":"2025-01-01T17:22:19Z","tz":1,"tags":{"fee":"no","leisure":"sports_centre","name":"Rocódromo de Roquetes","sport":"climbing"}},"7242414742":{"location":[41.447734,2.1715898],"ts":"2020-02-25T12:30:36Z","tz":1,"tags":{"fee":"no","leisure":"sports_centre","sport":"climbing"}},"8265818805":{"location":[41.3846738,2.1281534],"ts":"2022-12-24T22:37:40Z","tz":1,"tags":{"access":"permit","addr:city":"BARCELONA","addr:housenumber":"33","addr:postcode":"08028","addr:street":"Carrer de Dolors Masferrer i Bosch","building":"public","climbing:boulder":"yes","leisure":"sports_centre","lit":"yes","name":"Rocòdrom","name:ca":"Rocòdrom","source":"survey","source:date":"20110917","sport":"climbing","tower:type":"climbing"}},"8992536419":{"location":[41.4337625,2.1758768],"ts":"2023-01-22T21:29:56Z","tz":1,"tags":{"leisure":"pitch","name":"mini-rocòdrom","name:ca":"mini-rocòdrom","sport":"climbing"}},"9231269517":{"location":[41.3968987,2.1889678],"ts":"2024-08-14T16:56:12Z","tz":1,"tags":{"access":"yes","addr:housenumber":"96-106","addr:postcode":"08018","addr:street":"Carrer de Zamora","check_date":"2024-08-14","email":"info@blocdistric.com","fee":"yes","internet_access":"wlan","internet_access:fee":"customers","leisure":"sports_centre","name":"Bloc District","name:en":"Bloc District","opening_hours":"Mo-Fr 08:00-22:00; Sa 11:00-20:00; Su 11:00-15:00","operator:type":"private","payment:cash":"yes","payment:credit_cards":"yes","payment:debit_cards":"yes","phone":"+34937819212","sport":"climbing","website":"https://www.blocdistrict.com/"}},"10882966709":{"location":[41.4247124,2.1858417],"ts":"2024-08-19T10:41:04Z","tz":1,"tags":{"addr:housenumber":"71","addr:postcode":"08027","addr:street":"Carrer d'Olesa","contact:facebook":"monobloc.es","contact:instagram":"monobloc.lasagrera","email":"lasagrera@monobloc.es","indoor":"yes","leisure":"sports_centre","level":"0","name":"Monobloc - La Sagrera","name:ca":"Monobloc - La Sagrera","name:en":"Monobloc - La Sagrera","name:ro":"Monobloc - La Sagrera","opening_hours":"Mo-Fr 09:00-22:00; Sa-Su 10:00-20:00","phone":"+34 930 32 33 70","sport":"climbing","website":"https://lasagrera.monobloc.es/"}},"10892982819":{"location":[41.4145241,2.149465],"ts":"2023-11-16T11:44:35Z","tz":1,"tags":{"climbing":"boulder","climbing:sport":"yes","description":"Muro de unos 3 metros con muchos agujeros. Para escalada horizontal. Buenas vistas.","fee":"no","informal":"yes","sport":"climbing"}},"11045933705":{"location":[41.3822844,2.155394],"ts":"2024-07-14T16:57:31Z","tz":1,"tags":{"leisure":"pitch","name":"rocòdrom infantil","name:ca":"rocòdrom infantil","sport":"climbing"}},"12197912504":{"location":[41.396086,2.1786694],"ts":"2024-09-24T22:48:51Z","tz":1,"tags":{"addr:city":"Barcelona","addr:housenumber":"128","addr:postcode":"08013","addr:street":"Carrer de Nàpols","fee":"yes","leisure":"sports_centre","level":"0","name":"Bloc District Tetuan","opening_hours":"Mo-Fr 07:00-22:00; Sa-Su 09:00-21:00","sport":"climbing","website":"https://www.blocdistrict.com/","wheelchair":"yes"}},"12409037309":{"location":[41.4234603,2.1585707],"ts":"2024-12-10T09:38:34Z","tz":1,"tags":{"addr:city":"Barcelona","addr:housenumber":"37-45","addr:postcode":"08032","addr:street":"Carrer dels Agudells","charge":"1 EUR","description":"El rocòdrom és per a joves entre 12 i 35 anys.\nCapacitat màxima 6 persones. Has de portar els teus peus de gat. Pots llogar uns per 1€. Si els necessites per la teva sortida a escalar fora de Boca Nord el lloguer son 2€. Cita prèvia necessària a la web.","email":"direccio@bocanord.cat","fee":"no","leisure":"sports_centre","name":"Rocòdrom de l'Espai Jove Boca Nord","opening_hours":"Horaris  10.30 – 11.30 h – ESCALADA 11.30 – 12.30 h – ESCALADA 13.30 – 14.30 h – ESCALADA  15 – 16 h – TANCAT  16.30 – 17.30 h – ESCALADA 17.30 – 18.30 h – ESCALADA 18.30 – 19.30 h – ESCALADA 19.30 – 20.30 h – ESCALADA 20.30 – 21:30 h – ESCALADA","payment:cash":"yes","phone":"+34 934 20 60 11","short_name":"Roco boca nord","sport":"climbing","website":"https://ajuntament.barcelona.cat/bocanord/serveis/rocodrom/"}}}