{"25319028":{"location":[53.8479474,27.6598387],"ts":"2024-11-15T04:59:15Z","tz":3,"tags":{"building":"yes","name":"Манеж","name:be":"Манеж","name:ru":"Манеж","sport":"climbing"}},"3765510840":{"location":[53.9080265,27.5383843],"ts":"2024-11-15T04:59:15Z","tz":3,"tags":{"addr:city":"Мінск","addr:city:ru":"Минск","addr:country":"BY","addr:housenumber":"8","addr:street":"вуліца Максіма Танка","leisure":"sports_centre","name":"Скаладром","name:be":"Скаладром","name:ru":"Скалодром","sport":"climbing"}},"3765510841":{"location":[53.9026245,27.4492564],"ts":"2024-11-15T04:59:15Z","tz":3,"tags":{"addr:city":"Мінск","addr:city:ru":"Минск","addr:country":"BY","addr:housenumber":"23","addr:street":"вуліца Бурдзейнага","leisure":"sports_centre","name":"Скаладром ФАЦ","name:be":"Скаладром ФАЦ","name:ru":"Скалодром ФОЦ","sport":"climbing"}},"3766184211":{"location":[53.94645,27.595302],"ts":"2024-11-15T04:59:15Z","tz":3,"tags":{"addr:city":"Мінск","addr:city:ru":"Минск","addr:country":"BY","addr:housenumber":"18","addr:street":"вуліца Лукʼяновіча","leisure":"sports_centre","name":"Скаладром ЦКЭ","name:be":"Скаладром ЦКЭ","name:ru":"Скалодром ЦКЭ","sport":"climbing"}},"3766184212":{"location":[53.8728695,27.6281846],"ts":"2024-11-15T04:59:15Z","tz":3,"tags":{"addr:city":"Мінск","addr:city:ru":"Минск","addr:country":"BY","name:be":"Скаладром Геліёс","name:ru":"Скалодром Гелиос","sport":"climbing"}},"6862403044":{"location":[53.8253472,27.5353691],"ts":"2019-10-09T07:05:44Z","tz":3,"tags":{"leisure":"sports_centre","sport":"climbing"}},"6862403045":{"location":[53.8859771,27.5812612],"ts":"2025-04-03T12:34:33Z","tz":3,"tags":{"addr:city":"Мінск","addr:housenumber":"2/1","addr:street":"Партызанскі праспект","climbing:boulder":"yes","climbing:toprope":"yes","contact:facebook":"https://www.facebook.com/trapezia.minsk/","contact:instagram":"https://www.instagram.com/skalodrom_trapezia/","contact:vk":"https://vk.com/trapeziarock","email":"1453080@gmail.com","fee":"yes","indoor":"yes","leisure":"sports_centre","level":"2","name":"Скаладром «Трапецыя»","name:be":"Скаладром «Трапецыя»","name:ru":"Скалодром «Трапеция»","opening_hours":"10:00-22:00","payment:cash":"yes","payment:credit_cards":"yes","payment:debit_cards":"yes","phone":"+375 17 3003080;+375 29 1453080","sport":"climbing","website":"https://trapezia.by/"}},"7101641185":{"location":[53.914659,27.5711857],"ts":"2024-11-15T04:59:15Z","tz":3,"tags":{"addr:city":"Мінск","addr:city:ru":"Минск","addr:country":"BY","addr:housenumber":"7","addr:street":"Чырвоная вуліца","description":"Вход через 6 корпус","leisure":"sports_centre","name":"Скаладром Плато","name:be":"Скаладром Плато","name:en":"Plato","name:ru":"Скалодром Плато","opening_hours":"Mo-Su 12:00-23:00","phone":"+375 29 658-20-26","sport":"climbing","website":"https://plato.by"}},"9207323313":{"location":[53.8501212,27.4335235],"ts":"2024-10-18T04:13:23Z","tz":3,"tags":{"contact:instagram":"scoutpark.by","contact:phone":"+375 29 1489898","description":"Веревочный парк","leisure":"sports_centre","level":"2","name":"Скаўт парк","name:be":"Скаўт парк","name:ru":"Скаут парк","opening_hours":"10:00-22:00","sport":"climbing"}},"9817694232":{"location":[53.9194812,27.6197914],"ts":"2022-06-14T18:35:40Z","tz":3,"tags":{"leisure":"sports_centre","sport":"climbing","wheelchair":"no"}},"10025390955":{"location":[53.8504645,27.4626485],"ts":"2022-09-14T19:57:29Z","tz":3,"tags":{"leisure":"sports_centre","sport":"climbing"}},"11295569252":{"location":[53.950488,27.6685867],"ts":"2023-10-28T14:05:14Z","tz":3,"tags":{"access":"private","leisure":"fitness_station","sport":"climbing"}}}