{"2564000":{"lat":28.4595053,"lon":-16.2845233,"ts":"2022-05-13T03:19:02Z","tz":0,"tags":{"leisure":"stadium","name":"Roc칩dromo Cesar Casariego","operator":"Ayuntamiento de Santa Cruz de Tenerife","sport":"climbing","website":"https://www.fedtfm.es/joomla/index.php?option=com_content&view=article&id=123&Itemid=147"}},"198207424":{"lat":28.4803693,"lon":-16.3149423,"ts":"2012-12-26T19:37:32Z","tz":0,"tags":{"leisure":"pitch","sport":"climbing"}},"211316791":{"lat":28.3213783,"lon":-16.4307781,"ts":"2013-03-21T17:29:34Z","tz":0,"tags":{"leisure":"pitch","sport":"climbing"}},"253715999":{"lat":28.4821094,"lon":-16.3088648,"ts":"2013-12-26T23:27:53Z","tz":0,"tags":{"sport":"climbing"}},"645593801":{"lat":28.4850643,"lon":-16.2809767,"ts":"2010-03-03T20:38:07Z","tz":0,"tags":{"name":"Tabares","sport":"climbing","website":"http://www.escuelasdeescalada.com/ficha.php?ID=35"}},"677107619":{"lat":28.4457168,"lon":-16.4536356,"ts":"2019-07-24T22:17:37Z","tz":0,"tags":{"leisure":"sports_centre","name":"Roc칩dromo de El Montillo.","sport":"climbing"}},"1893402304":{"lat":28.5422895,"lon":-16.2429749,"ts":"2012-09-01T16:17:08Z","tz":0,"tags":{"name":"Escalada Roque Negro","sport":"climbing"}},"11052456080":{"lat":28.496848,"lon":-16.3138201,"ts":"2023-07-18T09:00:26Z","tz":0,"tags":{"fee":"no","leisure":"sports_centre","name":"Roc칩dromo","sport":"climbing"}},"12519434005":{"lat":28.4636076,"lon":-16.2540686,"ts":"2025-01-21T18:30:53Z","tz":0,"tags":{"addr:city":"Santa Cruz de Tenerife","addr:housenumber":"67","addr:postcode":"38005","addr:street":"Avenida de San Sebasti치n","fee":"yes","leisure":"sports_centre","name":"Racoon Climbing","opening_hours":"Mo-Fr 12:00-21:00","operator":"Racoon Climbing","operator:type":"private","sport":"climbing","website":"https://bouldercreator.com/app/gym/MTA1NTk"}}}