{"4923509913":{"lat":26.8681048,"lon":99.8997555,"ts":"2017-06-19T06:07:32Z","tz":8,"tags":{"name":"日坛墙","name:en":"Ritan Wall","sport":"climbing"}},"4923511922":{"lat":26.8631945,"lon":99.8920629,"ts":"2017-06-19T06:07:32Z","tz":8,"tags":{"name":"水岩","name:en":"Water Wall","sport":"climbing"}},"4923511934":{"lat":26.869138,"lon":99.9161599,"ts":"2024-09-02T05:09:53Z","tz":8,"tags":{"name":"骗子墙","name:en":"Deception Wall","sport":"climbing"}},"4923511954":{"lat":26.872447,"lon":99.9132599,"ts":"2017-06-19T06:07:33Z","tz":8,"tags":{"name":"袜子墙","name:en":"Socks Wall","sport":"climbing"}},"4923512013":{"lat":26.8661328,"lon":99.9178228,"ts":"2017-06-19T06:07:34Z","tz":8,"tags":{"name":"朝阳坡","name:en":"Sunny Hill","sport":"climbing"}},"4923512186":{"lat":26.8639793,"lon":99.8936615,"ts":"2017-06-19T06:07:35Z","tz":8,"tags":{"name":"院子墙","name:en":"The Courtyard","sport":"climbing"}},"4923512190":{"lat":26.8703439,"lon":99.8968909,"ts":"2017-06-19T06:07:35Z","tz":8,"tags":{"name":"Stephen Wall","sport":"climbing"}},"4923512211":{"lat":26.8659706,"lon":99.9020836,"ts":"2017-06-19T06:07:35Z","tz":8,"tags":{"name":"晨光墙","name:en":"Morning Light","sport":"climbing"}},"4923512338":{"lat":26.8613856,"lon":99.900367,"ts":"2017-06-19T06:07:36Z","tz":8,"tags":{"name":"大洞","name:en":"The Cave","sport":"climbing"}},"4923512362":{"lat":26.861041,"lon":99.8989723,"ts":"2017-06-19T06:07:36Z","tz":8,"tags":{"name":"Cave Right Side","sport":"climbing"}}}