{"616498245":{"location":[39.245918,-120.2018709],"ts":"2018-08-13T06:07:50Z","tz":-8,"tags":{"area":"yes","climbing":"crag","name":"Big Chief Climbing Area","sport":"climbing"}},"616498248":{"location":[39.258392,-120.2044509],"ts":"2018-08-13T06:07:50Z","tz":-8,"tags":{"area":"yes","climbing":"crag","name":"Little Chief Climbing Area","sport":"climbing"}},"964483013":{"location":[39.3268074,-120.2175405],"ts":"2023-10-15T19:10:55Z","tz":-8,"tags":{"addr:city":"Truckee","addr:housenumber":"11798","addr:postcode":"96161","addr:state":"CA","addr:street":"Donner Pass Road","building":"yes","leisure":"sports_centre","name":"High Altitude Fitness Truckee","phone":"+17758314212","sport":"climbing"}},"1024035008":{"location":[39.2532178,-119.9537123],"ts":"2024-12-09T19:46:35Z","tz":-8,"tags":{"addr:city":"Incline Village","addr:county":"Washoe","addr:housenumber":"880","addr:postcode":"89451","addr:state":"NV","addr:street":"Northwood Boulevard","building":"commercial","leisure":"sports_centre","name":"High Altitude Fitness","phone":"+1 775 831 4212","source":"WC GIS","sport":"climbing","website":"https://www.highaltitudefit.net/"}},"4351736570":{"location":[39.2495009,-120.203004],"ts":"2022-12-24T13:49:01Z","tz":-8,"tags":{"climbing":"crag","description":"Crag at Big Chief climbing area","name":"North Wall","sport":"climbing"}},"4351736573":{"location":[39.2438143,-120.2022952],"ts":"2018-08-13T06:07:50Z","tz":-8,"tags":{"climbing":"crag","description":"Crag at Big Chief climbing area","name":"South Wall","sport":"climbing"}},"4912202356":{"location":[39.1665806,-120.1616292],"ts":"2017-06-13T07:48:20Z","tz":-8,"tags":{"climbing":"crag","leisure":"pitch","name":"Twin Crags","sport":"climbing"}},"5828610631":{"location":[39.2456497,-120.2026818],"ts":"2018-08-13T06:07:49Z","tz":-8,"tags":{"climbing":"crag","name":"Three Towers Wall","sport":"climbing"}},"5828610632":{"location":[39.2453803,-120.2028503],"ts":"2018-08-13T06:07:49Z","tz":-8,"tags":{"climbing":"route","name":"Big Chief Arete","sport":"climbing"}},"5828610633":{"location":[39.2450283,-120.202905],"ts":"2022-12-24T13:49:01Z","tz":-8,"tags":{"climbing":"crag","description":"Crag at Big Chief climbing area","name":"Center Wall","sport":"climbing"}},"5828610634":{"location":[39.2447141,-120.2028735],"ts":"2018-08-13T06:07:49Z","tz":-8,"tags":{"climbing":"crag","name":"Mini Buttress","sport":"climbing"}},"5828610635":{"location":[39.2445345,-120.2027283],"ts":"2018-08-13T06:07:49Z","tz":-8,"tags":{"climbing":"crag","name":"Gold Wall","sport":"climbing"}},"5828610636":{"location":[39.2452311,-120.202905],"ts":"2018-08-13T06:07:49Z","tz":-8,"tags":{"climbing":"crag","name":"Central Cave","sport":"climbing"}},"5828610643":{"location":[39.2459844,-120.2024678],"ts":"2018-08-13T06:07:49Z","tz":-8,"tags":{"climbing":"crag","name":"North Pass Pillar","sport":"climbing"}}}