{"47485371":{"location":[53.2405904,6.6011807],"ts":"2024-08-26T07:20:17Z","tz":1,"tags":{"building":"yes","climbing:boulder":"yes","climbing:sport":"yes","climbing:toprope":"yes","fee":"yes","leisure":"sports_centre","name":"Bjoeks","opening_hours":"09:00-23:00; PH open; Dec 24, 25, 31 off; Jan 1 off","ref:bag":"14100010947974","service:climbing_belay_device:rental":"yes","service:climbing_belay_device:rental:fee":"no","service:climbing_harness:rental":"yes","service:climbing_harness:rental:fee":"no","service:climbing_rope:rental":"yes","service:climbing_rope:rental:fee":"no","service:climbing_shoes:rental":"yes","service:climbing_shoes:rental:fee":"no","shower":"hot","source":"BAG","source:date":"2014-03-24","sport":"climbing","start_date":"1996","website":"https://www.bjoeks.nl/","wheelchair":"no"}},"141073287":{"location":[53.2408398,6.6009917],"ts":"2019-03-28T13:47:55Z","tz":1,"tags":{"building":"tower","building:colour":"orange","description":"Outdoor freestanding sport climbing tower. Leans 11m towards WSW.","height":"37","man_made":"tower","name":"Excalibur","operator":"Bjoeks","sport":"climbing","website":"https://bjoeks.nl/"}},"2739007652":{"location":[53.2160759,6.5392109],"ts":"2025-04-22T22:30:42Z","tz":1,"tags":{"addr:city":"Groningen","addr:housenumber":"19a","addr:postcode":"9743AJ","addr:street":"Atoomweg","climbing:boulder":"yes","climbing:sport":"no","climbing:toprope":"no","email":"info@apexboulders.nl","fee":"yes","leisure":"sports_centre","name":"Apex Boulders","opening_hours":"Mo-Fr 09:00-23:00; Sa-Su 09:00-22:00","payment:contactless":"yes","payment:debit_cards":"yes","phone":"+31 50 3055249","service:climbing_shoes:rental":"yes","service:climbing_shoes:rental:fee":"yes","source":"BAG;survey;local knowledge","source:date":"2014-02-11","sport":"climbing","website":"https://www.apexboulders.nl"}},"4228708320":{"location":[53.2306253,6.5898051],"ts":"2024-08-26T07:25:32Z","tz":1,"tags":{"addr:city":"Groningen","addr:housenumber":"8","addr:postcode":"9731BS","addr:street":"Ulgersmaweg","climbing:boulder":"yes","fee":"yes","leisure":"sports_centre","name":"Gropo","opening_hours":"Mo-Fr 10:00-23:00; Sa-Su 09:00-23:00","service:climbing_shoes:rental":"yes","service:climbing_shoes:rental:fee":"yes","source":"BAG","source:date":"2014-03-24","sport":"climbing","url":"https://gropo.nl/","website":"https://www.gropo.nl/"}}}