{"297723777":{"lat":46.7084618,"lon":6.3729437,"ts":"2014-08-14T11:27:07Z","tz":1,"tags":{"leisure":"pitch","name":"Mur de grimpe","sport":"climbing"}},"458411148":{"lat":46.6714846,"lon":6.4947171,"ts":"2016-09-23T14:11:18Z","tz":1,"tags":{"ele":"560","name":"Saint-Loup: Secteur C","source":"camptocamp.org","sport":"climbing"}},"458411149":{"lat":46.6722885,"lon":6.4918766,"ts":"2025-03-08T16:25:38Z","tz":1,"tags":{"ele":"593","name":"Le Chaney","source":"camptocamp.org","sport":"climbing"}},"458411153":{"lat":46.7903269,"lon":6.4675483,"ts":"2012-10-22T13:30:41Z","tz":1,"tags":{"ele":"1400","name":"Aiguilles de Baumes - Première du pierrier, Arête du pierrier, Facette","source":"camptocamp.org","sport":"climbing"}},"458411154":{"lat":46.7902511,"lon":6.4669425,"ts":"2021-06-14T11:09:57Z","tz":1,"tags":{"ele":"1400","name":"Aiguilles de Baumes - Roche aux Cheminées","source":"camptocamp.org","sport":"climbing"}},"458411156":{"lat":46.7894136,"lon":6.4669854,"ts":"2022-10-03T10:37:31Z","tz":1,"tags":{"ele":"1380","name":"Aiguilles de Baulmes - Petite arête - Tour de la Petite","source":"camptocamp.org","sport":"climbing"}},"458411157":{"lat":46.788914,"lon":6.4668169,"ts":"2012-10-22T13:30:41Z","tz":1,"tags":{"ele":"1350","name":"Aiguilles de Baumes - Secteur grande arête","source":"camptocamp.org","sport":"climbing"}},"712670900":{"lat":46.6612254,"lon":6.5501494,"ts":"2019-08-11T17:03:10Z","tz":1,"tags":{"leisure":"sports_centre","name":"voie du pilone (qui a été démonté)","sport":"climbing"}},"860572529":{"lat":46.6921193,"lon":6.3962034,"ts":"2024-05-09T10:53:19Z","tz":1,"tags":{"leisure":"sports_centre","name":"facochères","ref:camptocamp":"801718","sport":"climbing"}},"5494352790":{"lat":46.7078276,"lon":6.5666765,"ts":"2019-01-28T15:07:24Z","tz":1,"tags":{"addr:city":"Chavornay","addr:country":"CH","addr:housenumber":"18","addr:postcode":"1373","addr:street":"Rue de l'industrie","leisure":"sports_centre","name":"Mur d'Escalade","opening_hours":"Mo, Tu, Th, Fr 17:00-22:00; We 14:00-22:00; Sa 14:00-19:00; Su 14:00-18:00","phone":"+41 24 441 66 52","sport":"climbing","website":"https://www.escalade-chavornay.ch/"}},"5569144261":{"lat":46.7598002,"lon":6.4760967,"ts":"2018-04-21T13:50:43Z","tz":1,"tags":{"name":"Dalle des Guides","sport":"climbing"}},"10623337924":{"lat":46.7872631,"lon":6.632015,"ts":"2023-02-08T19:04:31Z","tz":1,"tags":{"leisure":"sports_centre","name":"La Pile","sport":"climbing","website":"https://lapile.ch/"}},"11052410727":{"lat":46.739366,"lon":6.3745064,"ts":"2023-07-18T08:30:07Z","tz":1,"tags":{"name":"Privé: Sport et Nature","sport":"climbing"}}}