{"15090445":{"location":[45.5199545,-73.535076],"ts":"2023-01-05T22:21:27Z","tz":-5,"tags":{"climbing":"crag","name":"Syrah","sport":"climbing","type":"site"}},"15090446":{"location":[45.5197887,-73.5354293],"ts":"2023-01-05T22:21:27Z","tz":-5,"tags":{"climbing":"crag","name":"Dynamite","sport":"climbing","type":"site"}},"15090447":{"location":[45.519845,-73.5355694],"ts":"2023-01-05T22:21:27Z","tz":-5,"tags":{"climbing":"crag","name":"Beta","sport":"climbing","type":"site"}},"15090448":{"location":[45.5198695,-73.5357475],"ts":"2023-01-05T22:21:27Z","tz":-5,"tags":{"climbing":"crag","name":"Alpha","sport":"climbing","type":"site"}},"15090449":{"location":[45.5198851,-73.5358261],"ts":"2023-01-05T22:21:27Z","tz":-5,"tags":{"climbing":"crag","name":"Trans","sport":"climbing","type":"site"}},"15090450":{"location":[45.5197794,-73.5358471],"ts":"2023-01-05T22:21:27Z","tz":-5,"tags":{"climbing":"crag","name":"Psy","sport":"climbing","type":"site"}},"54856753":{"location":[45.4868119,-73.5611426],"ts":"2024-04-29T22:26:06Z","tz":-5,"tags":{"addr:city":"Montréal","addr:housenumber":"1555","addr:postcode":"H3K2B7","addr:province":"QC","addr:street":"Rue Saint-Patrick","building":"commercial","contact:phone":"+1(514) 989-9656","contact:website":"https://allezup.com/en/","fee":"yes","leisure":"sports_centre","name":"Allez Up","sport":"climbing"}},"2047454766":{"location":[45.5275845,-73.5976905],"ts":"2023-10-19T09:07:40Z","tz":-5,"tags":{"addr:housenumber":"175","addr:postcode":"H2T 1Y1","addr:street":"St. Viateur Est","climbing:boulder":"yes","email":"info@shaktirockgym.com","image":"http://www.shaktirockgym.com/wp-content/uploads/2012/ftp/IMG_0001.jpg","leisure":"sports_centre","name":"Shakti Rock Gym","opening_hours":"Mo-Fr 10:00-22:00; Sa 10:30-18:00; Su 13:00-18:00","phone":"+1-438-380-4848","sport":"climbing","website":"https://shaktirockgym.com/","wheelchair":"no"}},"5648642656":{"location":[45.5319283,-73.6577832],"ts":"2025-01-14T13:54:17Z","tz":-5,"tags":{"addr:city":"Montréal","addr:housenumber":"1370","addr:postcode":"H4N 1H4","addr:province":"QC","addr:street":"Rue Chabanel Ouest","leisure":"sports_centre","name":"Bloc Shop Chabanel","opening_hours":"Mo-Fr 11:00-23:00, Sa-Su 9:00-21:00","phone":"+1-514-384-1234","sport":"climbing","website":"https://blocshop.com/"}},"5809650453":{"location":[45.5197994,-73.5358289],"ts":"2020-01-23T22:20:20Z","tz":-5,"tags":{"climbing":"route_bottom","climbing:boulder":"yes","climbing:grade:uiaa":"8","climbing:length":"0","ele":"14.2","name":"Holes","sport":"climbing"}},"5809655099":{"location":[45.5200115,-73.5350843],"ts":"2019-07-01T10:57:05Z","tz":-5,"tags":{"climbing":"route_bottom","climbing:boulder":"yes","climbing:grade:uiaa":"8-","climbing:length":"0","description":"Traversal","ele":"14.2","name":"La Traverse de Pat","sport":"climbing"}},"5809655100":{"location":[45.5199748,-73.5350719],"ts":"2019-07-01T10:57:05Z","tz":-5,"tags":{"climbing":"route_bottom","climbing:boulder":"yes","climbing:grade:uiaa":"8","climbing:length":"0","ele":"14.2","name":"Ouais Pis?","sport":"climbing"}},"5809655101":{"location":[45.5199477,-73.5350678],"ts":"2019-07-01T10:57:05Z","tz":-5,"tags":{"climbing":"route_bottom","climbing:boulder":"yes","climbing:grade:uiaa":"7","climbing:length":"0","ele":"14.2","name":"Syrah","sport":"climbing"}},"5809655102":{"location":[45.519927,-73.5350692],"ts":"2019-07-01T10:57:05Z","tz":-5,"tags":{"climbing":"route_bottom","climbing:boulder":"yes","climbing:grade:uiaa":"6+","climbing:length":"0","ele":"14.2","name":"Syrah Direct","sport":"climbing"}},"5809655103":{"location":[45.5199158,-73.5350719],"ts":"2019-07-01T10:57:05Z","tz":-5,"tags":{"climbing":"route_bottom","climbing:boulder":"yes","climbing:grade:uiaa":"8","climbing:length":"0","ele":"14.2","name":"Banana Split","sport":"climbing"}},"5809655104":{"location":[45.5198975,-73.5350816],"ts":"2019-07-01T10:57:05Z","tz":-5,"tags":{"climbing":"route_bottom","climbing:boulder":"yes","climbing:grade:uiaa":"7","climbing:length":"0","ele":"14.2","name":"L'Anglais","sport":"climbing"}},"5812872637":{"location":[45.5197811,-73.53539],"ts":"2019-07-01T10:57:05Z","tz":-5,"tags":{"climbing":"route_bottom","climbing:boulder":"yes","climbing:grade:uiaa":"7","climbing:length":"0","description":"Traversal","ele":"14.2","name":"Zen","sport":"climbing"}},"5812872638":{"location":[45.5197815,-73.5353924],"ts":"2019-07-01T10:57:05Z","tz":-5,"tags":{"climbing":"route_bottom","climbing:boulder":"yes","climbing:grade:uiaa":"7","climbing:length":"0","description":"Traversal","ele":"14.2","name":"Nez","sport":"climbing"}},"5812872639":{"location":[45.5197811,-73.5353954],"ts":"2019-07-01T10:57:05Z","tz":-5,"tags":{"climbing":"route_bottom","climbing:boulder":"yes","climbing:grade:uiaa":"8-","climbing:length":"0","description":"Traversal","ele":"14.2","name":"Variante de Zen","sport":"climbing"}},"5812872640":{"location":[45.519782,-73.5353972],"ts":"2019-07-01T10:57:05Z","tz":-5,"tags":{"climbing":"route_bottom","climbing:boulder":"yes","climbing:grade:uiaa":"8-","climbing:length":"0","description":"Traversal","ele":"14.2","name":"Naramata","sport":"climbing"}},"5812872641":{"location":[45.5197963,-73.5354686],"ts":"2020-01-23T22:20:20Z","tz":-5,"tags":{"climbing":"route_bottom","climbing:boulder":"yes","climbing:grade:uiaa":"6+","climbing:length":"0","description":"Traversal","ele":"14.2","name":"Osoyoos","sport":"climbing"}},"5812889356":{"location":[45.519835,-73.5355328],"ts":"2020-01-23T22:20:20Z","tz":-5,"tags":{"climbing":"route_bottom","climbing:boulder":"yes","climbing:grade:uiaa":"6+","climbing:length":"0","ele":"14.2","name":"Dyno Sure","sport":"climbing"}},"5812889357":{"location":[45.5198451,-73.5355636],"ts":"2023-01-05T22:21:27Z","tz":-5,"tags":{"climbing":"route_bottom","climbing:boulder":"yes","climbing:grade:uiaa":"9","climbing:length":"0","ele":"14.2","name":"Mono Gamma","sport":"climbing"}},"5812889358":{"location":[45.519849,-73.5355817],"ts":"2023-01-05T22:21:27Z","tz":-5,"tags":{"climbing":"route_bottom","climbing:boulder":"yes","climbing:grade:uiaa":"8","climbing:length":"0","ele":"14.2","name":"PULQ","sport":"climbing"}},"5812889359":{"location":[45.5198529,-73.5355952],"ts":"2023-01-05T22:21:27Z","tz":-5,"tags":{"climbing":"route_bottom","climbing:boulder":"yes","climbing:grade:uiaa":"9-","climbing:length":"0","ele":"14.2","name":"Musulmanne","sport":"climbing"}},"5812889360":{"location":[45.5198549,-73.5356059],"ts":"2023-01-05T22:21:27Z","tz":-5,"tags":{"climbing":"route_bottom","climbing:boulder":"yes","climbing:grade:uiaa":"6+","climbing:length":"0","ele":"14.2","name":"Napalm","sport":"climbing"}},"5833634563":{"location":[45.5198892,-73.5357868],"ts":"2023-01-05T22:21:27Z","tz":-5,"tags":{"climbing":"route_bottom","climbing:boulder":"yes","climbing:grade:uiaa":"8-","climbing:length":"0","ele":"14.2","name":"Où est Flo?","sport":"climbing"}},"5833634564":{"location":[45.5198854,-73.5357831],"ts":"2023-01-05T22:21:27Z","tz":-5,"tags":{"climbing":"route_bottom","climbing:boulder":"yes","climbing:grade:uiaa":"8-","climbing:length":"0","ele":"14.2","name":"Solei Vert","sport":"climbing"}},"5833634565":{"location":[45.5198779,-73.5357775],"ts":"2020-01-23T22:20:20Z","tz":-5,"tags":{"climbing":"route_bottom","climbing:grade:uiaa":"5-","climbing:length":"0","climbing:toprope":"yes","ele":"14.2","name":"sans nome","sport":"climbing"}},"5833634566":{"location":[45.5198754,-73.5357733],"ts":"2020-01-23T22:20:20Z","tz":-5,"tags":{"climbing":"route_bottom","climbing:grade:uiaa":"5","climbing:length":"0","climbing:toprope":"yes","ele":"14.2","name":"sans nome","sport":"climbing"}},"5833634567":{"location":[45.5198584,-73.53575],"ts":"2023-01-05T22:21:27Z","tz":-5,"tags":{"climbing":"route_bottom","climbing:boulder":"yes","climbing:grade:uiaa":"7","climbing:length":"0","ele":"14.2","name":"La CRAQ","sport":"climbing"}},"5833634568":{"location":[45.5198557,-73.53574],"ts":"2023-01-05T22:21:27Z","tz":-5,"tags":{"climbing":"route_bottom","climbing:boulder":"yes","climbing:grade:uiaa":"8-","climbing:length":"0","ele":"14.2","name":"La CRAQ directe","sport":"climbing"}},"5833634569":{"location":[45.519851,-73.5357324],"ts":"2023-01-05T22:21:27Z","tz":-5,"tags":{"climbing":"route_bottom","climbing:boulder":"yes","climbing:grade:uiaa":"9+","climbing:length":"0","ele":"14.2","name":"Finalment","sport":"climbing"}},"5833634570":{"location":[45.519851,-73.5357197],"ts":"2023-01-05T22:21:27Z","tz":-5,"tags":{"climbing":"route_bottom","climbing:boulder":"yes","climbing:grade:uiaa":"9+","climbing:length":"0","ele":"14.2","name":"Quatrain","sport":"climbing"}},"5833634571":{"location":[45.5198498,-73.5357081],"ts":"2023-01-05T22:21:27Z","tz":-5,"tags":{"climbing":"route_bottom","climbing:boulder":"yes","climbing:grade:uiaa":"9-","climbing:length":"0","ele":"14.2","name":"Trio","sport":"climbing"}},"5833635209":{"location":[45.5198882,-73.5358196],"ts":"2023-01-05T22:21:27Z","tz":-5,"tags":{"climbing":"route_bottom","climbing:boulder":"yes","climbing:grade:uiaa":"6+","climbing:length":"0","ele":"14.2","name":"Shish","sport":"climbing"}},"5833635210":{"location":[45.519882,-73.5358326],"ts":"2023-01-05T22:21:27Z","tz":-5,"tags":{"climbing":"route_bottom","climbing:boulder":"yes","climbing:grade:uiaa":"6+","climbing:length":"0","ele":"14.2","name":"Deo","sport":"climbing"}},"5833635211":{"location":[45.5197176,-73.5358664],"ts":"2023-06-21T15:27:50Z","tz":-5,"tags":{"climbing":"route_bottom","climbing:boulder":"yes","climbing:grade:uiaa":"7","climbing:length":"0","ele":"14.2","name":"Neo","sport":"climbing"}},"5833635212":{"location":[45.5198411,-73.5358335],"ts":"2020-01-23T22:20:20Z","tz":-5,"tags":{"climbing":"route_bottom","climbing:boulder":"yes","climbing:grade:uiaa":"6+","climbing:length":"0","ele":"14.2","name":"Ma-Ri","sport":"climbing"}},"5833635213":{"location":[45.5198252,-73.53583],"ts":"2020-01-23T22:20:20Z","tz":-5,"tags":{"climbing":"route_bottom","climbing:boulder":"yes","climbing:grade:uiaa":"7+","climbing:length":"0","ele":"14.2","name":"Lork","sport":"climbing"}},"5833635214":{"location":[45.5198118,-73.5358279],"ts":"2020-01-23T22:20:20Z","tz":-5,"tags":{"climbing":"route_bottom","climbing:grade:uiaa":"4+","climbing:length":"0","climbing:toprope":"yes","ele":"14.2","name":"sans nome","sport":"climbing"}},"5891678485":{"location":[45.5363646,-73.5433707],"ts":"2018-10-14T23:04:36Z","tz":-5,"tags":{"addr:housenumber":"2985","addr:street":"Rue Sainte-Catherine Est","leisure":"sports_centre","name":"Blocshop","sport":"climbing"}},"5984169910":{"location":[45.4366408,-73.6077925],"ts":"2022-07-12T12:02:17Z","tz":-5,"tags":{"addr:city":"Montréal","addr:housenumber":"1411","addr:province":"QC","addr:street":"Rue Lapierre","leisure":"sports_centre","name":"Centre d'escalade Vertical","sport":"climbing"}},"5984172959":{"location":[45.5684091,-73.536608],"ts":"2024-03-05T01:37:22Z","tz":-5,"tags":{"addr:city":"Montréal","addr:housenumber":"2350","addr:postcode":"H1N 3T1","addr:province":"QC","addr:street":"Rue Dickson","contact:website":"http://www.horizonroc.com/","leisure":"sports_centre","name":"Centre d'escalade Horizon Roc","sport":"climbing"}},"5984179068":{"location":[45.4790272,-73.7828972],"ts":"2018-10-14T22:57:27Z","tz":-5,"tags":{"contact:website":"https://www.betabloc.ca/","leisure":"sports_centre","name":"Beta Bloc","sport":"climbing"}},"6034827696":{"location":[45.5606783,-73.7423349],"ts":"2023-12-31T15:07:15Z","tz":-5,"tags":{"addr:city":"Laval","addr:housenumber":"2929","addr:postcode":"H7T 2Y8","addr:province":"QC","addr:street":"Boulevard Saint-Martin Ouest","contact:website":"https://clipnclimblaval.ca/","leisure":"sports_centre","name":"Escalade Clip 'n Climb Laval","sport":"climbing"}},"7209456285":{"location":[45.509779,-73.563005],"ts":"2025-06-25T10:42:16Z","tz":-5,"tags":{"addr:city":"Boul St-Laurent","addr:housenumber":"1211","addr:postcode":"H2X 2S6","addr:province":"QC","addr:street":"Boulevard Saint-Laurent","addr:unit":"1209","contact:facebook":"cafeblocmtl","contact:instagram":"cafe_bloc","contact:phone":"+14387943874","contact:website":"https://www.cafebloc.com/","leisure":"sports_centre","name":"Café Bloc","opening_hours":"Mo-Fr 07:00-23:00; Sa-Su 09:00-21:00","sport":"climbing"}},"9354573855":{"location":[45.5651915,-73.5962836],"ts":"2024-02-09T14:49:57Z","tz":-5,"tags":{"addr:city":"Montréal","addr:housenumber":"3811","addr:province":"QC","addr:street":"Rue Everett","leisure":"sports_centre","name":"Le Mouv' Espace Bloc","sport":"climbing","website":"https://www.lemouv.ca/"}},"9405700501":{"location":[45.5661216,-73.6394156],"ts":"2023-12-18T18:18:48Z","tz":-5,"tags":{"fee":"no","leisure":"sports_centre","name":"Aire d'escalade","sport":"climbing"}},"9888750319":{"location":[45.4622825,-73.5636934],"ts":"2022-07-15T02:17:49Z","tz":-5,"tags":{"addr:city":"Verdun","addr:housenumber":"4137","addr:postcode":"H4G 2A6","addr:province":"Quebec","addr:street":"Bd LaSalle","fee":"yes","leisure":"sports_centre","name":"Allez Up Verdun","opening_hours":"Mo-Fr 08:30-00:00; Sa-Su 08:30-22:00","sport":"climbing"}},"10309563656":{"location":[45.5278691,-73.5981906],"ts":"2025-01-06T21:37:33Z","tz":-5,"tags":{"addr:city":"Montréal","addr:housenumber":"5600","addr:postcode":"H2T 2A7","addr:province":"Quebec","addr:street":"Avenue De Gaspé","check_date":"2025-01-06","fee":"yes","leisure":"sports_centre","name":"Allez Up Mile-End","opening_hours":"Mo-Fr 08:30-00:00; Sa-Su 08:30-22:00","payment:cash":"yes","payment:credit_cards":"yes","payment:debit_cards":"yes","sport":"climbing"}},"10589908469":{"location":[45.565481,-73.7295517],"ts":"2023-03-25T11:40:14Z","tz":-5,"tags":{"addr:city":"Laval","addr:housenumber":"1850","addr:postcode":"H7S 1Z3","addr:province":"QC","addr:street":"Boulevard Saint-Martin Ouest","contact:phone":"+1(514) 989-9656","contact:website":"https://allezup.com/en/","fee":"yes","leisure":"sports_centre","name":"Le Crux Laval","opening_hours":"Mo-Fr 09:30-23:00; Sa-Su 08:30-21:00","sport":"climbing"}},"11077001438":{"location":[45.5303362,-73.6120878],"ts":"2023-07-30T15:15:31Z","tz":-5,"tags":{"name":"Bloc Shop","sport":"climbing"}},"12319291153":{"location":[45.4476887,-73.480756],"ts":"2025-07-02T10:43:05Z","tz":-5,"tags":{"man_made":"tower","sport":"climbing","tower:type":"climbing"}}}