{"105260757":{"lat":50.5440853,"lon":12.1816073,"ts":"2024-03-05T15:51:28Z","tz":1,"tags":{"addr:city":"Pöhl","addr:housenumber":"46","addr:postcode":"08543","addr:street":"Hauptstrasse","contact:phone":"+49 173 6855171","contact:website":"http://www.kletterwald.de/sport-und-freizeitanlagen/kletterwald-poehl.html","landuse":"recreation_ground","name":"Kletterwald Pöhl","opening_hours":"Jul 1-Aug 27: We-Mo 10:00-17:00","sport":"climbing"}},"687970057":{"lat":50.6283855,"lon":12.2364105,"ts":"2023-06-14T22:26:30Z","tz":1,"tags":{"height":"10","natural":"cliff","sport":"climbing"}},"2515008213":{"lat":50.5793308,"lon":12.1596059,"ts":"2022-03-05T23:18:38Z","tz":1,"tags":{"name":"Plattenwand","natural":"peak","sport":"climbing"}},"2515008224":{"lat":50.5846124,"lon":12.1595717,"ts":"2022-03-05T23:18:38Z","tz":1,"tags":{"name":"Uhustein","natural":"peak","sport":"climbing"}},"2869828499":{"lat":50.5792909,"lon":12.1591297,"ts":"2022-03-05T23:18:38Z","tz":1,"tags":{"name":"Nelkenstein","natural":"peak","sport":"climbing"}},"2869828500":{"lat":50.5792559,"lon":12.1586352,"ts":"2025-01-20T21:12:42Z","tz":1,"tags":{"name":"Sonnenplatte","natural":"peak","sport":"climbing"}},"7813737502":{"lat":50.5845374,"lon":12.1604439,"ts":"2022-05-15T15:30:02Z","tz":1,"tags":{"name":"Dornbusch","natural":"peak","sport":"climbing"}},"7820263597":{"lat":50.585707,"lon":12.1630707,"ts":"2023-01-20T08:11:10Z","tz":1,"tags":{"name":"Elsterwand","natural":"peak","sport":"climbing"}},"7820270529":{"lat":50.5850332,"lon":12.1613733,"ts":"2021-10-31T17:32:16Z","tz":1,"tags":{"name":"Elsterbergerwand","natural":"peak","sport":"climbing"}},"8233916163":{"lat":50.6323184,"lon":12.2227769,"ts":"2023-06-14T22:26:30Z","tz":1,"tags":{"ele":"348","name":"Köhlerspitzen","natural":"peak","sport":"climbing"}},"9164480626":{"lat":50.5790559,"lon":12.1590244,"ts":"2022-03-05T23:18:38Z","tz":1,"tags":{"name":"Zwerg","natural":"peak","sport":"climbing"}},"9209926462":{"lat":50.5847444,"lon":12.1595411,"ts":"2022-03-05T23:18:38Z","tz":1,"tags":{"name":"Überhägende Wand","natural":"peak","sport":"climbing"}},"9209960893":{"lat":50.5841398,"lon":12.1589298,"ts":"2022-03-05T23:18:38Z","tz":1,"tags":{"name":"Schattenwand","natural":"peak","sport":"climbing"}},"9209968259":{"lat":50.5843757,"lon":12.1590463,"ts":"2022-03-05T23:18:38Z","tz":1,"tags":{"name":"Uhumassiv","natural":"peak","sport":"climbing"}},"9214621825":{"lat":50.5838535,"lon":12.1574736,"ts":"2021-10-31T17:23:36Z","tz":1,"tags":{"name":"Orbisfels","natural":"peak","sport":"climbing"}},"9214637995":{"lat":50.5858812,"lon":12.1612746,"ts":"2021-10-31T17:33:30Z","tz":1,"tags":{"name":"Hohe Wand","natural":"peak","sport":"climbing"}},"9214642831":{"lat":50.5856854,"lon":12.1619384,"ts":"2022-03-05T23:18:38Z","tz":1,"tags":{"name":"Vogtlandriff","natural":"peak","sport":"climbing"}},"9214649032":{"lat":50.5846717,"lon":12.1605873,"ts":"2022-03-05T23:18:38Z","tz":1,"tags":{"name":"Dunkle Wand","natural":"peak","sport":"climbing"}},"9214659325":{"lat":50.5848782,"lon":12.1607197,"ts":"2022-03-05T23:18:38Z","tz":1,"tags":{"name":"Baumarkt","natural":"peak","sport":"climbing"}},"9214887785":{"lat":50.58481,"lon":12.16098,"ts":"2021-10-31T20:02:26Z","tz":1,"tags":{"name":"Drachenkamm","natural":"peak","sport":"climbing"}},"9214922079":{"lat":50.58726,"lon":12.16185,"ts":"2021-10-31T20:12:01Z","tz":1,"tags":{"name":"Nymphenwand","natural":"peak","sport":"climbing"}},"9214922080":{"lat":50.587,"lon":12.16199,"ts":"2025-01-20T21:12:42Z","tz":1,"tags":{"name":"Faunwand","natural":"peak","sport":"climbing"}},"9214922081":{"lat":50.587,"lon":12.16154,"ts":"2021-10-31T20:12:01Z","tz":1,"tags":{"name":"Fehenstein","natural":"peak","sport":"climbing"}},"9214922082":{"lat":50.58663,"lon":12.16195,"ts":"2021-10-31T20:12:01Z","tz":1,"tags":{"name":"Paradieswand","natural":"peak","sport":"climbing"}},"9214930913":{"lat":50.5864,"lon":12.16091,"ts":"2021-10-31T20:06:00Z","tz":1,"tags":{"name":"Monsterwand","natural":"peak","sport":"climbing"}},"9214945107":{"lat":50.58524,"lon":12.16361,"ts":"2021-10-31T20:16:35Z","tz":1,"tags":{"name":"Trollwand","natural":"peak","sport":"climbing"}},"9214948465":{"lat":50.58512,"lon":12.16286,"ts":"2021-10-31T20:19:36Z","tz":1,"tags":{"name":"Kleiner Kletterstein","natural":"peak","sport":"climbing"}},"9214950614":{"lat":50.57993,"lon":12.16197,"ts":"2021-10-31T20:35:55Z","tz":1,"tags":{"name":"Dachstein","natural":"peak","sport":"climbing"}},"9214950615":{"lat":50.5802,"lon":12.16161,"ts":"2021-10-31T20:35:55Z","tz":1,"tags":{"name":"Grottenwand","natural":"peak","sport":"climbing"}},"9214950616":{"lat":50.58055,"lon":12.16157,"ts":"2021-10-31T20:35:55Z","tz":1,"tags":{"name":"Septemberwand","natural":"peak","sport":"climbing"}},"9214955789":{"lat":50.58266,"lon":12.15908,"ts":"2021-10-31T20:27:15Z","tz":1,"tags":{"name":"Schafswand","natural":"peak","sport":"climbing"}},"9214958621":{"lat":50.58285,"lon":12.15922,"ts":"2021-10-31T20:23:49Z","tz":1,"tags":{"name":"Tunnelnadel","natural":"peak","sport":"climbing"}},"9214958622":{"lat":50.58403,"lon":12.16197,"ts":"2021-10-31T20:23:49Z","tz":1,"tags":{"name":"Tunnelwand","natural":"peak","sport":"climbing"}},"9214960687":{"lat":50.58164,"lon":12.16073,"ts":"2021-10-31T20:30:16Z","tz":1,"tags":{"name":"Birkenwand","natural":"peak","sport":"climbing"}},"9214963404":{"lat":50.58194,"lon":12.16056,"ts":"2021-10-31T20:28:47Z","tz":1,"tags":{"name":"Pöhlwand","natural":"peak","sport":"climbing"}},"9214968122":{"lat":50.57664,"lon":12.1586,"ts":"2021-10-31T20:37:43Z","tz":1,"tags":{"name":"Steinbruchblick","natural":"peak","sport":"climbing"}},"9214981204":{"lat":50.58859,"lon":12.16917,"ts":"2021-10-31T20:46:24Z","tz":1,"tags":{"name":"Kleine Zacke","natural":"peak","sport":"climbing"}},"9214981205":{"lat":50.58868,"lon":12.16876,"ts":"2021-10-31T20:46:24Z","tz":1,"tags":{"name":"Große Zacke","natural":"peak","sport":"climbing"}},"9214981206":{"lat":50.58889,"lon":12.16917,"ts":"2021-10-31T20:46:24Z","tz":1,"tags":{"name":"Rabenwand","natural":"peak","sport":"climbing"}},"9214981207":{"lat":50.58898,"lon":12.16885,"ts":"2021-10-31T20:46:24Z","tz":1,"tags":{"name":"Wächterwand","natural":"peak","sport":"climbing"}},"9214981208":{"lat":50.58912,"lon":12.16864,"ts":"2021-10-31T20:46:24Z","tz":1,"tags":{"name":"Kleppengrundwächter","natural":"peak","sport":"climbing"}},"11911681112":{"lat":50.6297142,"lon":12.2235649,"ts":"2024-05-17T06:25:44Z","tz":1,"tags":{"name":"Kappelstein","natural":"peak","sport":"climbing"}}}