{"18455408":{"lat":49.8726483,"lon":12.0228874,"ts":"2024-12-23T10:42:38Z","tz":1,"tags":{"climbing":"area","name":"Fichtelgebirge","sport":"climbing","type":"site"}},"200223530":{"lat":50.0359893,"lon":12.0054559,"ts":"2019-10-09T18:21:40Z","tz":1,"tags":{"addr:city":"Wunsiedel","addr:housename":"Zuckerhut","addr:housenumber":"5a","addr:postcode":"95632","addr:street":"Marktredwitzer Straße","building":"yes","email":"info@kletterhalle-zuckerhut.de","leisure":"sports_centre","name":"Vitalscheune GmbH Medizinische Trainingstherapie","phone":"+49 9232 915 460","sport":"climbing","website":"www.kletterhalle-zuckerhut.de"}},"225790704":{"lat":49.8766787,"lon":12.0172943,"ts":"2022-06-25T17:59:36Z","tz":1,"tags":{"climbing:length":"22","climbing:length:max":"27","climbing:quality":"solid","climbing:rock":"granite","climbing:routes":"63","climbing:sport":"yes","name":"Räuberfelsen","natural":"cliff","note":"Kletterfelsen","outdoor":"yes","sport":"climbing"}},"225790705":{"lat":49.8733202,"lon":12.0152026,"ts":"2022-06-25T17:59:36Z","tz":1,"tags":{"climbing:length":"18","climbing:length:max":"22","climbing:quality":"solid","climbing:rock":"granite","climbing:routes":"33","climbing:sport":"yes","name":"Vogelfelsen","natural":"cliff","outdoor":"yes","sport":"climbing"}},"1196754534":{"lat":49.9907639,"lon":12.0087153,"ts":"2023-08-10T10:56:40Z","tz":1,"tags":{"climbing:boulder":"yes","natural":"cliff","sport":"climbing"}},"2345348661":{"lat":49.9204096,"lon":12.1208991,"ts":"2014-09-19T19:44:46Z","tz":1,"tags":{"climbing:rock":"granite","name":"Augsburger Felsen","note":"Granitkletterfelsen mit Klettersteig","sport":"climbing","summit:log":"yes"}},"2478033553":{"lat":49.867101,"lon":12.2275024,"ts":"2014-03-17T18:42:15Z","tz":1,"tags":{"climbing:bolted":"2m","climbing:length":"10m","climbing:rock":"granite","climbing:sport":"yes","name":"Troglauermühle-Felsen","sport":"climbing"}},"2723886414":{"lat":49.8667806,"lon":12.2288088,"ts":"2014-03-17T18:25:13Z","tz":1,"tags":{"climbing:quality":"solid","climbing:rock":"granite","climbing:sport":"yes","name":"Troglauer Mühle","sport":"climbing"}},"6580193257":{"lat":49.8727564,"lon":12.0223689,"ts":"2024-12-23T10:42:38Z","tz":1,"tags":{"climbing":"crag","climbing:length":"10","climbing:length:max":"13","climbing:quality":"solid","climbing:rock":"granite","climbing:routes":"13","climbing:sport":"yes","name":"Waldkopf","natural":"peak","outdoor":"yes","sport":"climbing"}},"6580193258":{"lat":49.8725403,"lon":12.022393,"ts":"2024-12-23T10:42:38Z","tz":1,"tags":{"climbing":"crag","climbing:length":"15","climbing:length:max":"18","climbing:quality":"solid","climbing:rock":"granite","climbing:routes":"21","climbing:sport":"yes","name":"Ratsfelsen","natural":"peak","outdoor":"yes","sport":"climbing"}},"7568547959":{"lat":49.881636,"lon":12.1015026,"ts":"2020-05-29T07:49:04Z","tz":1,"tags":{"addr:city":"Friedenfels","addr:housenumber":"3","addr:postcode":"95688","addr:street":"Am Hammerweiher","building":"yes","leisure":"sports_centre","sport":"climbing"}},"9846746670":{"lat":49.872592,"lon":12.023406,"ts":"2024-12-23T10:42:38Z","tz":1,"tags":{"climbing":"crag","climbing:length":"10","climbing:quality":"solid","climbing:rock":"granite","climbing:routes":"2","climbing:sport":"yes","name":"Y-Riss","natural":"cliff","sport":"climbing"}}}