{"10994851":{"lat":49.012425,"lon":11.9536756,"ts":"2020-04-14T09:35:55Z","tz":1,"tags":{"climbing":"crag","name":"Eisenbahnerwand","type":"site","url":"https://www.juraclimbs.de/rocks/35?locale=de"}},"74876644":{"lat":48.9926128,"lon":12.0973298,"ts":"2011-01-06T17:13:18Z","tz":1,"tags":{"building":"yes","name":"Kletterturm","sport":"climbing"}},"148631769":{"lat":49.0426809,"lon":12.0860812,"ts":"2019-09-18T15:45:00Z","tz":1,"tags":{"addr:city":"Lappersdorf","addr:housenumber":"6","addr:postcode":"93138","addr:street":"Am Silbergarten","addr:suburb":"Kareth","building":"yes","building:colour":"grey","building:levels":"4.5","leisure":"sports_centre","name":"DAV Kletterzentrum Regensburg","phone":"+49 941 280 050 85","roof:colour":"grey","source":"DOP from LVA Bayern","sport":"climbing","website":"https://kletterzentrum-regensburg.de/"}},"298613247":{"lat":48.9528129,"lon":12.0059515,"ts":"2024-05-26T19:17:58Z","tz":1,"tags":{"climbing:grade:uiaa:max":"8","climbing:grade:uiaa:min":"6-","climbing:orientation":"S","climbing:sport":"13","height":"17","name":"Hanselbergfels","natural":"cliff","sport":"climbing"}},"303143166":{"lat":49.0424672,"lon":11.9798735,"ts":"2024-07-21T14:12:00Z","tz":1,"tags":{"alt_name":"Druidenhöhle","climbing:grade:uiaa:max":"10","climbing:grade:uiaa:min":"6+","climbing:routes":"4","climbing:sport":"yes","fee":"no","name":"Räuberhöhle","sport":"climbing","website":"https://juraclimbs.de/rocks/121?locale=de"}},"305310690":{"lat":48.982359,"lon":12.195504,"ts":"2024-06-19T07:14:23Z","tz":1,"tags":{"addr:city":"Neutraubling","addr:country":"DE","addr:housenumber":"1","addr:postcode":"93073","addr:street":"Pommernstraße","building":"commercial","email":"info@boulderhalle-projekt-eins.de","image":"https://www.boulderhalle-projekt-eins.de/wp-content/uploads/go-x/u/f33c0215-de53-4ff1-9661-faa77acd4dab/image-911x456.jpg","leisure":"sports_centre","name":"Boulderhalle Projekt Eins","opening_hours":"Mo-Tu 16:00-20:00; Th 16:00-20:00","phone":"+49 9401 5280096","sport":"climbing","website":"https://www.boulderhalle-projekt-eins.de"}},"346425299":{"lat":49.0121012,"lon":11.9545841,"ts":"2020-09-11T22:41:11Z","tz":1,"tags":{"climbing":"crag","climbing:grade:uiaa:min":"4","climbing:rock":"limestone","name":"Kletterblock","natural":"cliff","sport":"climbing"}},"346425300":{"lat":49.0123804,"lon":11.9536643,"ts":"2020-09-11T22:41:11Z","tz":1,"tags":{"climbing":"crag","climbing:grade:uiaa:min":"6-","height":"20","name":"Eisenbahnerwand","natural":"cliff","note":"Kletterwand, Zone 2 (Klettern erlaubt, jedoch keine Neutouren)","sport":"climbing"}},"346425301":{"lat":49.0118958,"lon":11.9542187,"ts":"2020-09-11T22:41:11Z","tz":1,"tags":{"climbing":"crag","climbing:grade:uiaa:min":"5","climbing:rock":"limestone","name":"Schwarze Wand","natural":"cliff","sport":"climbing"}},"458169225":{"lat":49.010133,"lon":11.9544412,"ts":"2020-09-11T22:41:11Z","tz":1,"tags":{"climbing":"crag","climbing:grade:uiaa:max":"7","climbing:grade:uiaa:min":"5","climbing:rock":"limestone","name":"Nixenwand","natural":"cliff","sport":"climbing"}},"458169226":{"lat":49.0113955,"lon":11.9541102,"ts":"2020-04-14T08:38:54Z","tz":1,"tags":{"height":"50","name":"Labertalwand","natural":"cliff","sport":"climbing"}},"1157973450":{"lat":49.0321913,"lon":12.128645,"ts":"2023-12-29T09:18:21Z","tz":1,"tags":{"addr:city":"Regensburg","addr:country":"DE","addr:housenumber":"A46","addr:postcode":"93059","addr:street":"Im Gewerbepark","climbing:boulder":"yes","fax":"+49 941 89961685","leisure":"sports_centre","name":"Boulderwelt Regensburg","opening_hours":"Mo-Fr 07:00-23:00; Sa-Su 08:00-23:00","phone":"+49 941 89963606","sport":"climbing","website":"https://www.boulderwelt-regensburg.de/"}},"7355263200":{"lat":49.0424131,"lon":11.9797408,"ts":"2024-07-21T14:12:00Z","tz":1,"tags":{"climbing":"route_top"}},"7401040824":{"lat":49.0124626,"lon":11.9536299,"ts":"2020-04-14T08:37:13Z","tz":1,"tags":{"climbing":"route_bottom","climbing:bolts":"5","climbing:grade:uiaa":"7+","climbing:length":"10","name":"G'raffel Kante"}},"7401191048":{"lat":49.0124558,"lon":11.9536625,"ts":"2020-04-14T09:27:45Z","tz":1,"tags":{"climbing":"route_bottom","climbing:grade:uiaa":"9","climbing:length":"8","name":"Träge Wampe"}},"7401303192":{"lat":49.0123874,"lon":11.9537214,"ts":"2020-04-14T09:35:55Z","tz":1,"tags":{"climbing":"route_bottom","climbing:grade:uiaa":"7-","climbing:length":"15","name":"Strada del Sole"}}}