{"169711514":{"location":[44.1384494,12.0992954],"ts":"2021-01-05T18:32:26Z","tz":1,"tags":{"name":"Indiana Park Terme della Fratta","sport":"climbing","tourism":"theme_park","wikimedia_commons":"File:Parco delle Terme di Fratta.jpg"}},"1115870844":{"location":[44.2189557,12.0523533],"ts":"2011-01-22T18:40:02Z","tz":1,"tags":{"sport":"climbing"}},"2323189460":{"location":[44.150546,12.2431013],"ts":"2014-09-09T20:51:25Z","tz":1,"tags":{"addr:city":"Cesena","addr:housenumber":"35","addr:postcode":"47521","addr:street":"Via Alfonsine","building":"yes","cesena:ref_id":"059020035000","leisure":"sports_centre","name":"StreetWall","sport":"climbing"}},"3285774188":{"location":[44.2272694,12.0451248],"ts":"2015-01-13T13:20:51Z","tz":1,"tags":{"addr:city":"Forl√¨","addr:housenumber":"6","addr:postcode":"47122","addr:street":"Via Monte Santo","building":"yes","leisure":"sports_centre","name":"BlocStation","sport":"climbing"}},"7025574663":{"location":[44.2258321,12.0565121],"ts":"2021-11-17T15:54:37Z","tz":1,"tags":{"contact:housenumber":"42","contact:instagram":"https://www.instagram.com/vertical_forli/","contact:street":"Via Pandolfa","leisure":"sports_centre","name":"Vertical","phone":"+39 3481914001","sport":"climbing","website":"https://www.verticalclimb.it/"}}}