{"983852587":{"lat":42.4198397,"lon":12.1733594,"ts":"2023-11-07T11:03:46Z","tz":1,"tags":{"access":"yes","climbing:grade:french:max":"7c","climbing:grade:french:min":"5a","climbing:mixed":"yes","climbing:orientation":"NE","climbing:quality":"solid","climbing:rock":"trachite","climbing:routes":"39","climbing:trad":"yes","name":"Falesia Bagnaia","natural":"cliff","outdoor":"yes","sport":"climbing","url":"http://www.lazioverticale.joomlafree.it/"}},"1013711655":{"lat":42.4084912,"lon":12.2064168,"ts":"2021-12-24T09:39:57Z","tz":1,"tags":{"access":"yes","climbing":"boulder","climbing:boulder":"yes","climbing:grade:french:max":"8a","climbing:grade:french:min":"3","climbing:quality":"solid","climbing:rock":"basalt","climbing:routes":"9","fee":"no","leisure":"sports_centre","name":"Cypress Hill","opening_hours":"24/7","outdoor":"yes","sport":"climbing","url":"https://27crags.com/"}},"1013711656":{"lat":42.407306,"lon":12.2012924,"ts":"2022-01-03T13:23:32Z","tz":1,"tags":{"access":"yes","climbing":"boulder","climbing:boulder":"yes","climbing:grade:french:max":"6c","climbing:grade:french:min":"6b","climbing:quality":"solid","climbing:rock":"basalt","climbing:routes":"3","description":"Trachite","fee":"no","leisure":"sports_centre","name":"Torre","opening_hours":"24/7","outdoor":"yes","sport":"climbing","url":"https://27crags.com/"}},"1013711657":{"lat":42.4118103,"lon":12.2050903,"ts":"2021-12-24T09:39:57Z","tz":1,"tags":{"access":"yes","climbing":"boulder","climbing:boulder":"yes","climbing:grade:french:max":"7c","climbing:grade:french:min":"4","climbing:quality":"solid","climbing:rock":"basalt","climbing:routes":"28","fee":"no","leisure":"sports_centre","name":"Prua","opening_hours":"24/7","outdoor":"yes","sport":"climbing","url":"https://27crags.com/"}},"1013711658":{"lat":42.4091517,"lon":12.206752,"ts":"2021-12-24T09:39:57Z","tz":1,"tags":{"access":"yes","climbing":"boulder","climbing:boulder":"yes","climbing:grade:french:max":"7c+","climbing:grade:french:min":"3","climbing:quality":"solid","climbing:rock":"basalt","climbing:routes":"15","fee":"no","leisure":"sports_centre","name":"Linea Gotica","opening_hours":"24/7","outdoor":"yes","sport":"climbing","url":"https://27crags.com/"}},"1013711659":{"lat":42.407811,"lon":12.2070363,"ts":"2021-12-24T09:39:57Z","tz":1,"tags":{"access":"yes","climbing":"boulder","climbing:boulder":"yes","climbing:grade:french:max":"7c","climbing:grade:french:min":"4","climbing:quality":"solid","climbing:rock":"basalt","climbing:routes":"18","fee":"no","leisure":"sports_centre","name":"Cooperativa","opening_hours":"24/7","outdoor":"yes","sport":"climbing","url":"https://27crags.com/"}},"1221735753":{"lat":42.4198286,"lon":12.1738933,"ts":"2023-11-07T11:03:46Z","tz":1,"tags":{"access":"yes","climbing:grade:french:max":"7c","climbing:grade:french:min":"5a","climbing:mixed":"yes","climbing:orientation":"NE","climbing:quality":"solid","climbing:rock":"trachite","climbing:routes":"39","climbing:trad":"yes","name":"Falesia Bagnaia","natural":"cliff","outdoor":"yes","sport":"climbing","url":"http://www.lazioverticale.joomlafree.it/"}},"6058581167":{"lat":42.4120331,"lon":12.2077404,"ts":"2021-12-24T09:39:57Z","tz":1,"tags":{"access":"yes","climbing":"boulder","climbing:boulder":"yes","climbing:quality":"solid","climbing:rock":"basalt","description":"Trachite","fee":"no","natural":"stone","opening_hours":"24/7","outdoor":"yes","url":"https://27crags.com/"}},"6058581168":{"lat":42.4124767,"lon":12.2074252,"ts":"2022-01-05T09:40:16Z","tz":1,"tags":{"access":"yes","climbing":"boulder","climbing:boulder":"yes","climbing:quality":"solid","climbing:rock":"basalt","description":"Trachite","fee":"no","leisure":"sports_centre","natural":"stone","opening_hours":"24/7","outdoor":"yes","sport":"climbing","url":"https://27crags.com/"}},"6058581169":{"lat":42.4117094,"lon":12.2034368,"ts":"2021-12-24T09:39:57Z","tz":1,"tags":{"access":"yes","climbing":"boulder","climbing:boulder":"yes","climbing:quality":"solid","climbing:rock":"basalt","description":"Trachite","fee":"no","natural":"stone","opening_hours":"24/7","outdoor":"yes","url":"https://27crags.com/"}},"6058581170":{"lat":42.4117153,"lon":12.203815,"ts":"2021-12-24T09:39:57Z","tz":1,"tags":{"access":"yes","climbing":"boulder","climbing:boulder":"yes","climbing:quality":"solid","climbing:rock":"basalt","description":"Trachite","fee":"no","natural":"stone","opening_hours":"24/7","outdoor":"yes","url":"https://27crags.com/"}},"6058581171":{"lat":42.4117242,"lon":12.2036648,"ts":"2021-12-24T09:39:57Z","tz":1,"tags":{"access":"yes","climbing":"boulder","climbing:boulder":"yes","climbing:quality":"solid","climbing:rock":"basalt","description":"Trachite","fee":"no","natural":"stone","opening_hours":"24/7","outdoor":"yes","url":"https://27crags.com/"}},"6058581172":{"lat":42.4121619,"lon":12.2039665,"ts":"2021-12-20T12:02:44Z","tz":1,"tags":{"climbing":"boulder","description":"Trachite","natural":"stone"}},"6058581173":{"lat":42.4116653,"lon":12.2044366,"ts":"2021-12-24T09:39:57Z","tz":1,"tags":{"access":"yes","climbing":"boulder","climbing:boulder":"yes","climbing:quality":"solid","climbing:rock":"basalt","description":"Trachite","fee":"no","natural":"stone","opening_hours":"24/7","outdoor":"yes","url":"https://27crags.com/"}},"6058581174":{"lat":42.4122599,"lon":12.2060466,"ts":"2021-12-24T09:39:57Z","tz":1,"tags":{"access":"yes","climbing":"boulder","climbing:boulder":"yes","climbing:quality":"solid","climbing:rock":"basalt","description":"Trachite","fee":"no","natural":"stone","opening_hours":"24/7","outdoor":"yes","url":"https://27crags.com/"}},"6058581175":{"lat":42.4121124,"lon":12.2061793,"ts":"2021-12-24T09:39:57Z","tz":1,"tags":{"access":"yes","climbing":"boulder","climbing:boulder":"yes","climbing:quality":"solid","climbing:rock":"basalt","description":"Trachite","fee":"no","natural":"stone","opening_hours":"24/7","outdoor":"yes","url":"https://27crags.com/"}},"6058581176":{"lat":42.4120024,"lon":12.2059554,"ts":"2021-12-24T09:39:57Z","tz":1,"tags":{"access":"yes","climbing":"boulder","climbing:boulder":"yes","climbing:quality":"solid","climbing:rock":"basalt","description":"Trachite","fee":"no","natural":"stone","opening_hours":"24/7","outdoor":"yes","url":"https://27crags.com/"}},"6058581177":{"lat":42.4122262,"lon":12.2048034,"ts":"2021-12-24T09:39:57Z","tz":1,"tags":{"access":"yes","climbing":"boulder","climbing:boulder":"yes","climbing:quality":"solid","climbing:rock":"basalt","description":"Trachite","fee":"no","natural":"stone","opening_hours":"24/7","outdoor":"yes","url":"https://27crags.com/"}},"6058581178":{"lat":42.4118995,"lon":12.205085,"ts":"2021-12-24T09:39:57Z","tz":1,"tags":{"access":"yes","climbing":"boulder","climbing:boulder":"yes","climbing:quality":"solid","climbing:rock":"basalt","description":"Trachite","fee":"no","natural":"stone","opening_hours":"24/7","outdoor":"yes","url":"https://27crags.com/"}},"6771427376":{"lat":42.4093101,"lon":12.2067762,"ts":"2023-09-29T15:01:00Z","tz":1,"tags":{"access":"yes","climbing":"boulder","climbing:boulder":"yes","climbing:quality":"solid","climbing:rock":"basalt","description":"Trachite","fee":"no","natural":"stone","opening_hours":"24/7","outdoor":"yes","url":"https://27crags.com/","wikimedia_commons":"File:Monte_Cimino_Trachiti.jpg"}},"6771427377":{"lat":42.4090091,"lon":12.2066796,"ts":"2023-09-29T15:00:38Z","tz":1,"tags":{"access":"yes","climbing":"boulder","climbing:boulder":"yes","climbing:quality":"solid","climbing:rock":"basalt","description":"Trachite","fee":"no","natural":"stone","opening_hours":"24/7","outdoor":"yes","url":"https://27crags.com/","wikimedia_commons":"File:Monte_Cimino_Trachiti.jpg"}},"9352570416":{"lat":42.408621,"lon":12.2065133,"ts":"2021-12-24T09:39:57Z","tz":1,"tags":{"access":"yes","climbing":"boulder","climbing:boulder":"yes","climbing:quality":"solid","climbing:rock":"basalt","description":"Trachite","fee":"no","natural":"stone","opening_hours":"24/7","outdoor":"yes","url":"https://27crags.com/"}},"9352586717":{"lat":42.4084269,"lon":12.2063041,"ts":"2021-12-24T09:39:57Z","tz":1,"tags":{"access":"yes","climbing":"boulder","climbing:boulder":"yes","climbing:quality":"solid","climbing:rock":"basalt","description":"Trachite","fee":"no","natural":"stone","opening_hours":"24/7","outdoor":"yes","url":"https://27crags.com/"}},"9352586727":{"lat":42.4072763,"lon":12.2011945,"ts":"2021-12-24T09:39:57Z","tz":1,"tags":{"access":"yes","climbing":"boulder","climbing:boulder":"yes","climbing:quality":"solid","climbing:rock":"basalt","description":"Trachite","fee":"no","natural":"stone","opening_hours":"24/7","outdoor":"yes","url":"https://27crags.com/"}},"9352586728":{"lat":42.4073376,"lon":12.2013473,"ts":"2021-12-24T09:39:57Z","tz":1,"tags":{"access":"yes","climbing":"boulder","climbing:boulder":"yes","climbing:quality":"solid","climbing:rock":"basalt","description":"Trachite","fee":"no","natural":"stone","opening_hours":"24/7","outdoor":"yes","url":"https://27crags.com/"}},"9352586742":{"lat":42.4116549,"lon":12.2050112,"ts":"2021-12-24T09:39:57Z","tz":1,"tags":{"access":"yes","climbing":"boulder","climbing:boulder":"yes","climbing:quality":"solid","climbing:rock":"basalt","description":"Trachite","fee":"no","natural":"stone","opening_hours":"24/7","outdoor":"yes","url":"https://27crags.com/"}},"9352586743":{"lat":42.4094171,"lon":12.2073555,"ts":"2022-01-05T09:41:04Z","tz":1,"tags":{"access":"yes","climbing":"boulder","climbing:boulder":"yes","climbing:grade:french:max":"7c+","climbing:grade:french:min":"5a","climbing:quality":"solid","climbing:rock":"basalt","climbing:routes":"4","description":"Trachite","fee":"no","leisure":"sports_centre","name":"Sasso Mescatelli","natural":"stone","opening_hours":"24/7","outdoor":"yes","sport":"climbing","url":"https://27crags.com/"}},"9352586769":{"lat":42.4081377,"lon":12.2071651,"ts":"2021-12-24T09:39:57Z","tz":1,"tags":{"access":"yes","climbing":"boulder","climbing:boulder":"yes","climbing:quality":"solid","climbing:rock":"basalt","description":"Trachite","fee":"no","natural":"stone","opening_hours":"24/7","outdoor":"yes","url":"https://27crags.com/"}},"9352586770":{"lat":42.4075674,"lon":12.2069022,"ts":"2021-12-24T09:39:57Z","tz":1,"tags":{"access":"yes","climbing":"boulder","climbing:boulder":"yes","climbing:quality":"solid","climbing:rock":"basalt","description":"Trachite","fee":"no","natural":"stone","opening_hours":"24/7","outdoor":"yes","url":"https://27crags.com/"}}}