{"18345791":{"lat":60.1592143,"lon":24.8659167,"ts":"2025-01-05T02:59:37Z","tz":2,"tags":{"climbing":"boulder","name":"Myllykallio crag","sport":"climbing"}},"369241481":{"lat":60.1959847,"lon":24.9324656,"ts":"2023-07-20T18:50:08Z","tz":2,"tags":{"addr:city":"Helsinki","addr:housenumber":"4","addr:postcode":"00520","addr:street":"Veturitallinkuja","alt_name":"BK Pasila","climbing:boulder":"yes","contact:email":"pasila@boulderkeskus.com","contact:facebook":"https://www.facebook.com/boulderkeskus","contact:instagram":"boulderkeskus","contact:phone":"+358505515855","contact:website":"https://www.boulderkeskus.com/fi/content/10-bk-pasila","fee":"yes","indoor":"yes","leisure":"sports_centre","name":"Boulderkeskus Pasila","opening_hours":"Mo-Fr 10:00-21:00; Sa-Su 12:00-18:00","operator:wikidata":"Q120765365","outdoor":"no","sport":"climbing","start_date":"2008"}},"937511056":{"lat":60.236674,"lon":24.8594644,"ts":"2023-07-20T18:52:26Z","tz":2,"tags":{"addr:city":"Helsinki","addr:country":"FI","addr:housenumber":"1","addr:postcode":"00390","addr:street":"Ruosilantie","alt_name":"BK Konala","contact:email":"konala@boulderkeskus.com","contact:facebook":"https://www.facebook.com/boulderkeskus","contact:instagram":"boulderkeskus","contact:phone":"+358445504154","contact:website":"https://www.boulderkeskus.com/fi/content/11-bk-konala","fee":"yes","indoor":"yes","leisure":"sports_centre","name":"Boulderkeskus Konala","opening_hours":"Mo-Fr 10:00-21:00; Sa-Su 12:00-18:00","operator:wikidata":"Q120765365","outdoor":"no","sport":"climbing"}},"1065153183":{"lat":60.16603,"lon":24.903671,"ts":"2023-03-05T19:59:42Z","tz":2,"tags":{"addr:city":"Helsinki","addr:housenumber":"3","addr:postcode":"00180","addr:street":"Energiakatu","contact:email":"info@kiipeilyareena.com","contact:phone":"+358453292552","fee":"yes","indoor":"yes","leisure":"sports_centre","level":"-1","name":"KiipeilyAreena Salmisaari","opening_hours":"Mo-Fr 10:00-22:00; Sa-Su 10:00-20:00","operator":"KiipeilyAreena","operator:wikidata":"Q17631467","outdoor":"no","sport":"climbing","website":"https://kiipeilyareena.com/salmisaari-seinakiipeily/"}},"1167723532":{"lat":60.1563368,"lon":24.8790097,"ts":"2016-09-14T23:21:43Z","tz":2,"tags":{"name":"Lauttasaari kalliokiipeilyseinä","sport":"climbing"}},"1167723751":{"lat":60.2185775,"lon":24.9512168,"ts":"2011-12-29T21:00:19Z","tz":2,"tags":{"name":"Taivaskallio/kalliokiipeilyseinä","sport":"climbing"}},"1167724077":{"lat":60.1877366,"lon":24.8942683,"ts":"2011-02-23T07:04:47Z","tz":2,"tags":{"name":"Meilahti/kalliokiipeilyseinä","sport":"climbing"}},"1167724088":{"lat":60.2246596,"lon":24.8830389,"ts":"2021-03-07T12:57:43Z","tz":2,"tags":{"name":"Haaga/kalliokiipeilyseinä","sport":"climbing"}},"1338667426":{"lat":60.1594257,"lon":24.8669923,"ts":"2024-11-28T17:51:05Z","tz":2,"tags":{"climbing":"boulder","name":"Aki Poliz","sport":"climbing"}},"1338667427":{"lat":60.1589812,"lon":24.8648362,"ts":"2024-11-28T17:51:05Z","tz":2,"tags":{"climbing":"boulder","name":"Poikkarimuuri","sport":"climbing"}},"1338667428":{"lat":60.1589881,"lon":24.8650125,"ts":"2024-11-28T17:51:05Z","tz":2,"tags":{"climbing":"boulder","name":"Dino Event","sport":"climbing"}},"1338667429":{"lat":60.1590575,"lon":24.86513,"ts":"2024-11-28T17:51:05Z","tz":2,"tags":{"climbing":"boulder","name":"Dino Event","sport":"climbing"}},"3790767206":{"lat":60.2392715,"lon":24.8494206,"ts":"2023-03-05T20:07:10Z","tz":2,"tags":{"addr:city":"Helsinki","addr:housename":"Kauppakeskus Ristikko","addr:housenumber":"1","addr:postcode":"00390","addr:street":"Ajomiehentie","contact:email":"ristikko@kiipeilyareena.com","contact:phone":"+358447455291","fee":"yes","indoor":"yes","leisure":"sports_centre","level":"3","name":"KiipeilyAreena Ristikko","opening_hours":"Mo-Fr 10:00-22:00; Sa-Su 10:00-20:00","operator":"KiipeilyAreena","operator:wikidata":"Q17631467","outdoor":"no","sport":"climbing","website":"https://kiipeilyareena.com/ristikko/"}},"4442073460":{"lat":60.1485685,"lon":24.7419298,"ts":"2025-01-28T13:03:13Z","tz":2,"tags":{"check_date":"2023-09-25","fitness_station":"bouldering","leisure":"fitness_station","sport":"climbing"}},"5462385074":{"lat":60.1664675,"lon":24.7018803,"ts":"2023-07-20T18:50:43Z","tz":2,"tags":{"addr:city":"Espoo","addr:housenumber":"2b","addr:postcode":"02270","addr:street":"Niittyrinne","alt_name":"BK Espoo","climbing:boulder":"yes","contact:email":"espoo@boulderkeskus.com","contact:facebook":"https://www.facebook.com/boulderkeskus","contact:instagram":"boulderkeskus","contact:phone":"+358504432340","contact:website":"https://www.boulderkeskus.com/fi/content/13-bk-espoo","fee":"yes","indoor":"yes","leisure":"sports_centre","name":"Boulderkeskus Espoo","opening_hours":"Mo-Fr 10:00-21:00; Sa-Su 12:00-18:00","operator:wikidata":"Q120765365","outdoor":"no","sport":"climbing"}},"7947586930":{"lat":60.1608275,"lon":24.8880092,"ts":"2023-07-20T18:51:16Z","tz":2,"tags":{"access":"private","addr:city":"Helsinki","addr:housenumber":"10","addr:postcode":"00200","addr:street":"Lauttasaarentie","alt_name":"BK Kino","contact:email":"kino@boulderkeskus.com","contact:facebook":"https://www.facebook.com/boulderkeskus","contact:instagram":"boulderkeskus","contact:phone":"+358503577992","contact:website":"https://www.boulderkeskus.com/fi/content/14-bk-kino","fee":"yes","indoor":"yes","leisure":"sports_centre","name":"Boulderkeskus Kino","note":"Vanhassa elokuvateatterissa ja Valtakunnansalissa aloitti toimintansa Boulderointikeskus","opening_hours":"24/7","operator:wikidata":"Q120765365","outdoor":"no","sport":"climbing","start_date":"2020-08","wheelchair":"no"}},"10916139019":{"lat":60.157723,"lon":24.8629863,"ts":"2023-05-21T14:18:11Z","tz":2,"tags":{"addr:city":"Helsinki","addr:housenumber":"19","addr:postcode":"00200","addr:street":"Isokaari","indoor":"yes","leisure":"sports_centre","name":"Lauttasaaren yhteiskoulun kiipeilyseinä","note":"sijainti summittainen","sport":"climbing"}}}