{"24221452":{"lat":37.8780911,"lon":-122.2687169,"ts":"2022-12-20T20:40:10Z","tz":-8,"tags":{"addr:city":"Berkeley","addr:country":"US","addr:housenumber":"1607","addr:state":"CA","addr:street":"Shattuck Avenue","branch":"Berkeley","building":"retail","building:levels":"1","leisure":"sports_centre","name":"Benchmark Climbing","old_name":"Walgreens;Elephant Pharmacy","opening_hours":"Mo-Fr 07:00-22:00; Sa-Su 10:00-19:00","sport":"climbing","was:amenity":"pharmacy","website":"https://www.benchmarkclimbing.com/","wheelchair":"yes"}},"36978729":{"lat":37.8099572,"lon":-122.270132,"ts":"2020-03-21T20:43:13Z","tz":-8,"tags":{"addr:city":"Oakland","addr:housename":"Great Western Power Company","addr:housenumber":"520","addr:postcode":"94612","addr:street":"Thomas L. Berkley Way","building":"yes","leisure":"fitness_centre","name":"Great Western Power Company","note":"http://www.yelp.com/biz/great-western-power-company-oakland","operator":"Touchstone Climbing","source":"Bing","sport":"climbing","website":"http://www.touchstoneclimbing.com/gwpower-co"}},"109504819":{"lat":37.900135,"lon":-122.3074266,"ts":"2023-01-29T17:21:04Z","tz":-8,"tags":{"addr:city":"El Cerrito","addr:country":"US","addr:housenumber":"5635","addr:postcode":"94530","addr:state":"CA","addr:street":"San Diego Street","building":"warehouse","description":"Slacklining, weight machines, yoga cafe.","leisure":"sports_centre","name":"Bridges Rock Gym","opening_hours":"Mo-Fr 08:00-22:00; Sa, Su 08:45-20:00","phone":"510.525.5635","sport":"climbing","website":"https://www.bridgesrockgym.com/"}},"157158278":{"lat":37.8508318,"lon":-122.2925232,"ts":"2023-11-26T01:48:06Z","tz":-8,"tags":{"addr:city":"Berkeley","addr:country":"US","addr:housenumber":"800","addr:postcode":"94710","addr:state":"CA","addr:street":"Potter Street","building":"yes","email":"contactbi@touchstoneclimbing.com","leisure":"sports_centre","name":"Berkeley Ironworks","opening_hours":"Mo-Fr 06:00-22:00; Sa, Su 10:00-17:00","operator":"Touchstone","operator:type":"private","phone":"+1 510 9819900","sport":"climbing","website":"https://touchstoneclimbing.com/ironworks/"}},"1110681857":{"lat":37.872432,"lon":-122.2591544,"ts":"2022-11-06T07:23:58Z","tz":-8,"tags":{"alt_name":"Doe Library Traverse","barrier":"wall","climbing":"route","description":"An informal buildering challenge using small ledges along the walls of Doe Library","informal":"yes","name":"Doe Traverse","sport":"buildering"}},"1323985071":{"lat":37.8710558,"lon":-122.2546244,"ts":"2024-10-15T00:48:54Z","tz":-8,"tags":{"barrier":"wall","material":"concrete","sport":"climbing"}},"2411694722":{"lat":37.8918057,"lon":-122.2635481,"ts":"2024-08-08T13:10:53Z","tz":-8,"tags":{"name":"Cragmont Park","sport":"climbing","website":"https://berkeleyca.gov/community-recreation/parks-recreation/parks/cragmont-rock-park"}},"4826736488":{"lat":37.8921238,"lon":-122.2762477,"ts":"2018-10-19T15:20:25Z","tz":-8,"tags":{"climbing":"crag","climbing:boulder":"yes","climbing:rock":"northbrae_rhyolite","sport":"climbing"}},"4826736537":{"lat":37.8922685,"lon":-122.273144,"ts":"2023-11-23T12:10:10Z","tz":-8,"tags":{"climbing":"crag","climbing:boulder":"yes","climbing:rock":"northbrae_rhyolite","name":"Indian Rock","sport":"climbing"}},"4826736596":{"lat":37.8932798,"lon":-122.272467,"ts":"2023-11-23T12:20:41Z","tz":-8,"tags":{"climbing":"crag","climbing:boulder":"yes","climbing:rock":"northbrae_rhyolite","name":"Mortar Rock Bouldering","sport":"climbing"}},"9089896749":{"lat":37.8515721,"lon":-122.292605,"ts":"2023-11-26T01:48:06Z","tz":-8,"tags":{"addr:city":"Berkeley","addr:country":"US","addr:housenumber":"795","addr:postcode":"94710","addr:state":"CA","addr:street":"Potter Street","leisure":"sports_centre","name":"Training Center","operator":"Touchstone","operator:type":"private","phone":"510-981-9900","sport":"climbing","website":"https://touchstoneclimbing.com/team-training-center/"}},"9459824312":{"lat":37.8922781,"lon":-122.261147,"ts":"2024-08-13T23:48:31Z","tz":-8,"tags":{"climbing":"boulder","name":"Remillard Park Climbing","natural":"stone","sport":"climbing","wikimedia_commons":"File:20240813 Remillard Park 5.jpg"}},"9600802720":{"lat":37.8159777,"lon":-122.288745,"ts":"2022-03-23T17:37:50Z","tz":-8,"tags":{"leisure":"sports_centre","name":"Pacific Pipe","sport":"climbing","website":"https://touchstoneclimbing.com/pacific-pipe/"}},"9892676295":{"lat":37.8915901,"lon":-122.2779901,"ts":"2024-06-15T08:33:52Z","tz":-8,"tags":{"addr:city":"Berkeley","addr:country":"US","addr:housenumber":"1861;1863;1865;1869;1871;1875;1877;1965","addr:state":"CA","addr:street":"Solano Avenue","check_date":"2024-06-14","contact:facebook":"https://www.facebook.com/oaksclimbing/","contact:instagram":"https://www.instagram.com/oaksclimbing/","leisure":"sports_centre","name":"The Oaks Climbing","sport":"climbing","url":"https://www.berkeleyside.org/2019/12/04/touchstone-gets-building-permit-for-the-oaks-climbing-gym-in-berkeley","wikidata":"Q44859043"}},"10205094246":{"lat":37.8674458,"lon":-122.2587696,"ts":"2023-06-11T19:37:30Z","tz":-8,"tags":{"addr:city":"Berkeley","addr:housenumber":"2369","addr:postcode":"94704","addr:state":"CA","addr:street":"Telegraph Avenue","charge":"$18 Day Pass","check_date":"2023-06-11","fee":"yes","leisure":"sports_centre","name":"Mosaic Boulders","sport":"climbing","website":"https://www.mosaicboulders.com/"}}}