{"13470814":{"lat":35.9067926,"lon":138.5796741,"ts":"2021-11-23T03:22:50Z","tz":9,"tags":{"name":"カサメリ沢","name:en":"kasameri","site":"sport","sport":"climbing","type":"site"}},"13470832":{"lat":35.9085337,"lon":138.6402726,"ts":"2023-09-10T07:56:34Z","tz":9,"tags":{"climbing":"area","name":"小川山","name:en":"ogawayama","site":"sport","sport":"climbing","type":"site"}},"682965963":{"lat":35.9073831,"lon":138.6443575,"ts":"2023-05-22T13:29:04Z","tz":9,"tags":{"name":"小川山 - 父岩","name:en":"Ogawayama - chichi iwa","natural":"cliff","sport":"climbing"}},"823016311":{"lat":35.9066481,"lon":138.5801284,"ts":"2020-07-05T02:14:19Z","tz":9,"tags":{"name":"モツランド","name:en":"Motsu Land","natural":"cliff","sport":"climbing"}},"823016312":{"lat":35.9072188,"lon":138.5783688,"ts":"2020-07-05T02:14:19Z","tz":9,"tags":{"name":"絵星岩","natural":"cliff","sport":"climbing"}},"993296881":{"lat":35.9050989,"lon":138.6412242,"ts":"2023-09-10T07:56:34Z","tz":9,"tags":{"name":"リバーサイド","name:en":"riverside","natural":"cliff","sport":"climbing"}},"993298702":{"lat":35.9041758,"lon":138.6418848,"ts":"2023-09-10T07:56:34Z","tz":9,"tags":{"name":"妹岩","name:en":"imouto iwa","natural":"cliff","sport":"climbing"}},"993298704":{"lat":35.9037843,"lon":138.6414814,"ts":"2022-01-13T15:21:20Z","tz":9,"tags":{"name":"マラ岩","name:en":"mara iwa","natural":"cliff","sport":"climbing"}},"993298705":{"lat":35.9040275,"lon":138.642312,"ts":"2023-09-10T07:56:34Z","tz":9,"tags":{"name":"姉岩","name:en":"ane iwa","natural":"cliff","sport":"climbing"}},"993301805":{"lat":35.9087784,"lon":138.6365287,"ts":"2023-08-07T12:46:58Z","tz":9,"tags":{"name":"お殿様岩","name:en":"Lord rock","name:ja_rm":"otonosama iwa","natural":"cliff","sport":"climbing"}},"993301806":{"lat":35.9080035,"lon":138.6361966,"ts":"2023-08-07T12:46:58Z","tz":9,"tags":{"name":"狸岩","name:en":"racoon rock","name:ja_rm":"tanuki iwa","natural":"cliff","sport":"climbing"}},"993301807":{"lat":35.9133105,"lon":138.6369343,"ts":"2021-11-23T04:05:29Z","tz":9,"tags":{"name":"ソラマメスラブ","natural":"cliff","sport":"climbing"}},"1169251989":{"lat":35.9121053,"lon":138.6382312,"ts":"2023-05-06T08:05:51Z","tz":9,"tags":{"name":"水晶スラブ","name:en":"Crystal slab","name:ja-Latn":"suishou surabu","natural":"cliff","sport":"climbing"}},"1169251990":{"lat":35.9121561,"lon":138.6385581,"ts":"2023-05-06T08:05:51Z","tz":9,"tags":{"name":"ひょっとこ岩","name:en":"Hyottoko Rock","name:ja-Latn":"hyottoko iwa","natural":"cliff","sport":"climbing"}},"1169251994":{"lat":35.9127284,"lon":138.6395915,"ts":"2023-05-06T08:05:51Z","tz":9,"tags":{"name":"屋根岩１峰 下部スラブ","name:en":"yaneiwa 1 lower slab","natural":"cliff","sport":"climbing"}},"1169251998":{"lat":35.9051679,"lon":138.638765,"ts":"2023-05-06T08:11:05Z","tz":9,"tags":{"area":"yes","climbing":"boulder","name":"ヴィクター岩","name:en":"Victor Boulder","natural":"stone","sport":"climbing"}},"1169251999":{"lat":35.9051856,"lon":138.6369875,"ts":"2023-05-06T08:05:51Z","tz":9,"tags":{"name":"ブラック＆ホワイトスラブ","name:en":"black and white slab","natural":"cliff","sport":"climbing"}},"1175043331":{"lat":35.9088596,"lon":138.6432969,"ts":"2023-05-22T13:29:04Z","tz":9,"tags":{"name":"小川山 - 兄岩","name:en":"big brother rock","name:ja-Latn":"Ogawayama ani iwa","natural":"cliff","sport":"climbing"}},"1175043335":{"lat":35.9084346,"lon":138.6429197,"ts":"2023-05-22T13:29:04Z","tz":9,"tags":{"name":"小川山弟岩","name:en":"little brother rock","name:ja_rm":"ogawayama ototo iwa","natural":"cliff","sport":"climbing"}},"1175043336":{"lat":35.9083597,"lon":138.6432946,"ts":"2023-05-22T13:29:04Z","tz":9,"tags":{"name":"継子岩","name:en":"mamako iwa","natural":"cliff","sport":"climbing"}},"1175043339":{"lat":35.9080074,"lon":138.6433884,"ts":"2023-05-22T13:29:04Z","tz":9,"tags":{"name":"小川山母岩","name:en":"ogawayama haha iwa","natural":"cliff","sport":"climbing"}},"1195597784":{"lat":35.9083177,"lon":138.6364392,"ts":"2023-08-07T12:46:58Z","tz":9,"tags":{"natural":"cliff","sport":"climbing"}},"1195597785":{"lat":35.9080917,"lon":138.6359961,"ts":"2023-08-07T12:46:58Z","tz":9,"tags":{"name":"狐岩","name:en":"fox rock","name:ja_rm":"kitsune iwa","natural":"cliff","sport":"climbing"}},"1195597786":{"lat":35.9079719,"lon":138.6359923,"ts":"2023-08-07T12:46:58Z","tz":9,"tags":{"natural":"cliff","sport":"climbing"}},"1195597788":{"lat":35.9090366,"lon":138.6352723,"ts":"2023-08-07T12:46:58Z","tz":9,"tags":{"name":"雷岩","name:en":"lightning rock","name:ja_rm":"kaminari iwa","natural":"cliff","sport":"climbing"}},"1195597790":{"lat":35.9085171,"lon":138.6353396,"ts":"2023-08-07T12:46:58Z","tz":9,"tags":{"name":"あみだ岩","name:en":"Amida rock","name:ja_rm":"amida iwa","natural":"cliff","sport":"climbing"}},"1195597792":{"lat":35.9092216,"lon":138.6360652,"ts":"2023-08-07T12:46:58Z","tz":9,"tags":{"name":"最高ルーフ","name:en":"saiko roof","name:ja_rm":"saiko roof","natural":"cliff","sport":"climbing"}},"1195597794":{"lat":35.9090987,"lon":138.6359927,"ts":"2023-08-07T12:46:58Z","tz":9,"tags":{"name":"ナデシ岩","name:en":"nadeshi rock","name:ja_rm":"nadeshi iwa","natural":"cliff","sport":"climbing"}},"1195601150":{"lat":35.9032446,"lon":138.6361435,"ts":"2023-08-07T13:00:58Z","tz":9,"tags":{"name":"マガスラブ","name:en":"maga slab","name:ja_rm":"maga slab","natural":"cliff","sport":"climbing"}},"1195601152":{"lat":35.9030277,"lon":138.6376649,"ts":"2023-08-07T13:00:58Z","tz":9,"tags":{"name":"ガマスラブ","name:en":"gamma slab","name:ja_rm":"gamma slab","natural":"cliff","sport":"climbing"}},"1206333317":{"lat":35.9134008,"lon":138.6369772,"ts":"2023-09-09T08:50:16Z","tz":9,"tags":{"natural":"cliff","sport":"climbing"}},"1206333318":{"lat":35.9135627,"lon":138.6375464,"ts":"2023-09-09T08:50:16Z","tz":9,"tags":{"natural":"cliff","sport":"climbing"}},"1206552459":{"lat":35.9038097,"lon":138.6426743,"ts":"2023-09-10T07:56:34Z","tz":9,"tags":{"name":"姉岩","name:en":"ane iwa","natural":"cliff","sport":"climbing"}},"1206552460":{"lat":35.904832,"lon":138.6412132,"ts":"2023-09-10T07:56:34Z","tz":9,"tags":{"name":"リバーサイド","name:en":"riverside","natural":"cliff","sport":"climbing"}},"5495463797":{"lat":35.9079071,"lon":138.6378263,"ts":"2023-08-07T13:00:58Z","tz":9,"tags":{"name":"小川山 - 親指岩","name:en":"Ogawayama Thumb rock","natural":"rock","sport":"climbing"}}}