{"402155653":{"location":[40.9696643,25.5442291],"ts":"2025-02-21T01:00:16Z","tz":2,"tags":{"climbing:grade:french:max":"7a","climbing:grade:french:min":"5","climbing:length:max":"30","climbing:length:min":"10","climbing:orientation":"S","climbing:rock":"limestone","climbing:sport":"10","climbing:trad":"1","fee":"no","indoor":"no","name":"Τομέας Α","name:el":"Τομέας Α","name:en":"Sector A","natural":"cliff","source":"http://eoskomotinis.blogspot.gr","sport":"climbing","url":"http://eoskomotinis.blogspot.gr/2014/01/updated.html"}},"402155654":{"location":[40.9695754,25.5446087],"ts":"2025-02-21T01:00:16Z","tz":2,"tags":{"climbing:grade:french:max":"7a","climbing:grade:french:min":"4","climbing:length:max":"30","climbing:length:min":"10","climbing:orientation":"S","climbing:rock":"limestone","climbing:sport":"6c","climbing:trad":"5","fee":"no","indoor":"no","name":"Τομέας Β","name:el":"Τομέας Β","name:en":"Sector B","natural":"cliff","source":"http://eoskomotinis.blogspot.gr","sport":"climbing","url":"http://eoskomotinis.blogspot.gr/2014/01/updated.html"}},"402155655":{"location":[40.9695197,25.544918],"ts":"2025-02-21T01:00:16Z","tz":2,"tags":{"climbing:grade:french:max":"7b","climbing:grade:french:min":"5","climbing:length:max":"30","climbing:length:min":"10","climbing:orientation":"S","climbing:rock":"limestone","climbing:sport":"13","climbing:trad":"2","fee":"no","indoor":"no","name":"Τομέας Γ","name:el":"Τομέας Γ","name:en":"Sector C","natural":"cliff","source":"http://eoskomotinis.blogspot.gr","sport":"climbing","url":"http://eoskomotinis.blogspot.gr/2014/01/updated.html"}}}