{"166331967":{"location":[48.8601953,2.4844735],"ts":"2019-11-12T10:59:51Z","tz":1,"tags":{"leisure":"pitch","sport":"climbing"}},"179941866":{"location":[48.7855855,2.6238317],"ts":"2024-06-29T13:24:53Z","tz":1,"tags":{"addr:city":"Pontault-Combault","addr:postcode":"77340","addr:street":"Route Départementale 21","building":"civic","description":"Le Nautil est un complexe intercommunal de sports et de loisirs créé en 1996, situé en Seine et Marne, entre Pontault-Combault et Roissy-en-Brie. Il offre aux sportifs amateurs et professionnels des installations et des services de qualité.","email":"contact@le-nautil.fr","facebook":"https://fr-fr.facebook.com/lenautil.fr","fee":"yes","leisure":"sports_centre","name":"Le Nautil - Salle d'Escalade","opening_hours:covid19":"off","operator":"Communauté d'agglomération Paris - Vallée de la Marne","operator:type":"public","phone":"+33 1 60 37 27 77","source":"cadastre-dgi-fr source : Direction Générale des Impôts - Cadastre. Mise à jour : 2012","sport":"climbing","website":"https://le-nautil.fr/escalade/"}},"8240900972":{"location":[48.8577032,2.7514543],"ts":"2023-02-18T07:58:14Z","tz":1,"tags":{"man_made":"yes","sport":"climbing"}},"9660447808":{"location":[48.9048503,2.5936759],"ts":"2022-04-12T09:49:11Z","tz":1,"tags":{"addr:city":"Chelles","addr:housenumber":"84","addr:postcode":"77500","addr:street":"Avenue Claude Bernard","club":"sport","federation":"FSGT","name":"Chelles Grimpe","sport":"climbing","website":"https://www.chellesgrimpe.fr/"}},"9660447809":{"location":[48.838731,2.6447117],"ts":"2023-02-18T07:58:14Z","tz":1,"tags":{"club":"sport","federation":"FSGT","man_made":"yes","name":"Vertical Maubuée","sport":"climbing","website":"https://verticalmaubuee.fr/"}},"9660447810":{"location":[48.8576073,2.6717129],"ts":"2023-02-18T07:58:14Z","tz":1,"tags":{"club":"sport","federation":"FSGT","man_made":"yes","name":"Groupe Escalade Saint-Thibault","sport":"climbing","website":"https://www.gest77.fr/"}},"9660447813":{"location":[48.8567266,2.4815],"ts":"2023-02-18T07:58:14Z","tz":1,"tags":{"addr:city":"Fontenay-sous-Bois","addr:postcode":"94120","addr:street":"Rue Henri Wallon","climbing:routes":"19","climbing:toprope":"yes","club":"sport","federation":"FSGT","man_made":"yes","name":"US Fontenay - section escalade","sport":"climbing","website":"https://usfescalade.wordpress.com/"}},"9735283107":{"location":[48.8160712,2.5345344],"ts":"2023-02-18T07:58:14Z","tz":1,"tags":{"addr:city":"Champigny-sur-Marne","addr:housenumber":"570","addr:postcode":"94500","addr:street":"Rue du Professeur Paul Milliez","climbing:boulder":"yes","climbing:toprope":"yes","club":"sport","federation":"FSGT","man_made":"yes","name":"RSC Champigny","sport":"climbing","website":"https://www.rscc-escalade.fr/"}}}