{"30615030":{"location":[45.656189,-111.0704487],"ts":"2022-07-08T10:39:52Z","tz":-7,"tags":{"addr:city":"Bozeman","addr:housenumber":"13","addr:postcode":"59718","addr:state":"MT","addr:street":"Enterprise Boulevard","building":"yes","description":"Indoor Climbing Gym","leisure":"sports_centre","name":"Spire Climbing Center","phone":"+1-406-586-0706","sport":"climbing","website":"https://www.spireclimbingcenter.com/"}},"557851774":{"location":[45.6655882,-111.0371155],"ts":"2018-02-02T06:15:32Z","tz":-7,"tags":{"climbing":"boulder","description":"Artificial Boulder","leisure":"sports_centre","sport":"climbing"}},"557872036":{"location":[45.6878512,-111.0263602],"ts":"2018-02-02T06:15:23Z","tz":-7,"tags":{"climbing:rock":"concrete","description":"Artificial climbing boulder","leisure":"sports_centre","sport":"climbing"}},"557872064":{"location":[45.6943563,-111.0846051],"ts":"2018-02-02T06:15:25Z","tz":-7,"tags":{"climbing":"boulder","leisure":"sports_centre","sport":"climbing"}},"567081492":{"location":[45.7041545,-111.0371302],"ts":"2018-03-06T16:05:02Z","tz":-7,"tags":{"climbing:rock":"yes","leisure":"sports_centre","sport":"climbing"}},"732209219":{"location":[45.6655839,-111.0550259],"ts":"2020-11-04T22:54:33Z","tz":-7,"tags":{"leisure":"sports_centre","name":"Climbing Rock","sport":"climbing"}},"783786256":{"location":[45.7006602,-111.0245901],"ts":"2022-12-09T18:32:30Z","tz":-7,"tags":{"leisure":"sports_centre","name":"Norm's Boulder","sport":"climbing"}},"2700467528":{"location":[45.6722372,-111.080979],"ts":"2018-10-19T15:11:29Z","tz":-7,"tags":{"leisure":"sports_centre","man_made":"tower","name":"Climbing Boulder","sport":"climbing","tower:type":"climbing"}},"4107781188":{"location":[45.6878467,-111.0263647],"ts":"2018-10-19T15:13:28Z","tz":-7,"tags":{"climbing:boulder":"yes","leisure":"sports_centre","man_made":"tower","name":"Climbing Boulder","sport":"climbing","tower:type":"climbing"}}}