{"932915777":{"location":[48.9981204,33.5886208],"ts":"2023-10-23T01:14:48Z","tz":2,"tags":{"climbing":"crag","name":"Сектор \"Тризуб\"","name:en":"Trident Crag","name:ru":"Сектор \"Тризуб\"","name:uk":"Сектор \"Тризуб\"","sport":"climbing"}},"932964541":{"location":[48.998142,33.588655],"ts":"2021-04-20T17:44:10Z","tz":2,"tags":{"natural":"cliff","sport":"climbing"}},"8628622217":{"location":[48.9965902,33.5896332],"ts":"2023-03-03T23:09:43Z","tz":2,"tags":{"leisure":"sports_centre","name":"Баба Галя Сектор","name:uk":"Баба Галя Сектор","sport":"climbing"}},"8628622218":{"location":[48.9972405,33.5895271],"ts":"2023-03-03T23:09:43Z","tz":2,"tags":{"leisure":"sports_centre","name":"Шабля Сектор","name:uk":"Шабля Сектор","sport":"climbing"}},"8628622219":{"location":[48.9975038,33.5870991],"ts":"2023-03-03T23:09:43Z","tz":2,"tags":{"leisure":"sports_centre","name":"Лінза Сектор","name:uk":"Лінза Сектор","sport":"climbing"}},"8628622220":{"location":[48.9973969,33.5870115],"ts":"2023-03-03T23:09:43Z","tz":2,"tags":{"leisure":"sports_centre","name":"Дракон Сектор","name:uk":"Дракон Сектор","sport":"climbing"}},"8628622221":{"location":[48.9957825,33.5862958],"ts":"2023-03-03T23:09:43Z","tz":2,"tags":{"leisure":"sports_centre","name":"Тотем Сектор","name:uk":"Тотем Сектор","sport":"climbing"}},"8628622222":{"location":[48.9944019,33.5875446],"ts":"2023-03-03T23:09:43Z","tz":2,"tags":{"leisure":"sports_centre","name":"Домінанта Сектор","name:uk":"Домінанта Сектор","sport":"climbing"}},"8628622223":{"location":[48.9933445,33.5910473],"ts":"2023-03-03T23:09:43Z","tz":2,"tags":{"leisure":"sports_centre","name":"Рорайма сектор","name:uk":"Рорайма сектор","sport":"climbing"}},"8628622224":{"location":[48.9931604,33.5917865],"ts":"2023-03-03T23:09:43Z","tz":2,"tags":{"leisure":"sports_centre","name":"Патагонія Сектор","name:uk":"Патагонія Сектор","sport":"climbing"}},"8628622226":{"location":[48.9979968,33.5875908],"ts":"2023-03-03T23:09:43Z","tz":2,"tags":{"leisure":"sports_centre","name":"Гном Сектор","name:uk":"Гном Сектор","sport":"climbing"}},"8628622227":{"location":[48.9932849,33.5947164],"ts":"2023-03-03T23:09:43Z","tz":2,"tags":{"leisure":"sports_centre","name":"Айсфол Сектор","name:uk":"Айсфол Сектор","sport":"climbing"}},"8628622228":{"location":[48.9937489,33.5887068],"ts":"2023-03-03T23:09:43Z","tz":2,"tags":{"leisure":"sports_centre","name":"Чорний Потік Сектор","name:uk":"Чорний Потік Сектор","sport":"climbing"}}}