{"116645878":{"location":[46.6358895,14.109443],"ts":"2023-09-05T23:55:07Z","tz":1,"tags":{"access":"yes","climbing:grade:uiaa:max":"8+","climbing:grade:uiaa:min":"4+","climbing:length:max":"25","climbing:length:min":"9","climbing:orientation":"SW;S;E","climbing:quality":"solid","climbing:routes":"24","climbing:sport":"yes","ele":"500","fee":"no","name":"Töschling","opening_hours":"24/7","outdoor":"yes","sport":"climbing","url":"https://www.bergsteigen.com/touren/klettergarten/toeschling/"}},"407209831":{"location":[46.5825419,14.2857112],"ts":"2021-07-01T20:48:08Z","tz":1,"tags":{"area":"no","climbing:sport":"3","name":"Gypsys Rock","natural":"cliff","sport":"climbing"}},"407209832":{"location":[46.5880884,14.3155315],"ts":"2024-02-22T18:45:35Z","tz":1,"tags":{"area":"no","climbing:sport":"10","name":"Prigolawandl","natural":"cliff","sport":"climbing"}},"407209833":{"location":[46.5798908,14.3065404],"ts":"2024-04-02T22:04:15Z","tz":1,"tags":{"area":"no","climbing:sport":"10","name":"Kletterwand","natural":"cliff","sport":"climbing"}},"654784380":{"location":[46.6184818,14.2710612],"ts":"2024-05-31T18:46:32Z","tz":1,"tags":{"addr:city":"Klagenfurt am Wörthersee","addr:country":"AT","building":"sports_centre","climbing:boulder":"70","fee":"yes","indoor":"yes","leisure":"sports_centre","name":"Boulderhalle Klagenfurt","opening_hours":"08:00-22:00","operator":"Naturfreunde Kärnten","sport":"climbing","website":"https://kaernten.naturfreunde.at/service/kletterhallen-waende/boulderhalle-klagenfurt/"}},"993018278":{"location":[46.5866592,14.31426],"ts":"2024-02-22T18:45:35Z","tz":1,"tags":{"height":"20","name":"Prigolawandl Sektor 2","natural":"cliff","sport":"climbing"}},"2301026580":{"location":[46.6773684,14.2430445],"ts":"2020-09-11T22:41:11Z","tz":1,"tags":{"access":"yes","climbing:bolted":"yes","climbing:grade:french:max":"6a","climbing:grade:french:min":"3a","climbing:grade:uiaa:max":"VI+","climbing:grade:uiaa:min":"III","climbing:ice":"no","climbing:length":"12m","climbing:multipitch":"no","climbing:orientation":"S","climbing:quality":"solid","climbing:rock":"Gneis","climbing:sport":"yes","name":"Eibischwandl","sport":"climbing"}},"5123168321":{"location":[46.6050116,14.3046767],"ts":"2023-04-22T13:19:04Z","tz":1,"tags":{"addr:city":"Klagenfurt am Wörthersee","addr:country":"AT","addr:housenumber":"12","addr:postcode":"9020","addr:street":"Raiffeisenstraße","check_date":"2023-04-22","email":"office@boulderama.at","fee":"yes","leisure":"sports_centre","name":"Boulderama","opening_hours":"Mo 15:00-22:00, Tu-Su 10:00-22:00, PH 10:00-22:00","phone":"+43 463 31 85 45","sport":"climbing","website":"https://boulderama.at/"}},"7622399874":{"location":[46.7540061,14.2821211],"ts":"2022-04-19T19:25:19Z","tz":1,"tags":{"climbing:bolted":"yes","climbing:grade:uiaa:max":"8+/9-","climbing:grade:uiaa:min":"2","climbing:length:max":"25","climbing:length:min":"10","climbing:orientation":"SE","climbing:quality":"medium","climbing:rock":"slate","climbing:routes":"26","climbing:sport":"26","name":"Klettergarten Liebenfels","sport":"climbing"}}}