{"44685705":{"location":[52.0680943,4.4595891],"ts":"2025-01-27T21:46:56Z","tz":1,"tags":{"addr:city":"Zoetermeer","addr:housenumber":"14","addr:postcode":"2717AX","addr:street":"Buytenparklaan","building":"yes","climbing:boulder":"yes","climbing:sport":"yes","fee":"yes","leisure":"sports_centre","name":"Adventure Valley","old_website":"https://ayersrock.nl/","ref:bag":"637100000165496","source":"3dShapes;BAG","source:date":"2013-11-26","sport":"climbing","start_date":"2001"}},"2590959782":{"location":[52.1100671,4.2836164],"ts":"2024-11-19T17:54:00Z","tz":1,"tags":{"addr:city":"'s-Gravenhage","addr:housenumber":"9A","addr:postcode":"2586HD","addr:street":"Berkenbosch Blokstraat","building":"yes","email":"info@boulderhalnirvana.nl","leisure":"sports_centre","name":"Boulderhal Nirvana","opening_hours":"Mo-Th 13:00-23:00; Fr 10:00-23:00; Sa 09:00-22:00; Su 09:00-23:00","phone":"+31 70 2228086","source":"BAG","source:date":"2013-11-26","sport":"climbing","website":"https://www.boulderhalnirvana.nl/"}},"2726143741":{"location":[52.0617082,4.313718],"ts":"2023-07-15T21:16:20Z","tz":1,"tags":{"addr:city":"'s-Gravenhage","addr:housenumber":"12","addr:postcode":"2521AC","addr:street":"Johan van Veenplein","email":"info@boulderhalwalhalla.nl","leisure":"fitness_centre","name":"Walhalla Boulder","name:en":"Walhalla Boulder","name:nl":"Boulderhal Walhalla","opening_hours":"Mo-Fr 13:00-23:00; Sa 09:00-19:00; Su 09:00-22:00","phone":"+31 70 205 1069","source":"BAG","source:date":"2014-02-11;2022-08-11","sport":"climbing","website":"https://www.boulderhalwalhalla.nl/en"}},"2726181926":{"location":[52.069543,4.3237448],"ts":"2025-02-17T23:02:11Z","tz":1,"tags":{"addr:city":"'s-Gravenhage","addr:housenumber":"15D","addr:postcode":"2521CA","addr:street":"Waldorpstraat","climbing:boulder":"yes","climbing:ice":"yes","climbing:sport":"yes","email":"hollandsspoor@deklimmuur.nl","fee":"yes","indoor":"yes","leisure":"sports_centre","name":"Klimmuur Den Haag","phone":"+31 70 388 3764","source":"BAG","source:date":"2014-02-11","sport":"climbing","website":"https://www.deklimmuur.nl/vestigingen/klimmuur-hollandsspoor/"}},"2726181927":{"location":[52.0694272,4.3236242],"ts":"2024-03-20T09:27:08Z","tz":1,"tags":{"addr:city":"'s-Gravenhage","addr:housenumber":"15F","addr:postcode":"2521CA","addr:street":"Waldorpstraat","fee":"yes","leisure":"sports_centre","name":"Beest Boulders","source":"BAG","source:date":"2014-02-11","sport":"climbing","website":"https://beestboulders.com/vestigingen/beest-boulders-den-haag/"}},"2905963843":{"location":[52.1585489,4.5119568],"ts":"2024-04-20T16:06:40Z","tz":1,"tags":{"addr:city":"Leiden","addr:housenumber":"2","addr:postcode":"2315SR","addr:street":"Admiraal Banckertweg","climbing":"boulder","description":"Boulderhal Krachtstof geopend sinds 15 april 2023, en is zusje van Boulderhal Kunststof, eveneens in Leiden","fee":"yes","leisure":"sports_centre","name":"Boulderhal Krachtstof","opening_hours":"Mo-Fr 09:00-00:00; Sa-Su 09:00-22:00","payment:debit_cards":"yes","source":"BAG","source:date":"2014-06-08","sport":"climbing","website":"https://www.boulderhalkrachtstof.nl"}},"5020872971":{"location":[52.144977,4.4810125],"ts":"2022-06-06T15:31:53Z","tz":1,"tags":{"addr:city":"Leiden","addr:housenumber":"49E","addr:postcode":"2321BL","addr:street":"Rooseveltstraat","climbing:boulder":"yes","leisure":"sports_centre","name":"Boulderhal Kunststof","opening_hours":"Mo 14:00-23:30; Tu-Su 08:30-23:30","phone":"+31 71 576 3623","source":"BAG","source:date":"2017-07-08","sport":"climbing","website":"https://www.boulderhalkunststof.nl"}},"12124294201":{"location":[52.1593342,4.5136751],"ts":"2025-04-28T20:20:35Z","tz":1,"tags":{"addr:city":"Leiden","addr:housenumber":"15","addr:postcode":"2315WC","addr:street":"Dorus Rijkersweg","climbing:boulder":"yes","leisure":"sports_centre","name":"Club Wildflower Climbing","opening_hours":"Mo-Fr 08:30-12:00, 16:00-21:00","phone":"+31 6 81695538","sport":"climbing","website":"https://wildflowerclimbinggym.org"}},"12211102625":{"location":[52.0762637,4.3110509],"ts":"2024-10-08T15:34:12Z","tz":1,"tags":{"addr:city":"'s-Gravenhage","addr:housenumber":"26","addr:postcode":"2511BJ","addr:street":"Grote Marktstraat","fee":"yes","leisure":"sports_centre","name":"Beest Boulders","opening_hours":"Mo-Fr 07:00-23:00; Sa-Su 09:00-23:00","phone":"+31 70 219 6802","sport":"climbing","website":"https://beestboulders.com/vestigingen/beest-boulders-den-haag-centrum/","wikidata":"Q125822521"}}}