{"49484934":{"location":[51.9772105,4.5360895],"ts":"2023-05-30T22:11:07Z","tz":1,"tags":{"addr:city":"Bergschenhoek","addr:housename":"Monte Cervino","addr:housenumber":"141","addr:postcode":"2661JL","addr:street":"Hoeksekade","building":"yes","climbing:sport":"yes","fee":"yes","indoor":"yes","leisure":"sports_centre","name":"Klimcentrum Monte Cervino","outdoor":"yes","ref:bag":"1621100000004893","source":"BAG","source:date":"2013-11-26","sport":"climbing","start_date":"1994","website":"https://www.montecervino.nl"}},"129252205":{"location":[52.0231809,4.2933517],"ts":"2011-09-07T19:35:59Z","tz":1,"tags":{"leisure":"pitch","source":"survey","sport":"climbing"}},"275633998":{"location":[51.936526,4.532945],"ts":"2019-03-25T16:50:37Z","tz":1,"tags":{"addr:city":"Rotterdam","addr:housenumber":"910","addr:postcode":"3062CT","addr:street":"Prinsenlaan","building":"yes","climbing:length:max":"18","climbing:sport":"yes","fee":"yes","indoor":"yes","leisure":"sports_centre","name":"Klimmuur Rotterdam","ref:bag":"599100000665055","source":"BAG","source:date":"2014-03-24","sport":"climbing","start_date":"1998","website":"https://www.deklimmuur.nl/vestigingen/rotterdam/"}},"2596101220":{"location":[51.9948117,4.3667978],"ts":"2023-08-30T14:31:43Z","tz":1,"tags":{"addr:city":"Delft","addr:housenumber":"15L","addr:postcode":"2627AN","addr:street":"Schieweg","climbing":"boulder","fee":"yes","indoor":"yes","leisure":"sports_centre","name":"Bouldercentrum Delfts Bleau","opening_hours":"Mo-Th 12:00-22:30; Fr 16:00-22:30; Sa-Su 09:00-18:00","phone":"+31 15 760 0090","source":"BAG;survey","source:date":"2013-11-26","sport":"climbing","website":"https://www.delftsbleau.nl/"}},"2596725006":{"location":[52.0256784,4.3647823],"ts":"2022-06-06T15:03:38Z","tz":1,"tags":{"addr:city":"Delft","addr:housenumber":"15","addr:postcode":"2616LZ","addr:street":"Kleveringweg","climbing:boulder":"yes","indoor":"yes","leisure":"sports_centre","name":"Revolt Bouldering Gym","note":"Also a normal gym located in this building","phone":"+31 15 890 4409","source":"BAG","source:date":"2013-11-26","sport":"climbing","website":"https://www.revoltclimbing.com/"}},"2733670212":{"location":[52.0497783,4.254626],"ts":"2022-06-06T15:12:28Z","tz":1,"tags":{"addr:city":"'s-Gravenhage","addr:housenumber":"55","addr:postcode":"2544CV","addr:street":"Kerketuinenweg","climbing:boulder":"yes","email":"info@boulderhaldecampus.nl","fee":"yes","indoor":"yes","leisure":"sports_centre","name":"Boulderhal de Campus","name:de":"Boulderhalle Campus","name:en":"Bouldering Centre Campus","name:nl":"Boulderhal de Campus","opening_hours":"Mo-Tu 17:00-23:00; We-Fr 13:00-23:00; Sa 10:00-18:00; Su 10:00-23:00","outdoor":"no","phone":"+31 70 205 1144","source":"BAG","source:date":"2014-02-11","sport":"climbing","sport_1":"bouldering","website":"https://www.boulderhaldecampus.nl"}},"2792421419":{"location":[51.908242,4.4338825],"ts":"2024-10-20T23:27:08Z","tz":1,"tags":{"addr:city":"Rotterdam","addr:housenumber":"9","addr:postcode":"3029BP","addr:street":"Keilestraat","climbing:boulder":"yes","email":"rotterdam@neoliet.nl","fee":"yes","indoor":"yes","leisure":"sports_centre","name":"Bolder Rotterdam Neoliet","opening_hours":"Mo-Tu 17:00-23:00, We 13:00-23:00, Th-Fr 17:00-23:00, Sa-Su 10:00-19:00","phone":"+31 10 717 1805","source":"BAG","source:date":"2014-03-24","sport":"climbing","website":"https://www.neoliet.nl/page.php?page_id=142"}},"2816673655":{"location":[51.9416564,4.4734028],"ts":"2024-10-20T23:27:08Z","tz":1,"tags":{"addr:city":"Rotterdam","addr:housenumber":"183","addr:postcode":"3051KC","addr:street":"Ceintuurbaan","climbing:boulder":"yes","climbing:speed":"no","climbing:sport":"no","climbing:toprope":"no","fee":"yes","indoor":"yes","leisure":"sports_centre","name":"Monk Bouldergym","opening_hours":"MO-Su 09:00-24:00","payment:cards":"yes","payment:cash":"yes","phone":"+31 10 737 1383","service:climbing_shoes:rental":"yes","service:climbing_shoes:rental:fee":"yes","shower":"hot","source":"BAG","source:date":"2014-02-11","sport":"climbing","website":"https://monk.nl/rotterdam/"}},"3675272798":{"location":[52.0381122,4.2396607],"ts":"2023-01-30T07:55:12Z","tz":1,"tags":{"branch":"Klimmuur Den Haag de Uithof","brand":"De Klimmuur","climbing:boulder":"yes","climbing:length:max":"21","climbing:sport":"yes","email":"uithof@deklimmuur.nl","fee":"yes","indoor":"yes","leisure":"sports_centre","name":"Klimmuur Den Haag de Uithof","outdoor":"yes","phone":"+31 70 359 9229","source":"survey","sport":"climbing","website":"https://www.deklimmuur.nl/"}},"4822763177":{"location":[51.8816278,4.4940256],"ts":"2024-07-01T09:58:13Z","tz":1,"tags":{"leisure":"sports_centre","name":"Blok op Zuid","operator":"Thuis Op Straat (TOS)","sport":"climbing","website":"https://www.thuisopstraat.nl/"}},"8566935421":{"location":[51.9228903,4.4067435],"ts":"2023-03-09T17:00:25Z","tz":1,"tags":{"access":"yes","climbing":"boulder","climbing:boulder":"yes","description":"openbare boulderwand onder het spoor","description:de":"Ã¶ffentliche Boulderwand unter den Schienen","description:en":"public outdoor bouldering","fee":"no","name":"Boulderen onder het spoor","opening_hours":"24/7","sport":"climbing"}},"9697632817":{"location":[51.9274849,4.4761673],"ts":"2024-10-20T23:28:50Z","tz":1,"tags":{"addr:city":"Rotterdam","addr:housenumber":"10","addr:postcode":"3032CC","addr:street":"Benthemplein","check_date":"2023-05-24","climbing:boulder":"yes","climbing:speed":"no","climbing:sport":"no","climbing:toprope":"no","email":"rotterdam@beestboulders.com","fee":"yes","indoor":"yes","leisure":"sports_centre","name":"Beest Boulders Rotterdam","opening_hours":"Mo-Fr 07:00-23:00; Sa-Su 09:00-23:00","outdoor":"no","phone":"+31 10 229 1425","service:climbing_shoes:rental":"yes","service:climbing_shoes:rental:fee":"yes","shower":"hot","source":"BAG","source:date":"2017-07-08","sport":"climbing","website":"https://beestboulders.com/boulderen/beest-boulders-rotterdam/"}}}