{"962885122":{"lat":56.8678675,"lon":24.2544213,"ts":"2023-05-15T19:23:18Z","tz":2,"tags":{"building":"yes","leisure":"sports_centre","sport":"climbing"}},"1991326846":{"lat":56.9436199,"lon":24.0702455,"ts":"2022-08-06T10:30:07Z","tz":2,"tags":{"height":"12","leisure":"sports_centre","man_made":"tower","name":"Gandrs kāpšanas tornis","sport":"climbing","tower:type":"climbing"}},"8108087758":{"lat":56.8792445,"lon":24.1200631,"ts":"2022-07-08T13:13:05Z","tz":2,"tags":{"addr:city":"Baloži","addr:country":"LV","addr:district":"Ķekavas novads","addr:housenumber":"4A","addr:postcode":"LV-2112","addr:street":"Smilšu iela","leisure":"sports_centre","ref:LV:addr":"103727213","sport":"climbing"}},"8108091618":{"lat":56.9390277,"lon":24.1565551,"ts":"2024-06-03T20:01:05Z","tz":2,"tags":{"addr:city":"Rīga","addr:country":"LV","addr:housenumber":"2","addr:postcode":"LV-1019","addr:street":"Lauvas iela","leisure":"sports_centre","name":"Traverss","ref:LV:addr":"103409472","sport":"climbing","website":"https://traverss.lv/"}},"8108093078":{"lat":56.8775856,"lon":24.116499,"ts":"2022-07-08T13:13:05Z","tz":2,"tags":{"addr:city":"Baloži","addr:country":"LV","addr:district":"Ķekavas novads","addr:housenumber":"6","addr:postcode":"LV-2112","addr:street":"Skolas iela","leisure":"sports_centre","ref:LV:addr":"101272553","sport":"climbing"}},"8904078764":{"lat":56.7987498,"lon":23.9310121,"ts":"2022-07-08T13:13:05Z","tz":2,"tags":{"addr:city":"Olaine","addr:country":"LV","addr:district":"Olaines novads","addr:housenumber":"13","addr:postcode":"LV-2114","addr:street":"Rīgas iela","leisure":"sports_centre","name":"Kāpšanas Tornis","ref:LV:addr":"102765692","sport":"climbing"}},"10098011980":{"lat":56.9425932,"lon":24.048064,"ts":"2022-10-13T12:47:01Z","tz":2,"tags":{"leisure":"sports_centre","name":"Kalnu grupas siena","sport":"climbing"}}}