{"775410270":{"lat":49.8188516,"lon":24.0032241,"ts":"2020-02-21T21:15:04Z","tz":2,"tags":{"climbing":"up","highway":"steps"}},"775410272":{"lat":49.8188137,"lon":24.0033635,"ts":"2020-02-21T21:15:04Z","tz":2,"tags":{"climbing":"down","highway":"steps"}},"775410289":{"lat":49.8163816,"lon":24.0014294,"ts":"2020-02-21T21:15:04Z","tz":2,"tags":{"climbing":"down","highway":"footway"}},"775410292":{"lat":49.8166676,"lon":24.0016464,"ts":"2020-02-21T21:15:04Z","tz":2,"tags":{"climbing":"up","highway":"steps"}},"775554785":{"lat":49.8181661,"lon":24.0023178,"ts":"2020-02-22T12:59:54Z","tz":2,"tags":{"climbing":"down","highway":"steps"}},"775554786":{"lat":49.8181378,"lon":24.0023641,"ts":"2020-02-22T12:59:54Z","tz":2,"tags":{"climbing":"up","highway":"footway"}},"775554794":{"lat":49.8182622,"lon":24.0019113,"ts":"2020-02-22T12:59:54Z","tz":2,"tags":{"climbing":"up","highway":"footway"}},"775554795":{"lat":49.8182949,"lon":24.0018488,"ts":"2020-02-22T12:59:54Z","tz":2,"tags":{"climbing":"down","highway":"steps"}},"4523531227":{"lat":49.8321858,"lon":23.9965235,"ts":"2023-10-30T23:17:06Z","tz":2,"tags":{"addr:housenumber":"72","addr:street":"вулиця Героїв УПА","contact:email":"thewalllviv@gmail.com","contact:phone":"+380 67 711 0496","leisure":"sports_centre","name":"The Wall","name:ru":"Стена","name:uk":"Стіна","opening_hours":"Mo-Fr 15:00-21:00; Sa-Su 11:00-20:00","sport":"climbing","website":"https://the-wall.com.ua/"}}}