{"2515561192":{"location":[46.8332458,-71.2456971],"ts":"2015-03-28T22:45:38Z","tz":-5,"tags":{"addr:country":"CA","addr:province":"QC","leisure":"sports_centre","name":"Centre d'escalade Roc Gyms","source":"Bing Maps","sport":"climbing"}},"3413677002":{"location":[47.0087112,-71.3427356],"ts":"2018-10-15T00:59:26Z","tz":-5,"tags":{"climbing":"crag","climbing:boulder":"yes","sport":"climbing"}},"3413677079":{"location":[47.0120037,-71.3445157],"ts":"2024-10-27T03:55:38Z","tz":-5,"tags":{"climbing":"crag","climbing:boulder":"yes","natural":"rock","sport":"climbing"}},"6539592486":{"location":[46.8006647,-71.3257596],"ts":"2023-02-20T19:10:03Z","tz":-5,"tags":{"addr:housenumber":"950","addr:street":"Avenue Saint-Jean-Baptiste","internet_access":"wlan","leisure":"sports_centre","name":"Délire Escalade Ste Foy","sport":"climbing","website":"https://www.delirescalade.com"}},"10681563133":{"location":[46.8267385,-71.2768905],"ts":"2023-02-20T19:13:36Z","tz":-5,"tags":{"addr:city":"Québec","addr:housenumber":"955","addr:postcode":"G1M2E8","addr:street":"Boulevard Pierre-Bertrand","internet_access":"wlan","leisure":"sports_centre","name":"Délire Escalade Pierre-Bertrand","sport":"climbing","website":"https://www.delirescalade.com"}},"10681576566":{"location":[46.8449799,-71.2177715],"ts":"2023-02-20T19:17:19Z","tz":-5,"tags":{"addr:city":"Québec","addr:housenumber":"2485","addr:postcode":"G1J 1Y4","addr:province":"Québec","addr:street":"Boulevard Sainte-Anne","addr:unit":"22","internet_access":"wlan","leisure":"sports_centre","name":"Délire Escalade Beauport","sport":"climbing","website":"https://www.delirescalade.com"}}}