{"14023455":{"location":[42.439364,-71.078164],"ts":"2022-04-09T19:07:30Z","tz":-5,"tags":{"climbing:boulder":"yes","climbing:sport":"no","climbing:trad":"yes","name":"Black and White Rokcs","site":"sport","sport":"climbing","type":"site"}},"14046138":{"location":[42.3238124,-71.1733811],"ts":"2024-09-09T16:10:28Z","tz":-5,"tags":{"climbing":"area","climbing:boulder":"yes","climbing:rock":"puddingstone","climbing:sport":"no","climbing:toprope":"yes","climbing:trad":"yes","climbing:url:mountainproject":"https://www.mountainproject.com/area/105908246","climbing:url:openbeta":"https://openbeta.io/area/6e4aac5e-8949-5ac5-908a-004ac553dd84","climbing:url:thecrag":"https://www.thecrag.com/12681451","name":"Hammond Pond Climbing","sport":"climbing","type":"site","wikidata":"Q1573920"}},"14344385":{"location":[42.3267809,-71.1774049],"ts":"2024-08-30T21:17:26Z","tz":-5,"tags":{"climbing":"crag","name":"Temple Area Climbing Crag","sport":"climbing","type":"site"}},"15728749":{"location":[42.3307103,-71.1815778],"ts":"2023-04-15T22:03:49Z","tz":-5,"tags":{"climbing":"area","climbing:sport":"no","climbing:trad":"yes","name":"Pinnacle Area Climbing","sport":"climbing","type":"site"}},"15728750":{"location":[42.3228053,-71.1740954],"ts":"2023-04-15T22:03:49Z","tz":-5,"tags":{"climbing":"crag","name":"Alcove Area","sport":"climbing","type":"site"}},"18090293":{"location":[42.4106264,-71.1678668],"ts":"2024-09-26T00:03:22Z","tz":-5,"tags":{"climbing":"crag","climbing:name":"Menotomy Rocks","climbing:url:thecrag":"https://www.thecrag.com/5432199588","natural":"bare_rock","sport":"climbing"}},"214525348":{"location":[42.4453326,-71.0996919],"ts":"2023-05-12T04:55:26Z","tz":-5,"tags":{"climbing":"boulder","climbing:bouldering":"yes","climbing:url:mountainproject":"https://www.mountainproject.com/area/111427640/","climbing:url:openbeta":"https://openbeta.io/crag/a1163b61-61d4-5ae3-afab-7081deafff60","climbing:url:thecrag":"https://www.thecrag.com/3148810191","name":"Slanted Boulder","natural":"stone","sport":"climbing"}},"436766381":{"location":[42.4439726,-71.0761773],"ts":"2009-07-08T03:20:29Z","tz":-5,"tags":{"climbing":"crag","name":"Crag 6"}},"436766383":{"location":[42.4407613,-71.077499],"ts":"2023-05-12T04:55:26Z","tz":-5,"tags":{"climbing":"crag","name":"Crag 2","sport":"climbing"}},"436766384":{"location":[42.4410552,-71.0776209],"ts":"2023-05-12T04:55:26Z","tz":-5,"tags":{"climbing":"crag","name":"Crag 3","sport":"climbing"}},"436766385":{"location":[42.4408246,-71.0770785],"ts":"2023-05-12T04:55:26Z","tz":-5,"tags":{"climbing":"crag","name":"Crag 4","sport":"climbing"}},"436766386":{"location":[42.439784,-71.0756857],"ts":"2023-05-12T04:55:26Z","tz":-5,"tags":{"climbing":"crag","name":"Crag 5","sport":"climbing"}},"436766387":{"location":[42.4404066,-71.0746924],"ts":"2023-05-12T04:55:26Z","tz":-5,"tags":{"climbing":"crag","name":"Crag 54","sport":"climbing"}},"436766388":{"location":[42.4450493,-71.0755936],"ts":"2018-10-19T15:06:55Z","tz":-5,"tags":{"climbing":"crag","climbing:boulder":"yes","name":"Fat Man","sport":"climbing"}},"866124259":{"location":[42.3239468,-71.1733215],"ts":"2024-09-09T16:07:00Z","tz":-5,"tags":{"climbing":"crag","climbing:rock":"puddingstone","climbing:sport":"no","climbing:toprope":"yes","climbing:trad":"yes","climbing:url:mountainproject":"https://www.mountainproject.com/v/105908252","climbing:url:openbeta":"https://openbeta.io/area/3834500d-212e-5d09-a767-a4cea5d2a159","climbing:url:thecrag":"https://www.thecrag.com/3140324667","name":"Lower Cliff","natural":"cliff","sport":"climbing"}},"1050601314":{"location":[42.439364,-71.078164],"ts":"2022-04-09T19:07:30Z","tz":-5,"tags":{"climbing:trad":"yes","height":"15","name":"Crag 1","natural":"cliff","sport":"climbing"}},"1052304207":{"location":[42.3236898,-71.1734848],"ts":"2024-09-09T16:07:00Z","tz":-5,"tags":{"climbing":"crag","climbing:url:mountainproject":"https://www.mountainproject.com/v/105908255","climbing:url:openbeta":"https://openbeta.io/area/32ae6a47-4f73-5241-9e32-bc5614df9946","climbing:url:thecrag":"https://www.thecrag.com/3140361573","name":"Upper Cliff","natural":"cliff","sport":"climbing"}},"1077680381":{"location":[42.3263396,-71.1764472],"ts":"2024-09-09T16:07:00Z","tz":-5,"tags":{"climbing":"boulder","climbing:boulder":"yes","climbing:rock":"puddingstone","climbing:sport":"no","climbing:url:mountainproject":"https://www.mountainproject.com/v/105908271","climbing:url:thecrag":"https://www.thecrag.com/3140274249","height":"5","name":"Temple Overhangs","natural":"cliff","sport":"climbing"}},"1077680383":{"location":[42.3266095,-71.1776478],"ts":"2024-12-23T09:29:30Z","tz":-5,"tags":{"climbing":"crag","climbing:boulder":"yes","climbing:orientation":"SW","climbing:rock":"puddingstone","climbing:sport":"no","climbing:toprope":"yes","climbing:trad":"yes","climbing:url:mountainproject":"https://www.mountainproject.com/v/105908268","climbing:url:openbeta":"https://openbeta.io/area/b5bfb2f0-e3ba-5d2e-9cb7-23d0d3c1fa07","climbing:url:thecrag":"https://www.thecrag.com/3140268888","name":"Pusherman Wall","natural":"cliff","sport":"climbing"}},"1116423555":{"location":[42.3910001,-71.1402257],"ts":"2023-06-04T12:38:22Z","tz":-5,"tags":{"addr:city":"Cambridge","addr:housenumber":"170","addr:postcode":"02138","addr:state":"MA","addr:street":"Alewife Brook Parkway Path","email":"cambridge@centralrockgym.com","fee":"yes","leisure":"sports_centre","name":"Central Rock Gym Cambridge","opening_hours":"Mo-Fr 11:00-22:30; Sa,Su 10:00-18:00","operator:wikidata":"Q119048229","sport":"climbing","website":"https://centralrockgym.com/cambridge/","wikidata":"Q118219842"}},"1121025648":{"location":[42.3262306,-71.1769146],"ts":"2024-09-09T16:07:00Z","tz":-5,"tags":{"climbing":"boulder","climbing:url:mountainproject":"https://www.mountainproject.com/v/110274225","climbing:url:openbeta":"https://openbeta.io/area/fa172050-059a-5b24-b5c2-e2c25a4afe68","climbing:url:thecrag":"https://www.thecrag.com/3140288430","name":"Starbag Boulder","natural":"rock","sport":"climbing"}},"1121026145":{"location":[42.3263341,-71.1769774],"ts":"2022-12-11T17:00:29Z","tz":-5,"tags":{"climbing":"boulder","natural":"rock","sport":"climbing"}},"1157963982":{"location":[42.3263197,-71.1769584],"ts":"2024-09-09T16:07:00Z","tz":-5,"tags":{"climbing:boulder":"yes","climbing:url:mountainproject":"https://www.mountainproject.com/area/123478919/lowball-slab","height":"2","natural":"cliff","sport":"climbing"}},"1162921169":{"location":[42.3307265,-71.1817173],"ts":"2023-05-12T02:09:28Z","tz":-5,"tags":{"climbing":"crag","climbing:bouldering":"yes","climbing:rock":"puddingstone","climbing:sport":"no","climbing:toprope":"yes","climbing:trad":"yes","name":"Lunch Wall","natural":"cliff","sport":"climbing"}},"1162921170":{"location":[42.3306185,-71.1812798],"ts":"2023-04-15T22:03:49Z","tz":-5,"tags":{"climbing":"boulder","climbing:rock":"puddingstone","climbing:sport":"no","name":"The Pinnacle","natural":"bare_rock","sport":"climbing"}},"1162921171":{"location":[42.3228692,-71.1739944],"ts":"2024-09-09T16:07:00Z","tz":-5,"tags":{"climbing":"crag","climbing:bouldering":"yes","climbing:orientation":"S","climbing:rock":"puddingstone","climbing:sport":"no","climbing:trad":"no","climbing:url:openbeta":"https://openbeta.io/area/c8ecc510-c490-521a-8c02-877066a3d68d","climbing:url:thecrag":"https://www.thecrag.com/3140295468","name":"The Alcove","natural":"cliff","sport":"climbing"}},"1162921172":{"location":[42.322741,-71.1742734],"ts":"2024-09-09T16:07:00Z","tz":-5,"tags":{"climbing":"boulder","climbing:bouldering":"yes","climbing:rock":"puddingstone","climbing:sport":"no","climbing:trad":"no","climbing:url:mountainproject":"https://www.mountainproject.com/v/106958716","climbing:url:openbeta":"https://openbeta.io/area/73097429-dffb-54c0-ab27-839ef9ca3d41","climbing:url:thecrag":"https://www.thecrag.com/3140300670","name":"Beached Whale Boulder","natural":"stone","sport":"climbing"}},"1184246366":{"location":[42.4250054,-71.1126864],"ts":"2024-12-23T09:30:20Z","tz":-5,"tags":{"climbing":"boulder","climbing:bouldering":"yes","climbing:sport":"no","climbing:trad":"no","climbing:url:openbeta":"https://openbeta.io/crag/ddb7cf39-d654-5144-ac93-2ee793c75295","climbing:url:thecrag":"https://www.thecrag.com/3148841058","natural":"cliff","sport":"climbing"}},"1290298155":{"location":[42.4405499,-71.1827497],"ts":"2024-06-07T17:08:59Z","tz":-5,"tags":{"climbing":"boulder","climbing:name":"Whipple Boulder","climbing:url:mountainproject":"https://www.mountainproject.com/v/108021184","climbing:url:openbeta":"https://openbeta.io/area/70842e06-6c12-58aa-acc0-d5de3dcb2d61","climbing:url:thecrag":"https://www.thecrag.com/3145808985","description":"Significant boulder","natural":"rock","sport":"climbing"}},"1303380710":{"location":[42.454618,-71.1004614],"ts":"2024-07-24T01:20:25Z","tz":-5,"tags":{"climbing":"boulder","climbing:boulder":"yes","climbing:name":"Deer Hill Boulder","climbing:url:mountainproject":"https://www.mountainproject.com/v/118757180","climbing:url:openbeta":"https://openbeta.io/area/edbae64a-be01-596e-8453-b291220bc392","climbing:url:thecrag":"https://www.thecrag.com/5471526720","natural":"stone","sport":"climbing"}},"1312322311":{"location":[42.3263361,-71.1783599],"ts":"2024-09-14T09:42:54Z","tz":-5,"tags":{"climbing":"boulder","climbing:bouldering":"yes","climbing:sport":"no","climbing:trad":"no","climbing:url:mountainproject":"https://www.mountainproject.com/v/119099125","climbing:url:openbeta":"https://openbeta.io/area/45a66d51-fd45-51f7-ae60-3c2be9057d67","climbing:url:thecrag":"https://www.thecrag.com/5254473066","name":"Cuba Boulder","natural":"rock","sport":"climbing"}},"1318238502":{"location":[42.4112073,-71.1670106],"ts":"2024-09-26T00:03:22Z","tz":-5,"tags":{"climbing":"crag","climbing:url:thecrag":"https://www.thecrag.com/5432198229","natural":"cliff","sport":"climbing"}},"1318238503":{"location":[42.4114803,-71.1669316],"ts":"2024-09-26T00:03:22Z","tz":-5,"tags":{"climbing":"crag","climbing:url:thecrag":"https://www.thecrag.com/5112327987","natural":"cliff","sport":"climbing"}},"3067066508":{"location":[42.381637,-71.1058777],"ts":"2023-08-08T02:28:38Z","tz":-5,"tags":{"addr:housenumber":"12A","addr:street":"Tyler Street","contact:instagram":"bostonboulderingproject","leisure":"sports_centre","name":"Boston Bouldering Project","phone":"+1 617 623-6700","sport":"climbing","toilets:wheelchair":"yes","website":"https://www.bostonboulderingproject.com/","wheelchair":"yes","wikidata":"Q118219860"}},"4881905925":{"location":[42.4076681,-71.0672409],"ts":"2025-04-28T06:46:13Z","tz":-5,"tags":{"addr:city":"Everett","addr:housenumber":"69","addr:postcode":"02149","addr:state":"MA","addr:street":"Norman Street","branch":"Everett","check_date":"2025-04-24","contact:email":"everett@metrorock.com","contact:instagram":"https://www.instagram.com/metrorock_boston/","email":"everett@metrorock.com","fee":"yes","instagram":"https://www.instagram.com/metrorock_boston/","leisure":"sports_centre","name":"MetroRock","opening_hours":"Mo-Fr 10:00-22:00; Sa-Su 09:00-20:00","payment:cash":"yes","payment:credit_cards":"yes","phone":"+1-617-385-7625","sport":"climbing","website":"https://metrorock.com/everett-home"}},"5031189730":{"location":[42.336498,-71.0564578],"ts":"2024-10-09T01:30:52Z","tz":-5,"tags":{"addr:city":"South Boston","addr:housenumber":"30","addr:postcode":"02127","addr:state":"MA","addr:street":"Old Colony Avenue","branch":"South Boston","fee":"yes","indoor":"yes","internet_access":"yes","internet_access:fee":"no","internet_access:ssid":"rsccustomerSBO","leisure":"sports_centre","name":"Rock Spot Climbing","opening_hours":"Mo-Su 10:00-24:00","operator":"Rock Spot Climbing","operator:type":"private","phone":"+1-617-269-2084","short_name":"Rock Spot","sport":"climbing","website":"https://southboston.rockspotclimbing.com/"}},"9284583217":{"location":[42.4450179,-71.1013943],"ts":"2023-05-12T04:55:26Z","tz":-5,"tags":{"climbing":"boulder","climbing:bouldering":"yes","climbing:sport":"no","climbing:trad":"no","climbing:url:mountainproject":"https://www.mountainproject.com/area/111427659/theta-boulder","climbing:url:openbeta":"https://openbeta.io/crag/849848ab-07ff-509a-b153-2741866843a4","climbing:url:thecrag":"https://www.thecrag.com/3148815345","name":"Theta Boulder","natural":"stone","sport":"climbing"}},"9880938973":{"location":[42.3273642,-71.178226],"ts":"2024-09-09T16:07:00Z","tz":-5,"tags":{"climbing":"boulder","climbing:rock":"puddingstone","climbing:sport":"no","climbing:trad":"no","climbing:url:mountainproject":"https://www.mountainproject.com/v/116816684","climbing:url:openbeta":"https://openbeta.io/area/d20c295f-7994-5fe8-b35a-447af92ca6bb","climbing:url:thecrag":"https://www.thecrag.com/3140283990","name":"Hermit's Cave","natural":"rock","sport":"climbing"}},"10274497009":{"location":[42.3872794,-71.2015876],"ts":"2023-07-03T22:00:50Z","tz":-5,"tags":{"addr:postcode":"02452","addr:unit":"105","leisure":"sports_centre","name":"Central Rock Gym Waltham","opening_hours":"Mo-Fr 15:00-22:00; Sa-Su 12:00-18:00","phone":"7818940875","sport":"climbing","website":"https://centralrockgym.com/waltham/","wikidata":"Q118220858"}},"10589568005":{"location":[42.3731423,-71.1202404],"ts":"2023-08-05T03:38:55Z","tz":-5,"tags":{"addr:city":"Cambridge","addr:housenumber":"20","addr:state":"MA","addr:street":"Brattle Street","leisure":"sports_centre","name":"Central Rock Gym Harvard","sport":"climbing","website":"https://centralrockgym.com/harvard-square/","wikidata":"Q118220606"}},"10879354491":{"location":[42.3473648,-71.1005236],"ts":"2023-05-08T18:41:23Z","tz":-5,"tags":{"addr:city":"Boston","addr:housenumber":"5","addr:postcode":"02215","addr:state":"MA","addr:street":"David Ortiz Drive","fee":"yes","leisure":"sports_centre","level":"1","name":"Central Rock Gym Fenway","short_name":"CRG Fenway","sport":"climbing","website":"https://centralrockgym.com/fenway/","wikidata":"Q118220463"}},"10879363130":{"location":[42.4777157,-71.1108851],"ts":"2023-05-08T18:13:34Z","tz":-5,"tags":{"leisure":"sports_centre","sport":"climbing","website":"https://centralrockgym.com/stoneham/","wikidata":"Q118219924"}},"10879505714":{"location":[42.3694218,-71.1987407],"ts":"2023-05-08T19:38:18Z","tz":-5,"tags":{"addr:city":"Watertown","addr:housenumber":"74","addr:postcode":"02472","addr:state":"MA","addr:street":"Acton Street","fee":"yes","leisure":"sports_centre","name":"Central Rock Gym Watertown","opening_hours":"Sa-Su 08:00-21:00; Mo,Fr 10:00-23:00; Tu-Th 06:00-23:00","phone":"6177440081","sport":"climbing","website":"https://centralrockgym.com/watertown/","wikidata":"Q118220868"}},"10879516716":{"location":[42.3621616,-71.1570258],"ts":"2023-05-08T19:43:08Z","tz":-5,"tags":{"fee":"yes","leisure":"sports_centre","name":"Central Rock Gym Arsenal Yards","sport":"climbing","website":"https://centralrockgym.com/arsenalyards/","wikidata":"Q118220915"}},"12200432031":{"location":[42.4111984,-71.166995],"ts":"2024-09-26T00:03:22Z","tz":-5,"tags":{"climbing":"route_top","climbing:url:thecrag":"https://www.thecrag.com/5432210709","name":"Sluice Juice","sport":"climbing"}},"12537497375":{"location":[42.3500518,-71.1148804],"ts":"2025-06-16T21:22:28Z","tz":-5,"tags":{"addr:city":"Brookline","addr:housenumber":"880","addr:postcode":"02446","addr:state":"MA","addr:street":"Commonwealth Avenue","addr:unit":"B","branch":"Brookline","indoor":"yes","leisure":"sports_centre","name":"Rock Spot Climbing","opening_hours":"Mo-Fr 11:00-23:00; Sa,Su 10:00-23:00","operator":"Rock Spot Climbing","operator:type":"private","phone":"+1-617-651-4757","sport":"climbing","website":"https://brookline.rockspotclimbing.com"}}}