{"21979929":{"location":[51.398326,-0.4127075],"ts":"2025-07-01T18:59:14Z","tz":0,"tags":{"leisure":"sports_centre","name":"Elmbridge Xcel Sports Hub Climbing Wall","note":"climbing wall, about 20m high by 20 wide","sport":"climbing"}},"386364614":{"location":[51.3855166,-0.4211238],"ts":"2024-12-20T15:55:13Z","tz":0,"tags":{"building":"yes","fee":"yes","leisure":"sports_centre","name":"Rock-Up","phone":"+44 1932 620800","sport":"climbing","website":"https://www.rock-up.co.uk/locations/walton-on-thames"}},"1100608283":{"location":[51.2600047,-0.5682169],"ts":"2025-01-27T14:58:27Z","tz":0,"tags":{"addr:city":"Guildford","addr:housename":"Craggy Island Climbing Centre","addr:postcode":"GU1 1RU","addr:street":"Cobbett Park","addr:unit":"9","building:levels":"2","charge":"Â£12","climbing":"indoor_wall","climbing:boulder":"yes","climbing:grade:french:min":"3+","climbing:routes":"100","climbing:speed":"no","climbing:sport":"yes","climbing:toprope":"yes","email":"climb@bluespiderclimbing.com","fee":"yes","indoor":"yes","leisure":"sports_centre","name":"Blue Spider","old_name":"Craggy Island Indoor Climbing","opening_hours":"Mo-Fr 10:00-22:00; Sa 9:00-19:30; Su 10:00-18:30; SH Sa-Su 10:00-18:30","operator":"Spider Climbing","outdoor":"no","phone":"+44 1483 388081","postal_code":"GU1 1RU","sport":"climbing","toilets":"yes","toilets:wheelchair":"yes","website":"https://spiderclimbing.com/blue-spider/","wheelchair":"no","wheelchair:description":"Staircase after door to get up to the reception. Access is not allowed through any other door."}}}