{"902977953":{"location":[47.4336131,-0.5003268],"ts":"2023-06-28T18:20:21Z","tz":1,"tags":{"access":"customers","addr:housenumber":"1","addr:postcode":"49130","addr:street":"Boulevard Léo Lagrange","building":"yes","climbing:boulder":"yes","climbing:toprope":"yes","fee":"yes","leisure":"sports_centre","name":"Climb Up","opening_hours":"Mo-Fr 10:00-23:00; Sa-Su 09:00-20:00","phone":"+33 2 90 87 88 89","service:climbing_harness:rental":"yes","service:climbing_shoes:rental":"yes","sport":"climbing","website":"https://angers-lespontsdece.climb-up.fr"}},"2855470550":{"location":[47.3962093,-0.6284727],"ts":"2019-07-10T21:13:08Z","tz":1,"tags":{"name":"La Pierre Bécherelle","natural":"rock","place":"locality","sport":"climbing"}},"4315774031":{"location":[47.4758653,-0.5390605],"ts":"2023-01-18T13:38:54Z","tz":1,"tags":{"addr:street":"Rue Guérin","email":"cafanjou@ffcam.fr","leisure":"sports_centre","name":"Club Alpin Français (CAF)","phone":"+33 2 41 60 09 99","sport":"climbing","website":"https://anjou.ffcam.fr/"}},"8511920226":{"location":[47.4037658,-0.5466469],"ts":"2021-03-12T21:23:18Z","tz":1,"tags":{"name":"Escalade de la Roche de Mûrs","natural":"cliff","sport":"climbing"}},"9308968942":{"location":[47.403748,-0.5446015],"ts":"2021-12-03T17:03:41Z","tz":1,"tags":{"leisure":"pitch","name":"La Roche de Mûrs","sport":"climbing"}}}