{"679920446":{"location":[44.8751695,-0.5712008],"ts":"2022-01-21T17:55:30Z","tz":1,"tags":{"building":"yes","leisure":"sports_centre","material":"weathering_steel","name":"Gymnase Aubiers Ginko","sport":"climbing"}},"5014451856":{"location":[44.8881243,-0.5478009],"ts":"2025-03-12T18:35:10Z","tz":1,"tags":{"climbing:boulder":"yes","indoor":"yes","leisure":"sports_centre","name":"Block'Out Bordeaux","ref:FR:NAF":"93.12Z","ref:FR:SIREN":"814340196","ref:FR:SIRET":"81434019600017","source":"INSEE - 2025-03","sport":"climbing"}},"5014463697":{"location":[44.8594875,-0.6647291],"ts":"2025-02-06T19:20:30Z","tz":1,"tags":{"addr:city":"Eysines","addr:housenumber":"2","addr:postcode":"33320","addr:street":"Allée Maryse Hilsz","climbing:boulder":"yes","climbing:speed":"no","climbing:sport":"no","climbing:toprope":"no","fee":"yes","indoor":"yes","leisure":"sports_centre","name":"Climb Up Bordeaux Eysines","opening_hours":"Mo 10:00-23:00; Tu 10:00-00:00; We-Th 10:00-23:00; Fr 10:00-21:00; Sa-Su 10:00-20:00","payment:cards":"yes","payment:cash":"yes","payment:qr_code":"no","phone":"+33 5 57 14 40 09","ref:FR:NAF":"93.11Z","ref:FR:SIREN":"829806918","ref:FR:SIRET":"82980691800035","service:climbing_shoes:rental":"yes","service:climbing_shoes:rental:fee":"yes","shower":"hot","source":"INSEE - 2025-02","sport":"climbing","website":"https://bordeaux-eysines.climb-up.fr/"}},"5564714840":{"location":[44.8629974,-0.5730148],"ts":"2020-03-08T19:01:18Z","tz":1,"tags":{"climbing:boulder":"yes","contact:email":"contactbordeaux@arkose.com","contact:housenumber":"170","contact:phone":"+33 5 56 80 57 46","contact:postcode":"33000","contact:street":"Cours du Médoc","contact:website":"https://bordeaux.arkose.com/","fee":"yes","indoor":"yes","leisure":"sports_centre","name":"Arkose","opening_hours":"Mo-Su 08:00-00:00","sport":"climbing"}},"8737221749":{"location":[44.8795243,-0.5686595],"ts":"2021-05-16T22:05:02Z","tz":1,"tags":{"brand":"Hapik","leisure":"sports_centre","name":"Hapik","sport":"climbing"}}}