{"629081199":{"location":[44.8021397,-0.6867699],"ts":"2024-05-12T22:17:07Z","tz":1,"tags":{"area":"yes","playground":"climbingwall","sport":"climbing"}},"740148622":{"location":[44.8312306,-0.681923],"ts":"2025-03-11T18:38:17Z","tz":1,"tags":{"addr:city":"Mérignac","addr:housenumber":"17","addr:postcode":"33700","addr:street":"Avenue Pythagore","building":"yes","climbing:boulder":"yes","climbing:speed":"yes","climbing:sport":"yes","climbing:toprope":"yes","fee":"yes","internet_access":"wlan","internet_access:fee":"no","leisure":"sports_centre","name":"Climb Up Mérignac","opening_hours":"Mo 09:00-23:00; Tu-Th 09:00-00:00; Fr-Su 09:00-23:00","payment:cards":"yes","payment:cash":"yes","payment:qr_code":"no","phone":"+33 5 36 44 36 44","ref:FR:NAF":"93.11Z","ref:FR:SIREN":"829806918","ref:FR:SIRET":"82980691800027","service:climbing_belay_device:rental":"yes","service:climbing_belay_device:rental:fee":"no","service:climbing_harness:rental":"yes","service:climbing_rope:rental":"yes","service:climbing_rope:rental:fee":"no","service:climbing_shoes:rental":"yes","service:climbing_shoes:rental:fee":"yes","shower":"hot","source":"INSEE - 2025-03","sport":"climbing","website":"https://bordeaux-merignac.climb-up.fr/"}},"999229013":{"location":[44.7789092,-0.5643552],"ts":"2025-02-28T18:15:23Z","tz":1,"tags":{"addr:housenumber":"32","addr:street":"Rue Jean Pages","building":"yes","climbing:boulder":"yes","climbing:sport":"yes","climbing:toprope":"yes","fee":"yes","leisure":"sports_centre","name":"Climb Up Bordeaux Villenave","opening_hours":"09:00-23:00","payment:cards":"yes","payment:cash":"yes","payment:qr_code":"no","phone":"+33 5 81 33 15 62","ref:FR:NAF":"93.11Z","ref:FR:SIREN":"829806918","ref:FR:SIRET":"82980691800043","service:climbing_belay_device:rental":"yes","service:climbing_belay_device:rental:fee":"no","service:climbing_harness:rental":"yes","service:climbing_rope:rental":"yes","service:climbing_rope:rental:fee":"no","service:climbing_shoes:rental":"yes","service:climbing_shoes:rental:fee":"yes","shower":"hot","source":"INSEE - 2025-02","sport":"climbing","website":"https://bordeaux-villenave.climb-up.fr/"}},"1476475453":{"location":[44.7602442,-0.6820619],"ts":"2013-01-05T15:14:07Z","tz":1,"tags":{"leisure":"pitch","sport":"climbing"}},"7991933669":{"location":[44.8330358,-0.5639725],"ts":"2020-10-09T11:25:53Z","tz":1,"tags":{"addr:housenumber":"34","addr:street":"Rue Andronne","leisure":"sports_centre","name":"Le Migou","sport":"climbing","website":"http://lemigou33.free.fr/1asso/"}}}