{"815857718":{"lat":39.456893,"lon":-0.3783334,"ts":"2024-10-09T19:30:20Z","tz":1,"tags":{"fee":"no","leisure":"sports_centre","sport":"climbing"}},"815857719":{"lat":39.4569983,"lon":-0.3782859,"ts":"2024-10-09T19:30:20Z","tz":1,"tags":{"fee":"no","leisure":"sports_centre","sport":"climbing"}},"885702519":{"lat":39.4980552,"lon":-0.4776734,"ts":"2020-12-16T23:19:17Z","tz":1,"tags":{"leisure":"sports_centre","sport":"climbing"}},"895934827":{"lat":39.4560415,"lon":-0.3976981,"ts":"2024-09-28T17:44:34Z","tz":1,"tags":{"addr:city":"València","addr:housenumber":"6","addr:postcode":"46014","addr:street":"Carrer dels Campaners","building":"yes","building:levels":"1","leisure":"sports_centre","name":"Natural Climb","sport":"climbing"}},"1244036805":{"lat":39.5975296,"lon":-0.4630447,"ts":"2024-01-29T11:34:49Z","tz":1,"tags":{"building":"yes","leisure":"sports_centre","sport":"climbing"}},"4176009816":{"lat":39.5629849,"lon":-0.6318212,"ts":"2016-05-28T18:29:22Z","tz":1,"tags":{"leisure":"sports_centre","sport":"climbing"}},"6127807413":{"lat":39.5007671,"lon":-0.3931954,"ts":"2023-01-23T18:30:28Z","tz":1,"tags":{"description":"Sala de escalada.","email":"laifclimbingym@gmail.com","leisure":"sports_centre","name":"Laif Climbing Gym","opening_hours":"Mo-Th 10:30-22:00; Fr-Su 10:00-14:00,17:00-21:00","phone":"+34 963 38 44 88","sport":"climbing","website":"http://www.laifclimbinggym.com"}},"8829602211":{"lat":39.4167379,"lon":-0.377533,"ts":"2021-06-14T10:34:18Z","tz":1,"tags":{"description":"An indoor-climbing with bar, especially aimed at kids.","name":"Hapik","sport":"climbing"}},"9641438317":{"lat":39.4560008,"lon":-0.3976376,"ts":"2024-09-28T17:44:32Z","tz":1,"tags":{"addr:city":"València","addr:housenumber":"6","addr:postcode":"46014","addr:street":"Carrer dels Campaners","contact:instagram":"naturalclimbvalencia","email":"admin@naturalclimb.es","internet_access":"wlan","leisure":"fitness_centre","name":"Natural Climb","opening_hours":"Mo-Su 08:00-22:00; PH 08:00-22:00","phone":"+34 6 39 57 46 38","sport":"climbing","website":"https://naturalclimb.es/"}},"9713933240":{"lat":39.526944,"lon":-0.40872,"ts":"2022-05-04T12:16:13Z","tz":1,"tags":{"leisure":"sports_centre","sport":"climbing"}},"10559000759":{"lat":39.5334598,"lon":-0.407731,"ts":"2023-01-16T09:15:52Z","tz":1,"tags":{"leisure":"sports_centre","sport":"climbing"}},"10559000760":{"lat":39.5333345,"lon":-0.4077902,"ts":"2023-01-16T09:15:52Z","tz":1,"tags":{"leisure":"sports_centre","sport":"climbing"}},"11329182902":{"lat":39.4655759,"lon":-0.3574533,"ts":"2023-11-06T12:21:54Z","tz":1,"tags":{"leisure":"sports_centre","sport":"climbing"}}}