{"150613576":{"location":[38.2743102,-0.6745449],"ts":"2023-12-03T22:45:54Z","tz":1,"tags":{"building":"yes","leisure":"sports_centre","name":"Rocódromo","sport":"climbing"}},"625277243":{"location":[38.5010426,-0.6733593],"ts":"2024-05-15T14:28:45Z","tz":1,"tags":{"climbing:bolted":"yes","climbing:grade:french:max":"7a+","climbing:grade:french:min":"III","climbing:multipitch":"no","climbing:orientation":"S","climbing:quality":"solid","climbing:rock":"limestone","climbing:routes":"50","climbing:sport":"yes","climbing:toprope":"yes","climbing:trad":"no","name":"la Foradà, sud","name:ca":"la Foradà, sud","name:es":"La Foradà, sur","natural":"cliff","sport":"climbing"}},"625277244":{"location":[38.5010626,-0.6733696],"ts":"2024-05-15T14:28:45Z","tz":1,"tags":{"climbing:bolted":"yes","climbing:grade:french:max":"8b+","climbing:grade:french:min":"IV+","climbing:multipitch":"no","climbing:orientation":"N","climbing:quality":"solid","climbing:rock":"limestone","climbing:routes":"90","climbing:sport":"yes","climbing:toprope":"yes","climbing:trad":"no","name":"la Foradà, nord","name:ca":"la Foradà, nord","name:es":"La Foradà, norte","natural":"cliff","sport":"climbing"}},"836940113":{"location":[38.518818,-0.6768817],"ts":"2020-08-13T22:43:26Z","tz":1,"tags":{"access":"yes","climbing:boulder":"yes","climbing:length":"4","fee":"no","leisure":"sports_centre","outdoor":"yes","sport":"climbing"}},"1228519923":{"location":[38.2775832,-0.6746986],"ts":"2023-12-07T22:59:58Z","tz":1,"tags":{"building":"yes","leisure":"sports_centre","sport":"climbing"}},"7057852863":{"location":[38.3918322,-0.5224576],"ts":"2024-10-29T09:39:04Z","tz":1,"tags":{"access":"customers","addr:city":"Sant Vicent del Raspeig","addr:street":"Calle Enric Valor","climbing:boulder":"no","contact:email":"boulderblocarc@gmail.com","contact:facebook":"https://www.facebook.com/BlocArc","contact:phone:ES":"(+34) 610 019 432","leisure":"sports_centre","name":"Bloc Arc","name:ca":"Bloc Arc","opening_hours":"Mo,We,Fr 09:00-14:00, 16:30-22:00; Tu,Th 09:00-22:00","sport":"climbing"}},"8573701912":{"location":[38.2987949,-0.7018843],"ts":"2023-01-08T14:14:37Z","tz":1,"tags":{"leisure":"sports_centre","name":"Entreno agarre escalada","name:ca":"Entreno agarre escalada","sport":"climbing"}}}