{"11501323":{"lat":55.7229788,"lon":37.5454489,"ts":"2023-09-17T22:42:45Z","tz":4,"tags":{"contact:website":"https://bigwallsport.ru/luzhniki","leisure":"sports_centre","name":"Скалодром BigWall","sport":"climbing"}},"324088684":{"lat":55.6123597,"lon":37.5080317,"ts":"2015-01-24T21:38:40Z","tz":4,"tags":{"leisure":"stadium","sport":"climbing"}},"2828503040":{"lat":55.73986,"lon":37.527045,"ts":"2023-09-17T22:42:45Z","tz":4,"tags":{"addr:housenumber":"36 с14","addr:street":"Кутузовский проспект","leisure":"sports_centre","name":"Скала сити","official_name":"Скалодром \"Скала сити\"","opening_hours":"Mo-Fr 15:00-23:30; Sa-Su 13:00-22:00","phone":"+7 985 7679163;+7 495 9800668","sport":"climbing","website":"https://skala-city.ru/"}},"3635889267":{"lat":55.6626659,"lon":37.4789362,"ts":"2023-09-17T22:42:45Z","tz":4,"tags":{"leisure":"sports_centre","name":"Скалодром МИТХТ","outdoor":"yes","sport":"climbing"}},"3955644370":{"lat":55.6752631,"lon":37.6108535,"ts":"2023-09-17T22:42:45Z","tz":4,"tags":{"leisure":"sports_centre","name":"Атмосфера","sport":"climbing"}},"6810893686":{"lat":55.6762841,"lon":37.6131162,"ts":"2023-09-17T22:42:45Z","tz":4,"tags":{"addr:housenumber":"7/2","addr:street":"Электролитный проезд","email":"admin@atmosfera.rocks","internet_access":"wlan","leisure":"sports_centre","name":"Скалодром «Атмосфера»","opening_hours":"Mo-Su 08:00-23:00","phone":"+7 495 9099612","sport":"climbing","website":"http://www.atmosfera.rocks"}}}