{"42303570":{"location":[50.0193265,8.2268557],"ts":"2023-11-05T22:31:43Z","tz":1,"tags":{"access":"yes","addr:city":"Mainz","addr:country":"DE","addr:housenumber":"85","addr:postcode":"55120","addr:street":"Turmstraße","building":"yes","climbing:boulder":"yes","climbing:grade:uiaa:max":"9","climbing:grade:uiaa:mean":"6","climbing:grade:uiaa:min":"3","climbing:length":"13","climbing:speed":"no","climbing:sport":"yes","climbing:toprope":"yes","climbing:traditional":"no","email":"info@kletterkiste-mainz.de","fee":"yes","indoor":"yes","leisure":"sports_centre","name":"Kletterkiste DAV Mainz","operator":"DAV Sektion Mainz","outdoor":"yes","phone":"+49 6131 688829","sport":"climbing","website":"https://kletterkiste-mainz.de/"}},"299442480":{"location":[49.963286,8.3724681],"ts":"2020-09-16T06:17:05Z","tz":1,"tags":{"addr:city":"Rüsselsheim am Main","addr:housenumber":"83","addr:postcode":"65428","addr:street":"Am Weinfaß","climbing:grade:uiaa:max":"8","climbing:grade:uiaa:min":"3","climbing:length":"15","climbing:length:max":"18","description":"Kletterturm","leisure":"sports_centre","man_made":"tower","outdoor":"yes","sport":"climbing","tower:type":"climbing","url":"http://www.kletterwiki.de/Kletterturm_R%C3%BCsselsheim-Bauschheim","website":"https://www.alpenverein.de/DAV-Services/Kletterhallen-Suche/Detail/Ruesselsheim-Bauschheim/Kletteranlage-Bauschheim-der-Stadt-Ruesselsheim/232482/"}},"316093569":{"location":[50.0225493,8.376576],"ts":"2021-07-08T19:17:15Z","tz":1,"tags":{"climbing:bolted":"2 m","climbing:grade:uiaa:max":"8","climbing:grade:uiaa:min":"3","climbing:length":"19","climbing:orientation":"S","climbing:quality":"solid","climbing:routes":"59","climbing:sport":"50","contact:webcam":"http://www.21j.de/M1/webcam.jpg","contact:website":"http://www.bioma-gmbh.de/","fee":"yes","leisure":"sports_centre","name":"Kletterwand am Biomassekraftwerk","object:city":"Flörsheim","object:postcode":"65439","object:street":"Rhein-Main-Deponiepark","opening_hours":"Mo-Su 07:00-22:00","operator":"Biomasse Rhein-Main GmbH","sport":"climbing","website":"https://kletterfreunde-wicker.de/"}},"2213492565":{"location":[50.0497579,8.2142908],"ts":"2023-11-03T00:50:52Z","tz":1,"tags":{"addr:city":"Wiesbaden","addr:housename":"Wiesbadener Nordwand","addr:housenumber":"49","addr:postcode":"65203","addr:street":"Hagenauer Straße","climbing:boulder":"yes","climbing:sport":"yes","climbing:toprope":"yes","fee":"yes","indoor":"yes","leisure":"sports_centre","name":"Wiesbadener Nordwand","opening_hours":"Mo-Fr 09:00-23:00; Sa, Su 09:00-22:00","phone":"+49 611 98896244","source":"http://www.wiesbadener-nordwand.de/impressum.html","sport":"climbing","website":"https://wiesbadener-nordwand.de/","wheelchair":"no"}},"5592003321":{"location":[50.0192634,8.226772],"ts":"2023-11-05T22:23:32Z","tz":1,"tags":{"addr:city":"Mainz","addr:housenumber":"85","addr:postcode":"55120","addr:street":"Turmstraße","leisure":"sports_centre","name":"Kletterkiste - DAV Kletterzentrum Mainz","opening_hours":"Mo-Fr 17:00-23:00; Sa,Su 14:00-20:00","sport":"climbing","website":"https://kletterkiste-mainz.de/","wheelchair":"yes"}},"9546929952":{"location":[50.011009,8.2315643],"ts":"2022-03-09T09:23:22Z","tz":1,"tags":{"fee":"no","leisure":"pitch","sport":"climbing"}},"9698560257":{"location":[50.040652,8.2446154],"ts":"2022-04-27T18:43:07Z","tz":1,"tags":{"access":"private","leisure":"playground","man_made":"tower","sport":"climbing","tower:type":"climbing"}},"10285944887":{"location":[50.0086154,8.2797328],"ts":"2024-03-12T07:04:49Z","tz":1,"tags":{"access":"yes","leisure":"playground","name":"Kletterwand","playground":"climbingwall","sport":"climbing"}},"11260073692":{"location":[49.985225,8.4247957],"ts":"2023-10-13T13:33:40Z","tz":1,"tags":{"access":"private","description":"Kletterwand der Hochschule RheinMain, Teil des Hochschulsports","leisure":"sports_centre","sport":"climbing","website":"https://hochschulsport.hs-rm.de/angebote/aktueller_zeitraum/_Bouldern.html"}},"11486980356":{"location":[49.9497192,8.265306],"ts":"2024-06-25T14:42:57Z","tz":1,"tags":{"addr:city":"Mainz","addr:country":"DE","addr:housenumber":"10","addr:postcode":"55129","addr:street":"Athener Allee","leisure":"sports_centre","name":"Hapik","old_name":"clip'n climb Mainz","opening_hours":"We-Fr 14:00-20:00; Sa,Su 09:00-20:00","operator":"ERLEBNISreich GmbH","sport":"climbing","website":"https://www.hapik.de/"}}}