{"48472834":{"location":[49.3742854,8.1444904],"ts":"2023-10-12T13:22:50Z","tz":1,"tags":{"climbing:bolted":"yes","climbing:orientation":"NO","climbing:rock":"sandstone","climbing:sport":"yes","leisure":"pitch","lit":"no","name":"Klettergarten an der Heidenburg","sport":"climbing","url":"http://27crags.com/crags/gimmeldinger-steinbruch","website":"http://www.dav-felsinfo.de/html/index.php?option=com_davfelsen&task=view&catid=280&id=3881&Itemid=323"}},"159360119":{"location":[49.376722,8.0912086],"ts":"2022-06-13T18:07:16Z","tz":1,"tags":{"height":"20","material":"sandstone","name":"Steinbruch am Gerbersberg","natural":"cliff","operator":"Naturfreunde Ortsgruppe Lambrecht","sport":"climbing"}},"166726957":{"location":[49.2009984,8.1299239],"ts":"2025-03-12T19:22:14Z","tz":1,"tags":{"leisure":"sports_centre","name:signed":"no","sport":"climbing"}},"217385915":{"location":[49.3821409,8.1000737],"ts":"2025-01-06T07:36:49Z","tz":1,"tags":{"abandoned":"yes","height":"20","landuse":"quarry","name":"Lindenberger Steinbruch","operator":"Naturfreunde Ortsgruppe Lambrecht","sport":"climbing"}},"539763900":{"location":[49.3038563,8.0876633],"ts":"2020-09-11T22:41:11Z","tz":1,"tags":{"climbing:bolted":"yes","climbing:grade:uiaa:max":"9+","climbing:grade:uiaa:min":"7","climbing:rock":"sandstone","sport":"climbing"}},"808281076":{"location":[49.3411237,8.1543406],"ts":"2024-07-10T08:22:05Z","tz":1,"tags":{"addr:city":"Neustadt an der Weinstraße","addr:country":"DE","addr:housenumber":"17","addr:postcode":"67433","addr:street":"Europastraße","building":"yes","climbing:boulder":"yes","email":"post@boulderhalle-neustadt.de","indoor":"yes","internet_access":"wlan","leisure":"sports_centre","name":"Petz Boulderhalle","opening_hours":"Mo-Fr 14:00-22:00; Sa-Su,PH 10:00-20:00","phone":"+49 6321 9159839","sport":"climbing","website":"https://boulderhalle-neustadt.de/","wheelchair":"no"}},"2538103057":{"location":[49.188012,8.1331402],"ts":"2023-11-07T09:16:03Z","tz":1,"tags":{"addr:city":"Landau in der Pfalz","addr:country":"DE","addr:housenumber":"4","addr:postcode":"76829","addr:street":"Albert-Einstein-Straße","climbing:boulder":"yes","climbing:sport":"yes","fee":"yes","indoor":"yes","leisure":"sports_centre","name":"Kletterhalle FITZ ROCKS","opening_hours":"Mo 13:00-23:00; Tu-Fr 10:00-23:00; Sa-Su 10:00-21:00; PH 10:00-21:00","phone":"+49 6341 9949050","sport":"climbing","website":"https://fitzrocks.de/"}}}