{"129194730":{"lat":48.7897977,"lon":8.1885244,"ts":"2019-08-29T19:31:14Z","tz":1,"tags":{"addr:city":"Baden-Baden","addr:country":"DE","addr:housenumber":"17","addr:postcode":"76532","addr:street":"Flugstra√üe","building":"yes","building:colour":"gray","building:levels":"4","leisure":"sports_centre","name":"DAV Kletterzentrum Baden-Baden","opening_hours":"Jun-Aug: Mo-Fr 16:00-22:00; Sa,Su 14:00-20:00; Sep-May: Mo-Fr 14:00-22:00; Sa,Su 10:00-22:00","roof:shape":"flat","sport":"climbing","start_date":"2011-08","website":"http://www.kletterzentrum-baden-baden.de/","wheelchair":"yes"}},"186844730":{"lat":48.77674,"lon":8.2536863,"ts":"2021-04-05T16:36:18Z","tz":1,"tags":{"climbing:grade:french:min":"2","climbing:grade:uiaa:min":"II","name":"Predigtstuhl","natural":"bare_rock","sport":"climbing"}},"260667730":{"lat":48.766057,"lon":8.3285804,"ts":"2021-09-23T00:51:05Z","tz":1,"tags":{"barrier":"wall","height":"2.5","leisure":"sports_centre","name":"Kletterwand","sport":"climbing"}},"503172051":{"lat":48.7382125,"lon":8.4071172,"ts":"2023-10-31T13:38:34Z","tz":1,"tags":{"access":"yes","climbing:bolted":"1.5","climbing:grade:uiaa:max":"8","climbing:grade:uiaa:mean":"7-","climbing:grade:uiaa:min":"3-","climbing:length:max":"30","climbing:length:min":"10","climbing:multipitch":"no","climbing:orientation":"S;SW","climbing:quality":"solid","climbing:rock":"granite","climbing:routes":"16","climbing:sport":"yes","climbing:toprope":"yes","climbing:trad":"yes","ele":"620","fee":"no","name":"Orgelfelsen","natural":"cliff","opening_hours":"24/7","outdoor":"yes","sport":"climbing","url":"http://felsinfo.alpenverein.de/felsinfo/schwarzwald/murgtal/4699","website":"https://www.klettern-nordschwarzwald.de/murgtal/orgelfelsen.html"}},"669895508":{"lat":48.7769443,"lon":8.2543308,"ts":"2021-04-07T12:22:45Z","tz":1,"tags":{"climbing:multipitch":"yes","climbing:rock":"rhyolite","climbing:sport":"yes","climbing:trad":"yes","name":"Battert","sport":"climbing"}},"793230976":{"lat":48.7486806,"lon":8.3471247,"ts":"2022-06-27T17:24:01Z","tz":1,"tags":{"access":"yes","climbing:bolted":"2","climbing:grade:uiaa:max":"7-","climbing:grade:uiaa:mean":"6","climbing:grade:uiaa:min":"5-","climbing:length":"15","climbing:orientation":"SO","climbing:quality":"medium","climbing:rock":"Rhyolite","climbing:routes":"8","climbing:sport":"yes","ele":"185","fee":"no","name":"Grafensprung, unterer Wandteil","natural":"cliff","opening_hours":"24/7","operator:website":"http://www.klettern-nordschwarzwald.de/murgtal/grafensprung.html","outdoor":"yes","sport":"climbing","url":"http://felsinfo.alpenverein.de/felsinfo/schwarzwald/murgtal/1311","website":"https://www.thecrag.com/en/climbing/germany/schwarzwald/area/297269370"}},"793230979":{"lat":48.7487264,"lon":8.3469717,"ts":"2022-06-27T17:24:01Z","tz":1,"tags":{"access":"yes","climbing:bolted":"2","climbing:grade:uiaa:max":"7+","climbing:grade:uiaa:mean":"6","climbing:grade:uiaa:min":"3+","climbing:length":"15","climbing:orientation":"SO","climbing:quality":"medium","climbing:rock":"Rhyolite","climbing:routes":"16","climbing:sport":"yes","ele":"210","fee":"no","name":"Grafensprung, oberer Wandteil","natural":"cliff","opening_hours":"24/7","operator:website":"http://www.klettern-nordschwarzwald.de/murgtal/grafensprung.html","outdoor":"yes","sport":"climbing","url":"http://felsinfo.alpenverein.de/felsinfo/schwarzwald/murgtal/1311","website":"https://www.thecrag.com/en/climbing/germany/schwarzwald/area/297269370"}},"913547386":{"lat":48.7765562,"lon":8.2555228,"ts":"2021-04-05T16:36:18Z","tz":1,"tags":{"climbing:grade:french:min":"3a","climbing:grade:uiaa:min":"III-","name":"Beckerturm","natural":"bare_rock","sport":"climbing"}}}