{"290111459":{"location":[46.9712921,8.3059545],"ts":"2021-09-22T09:22:47Z","tz":1,"tags":{"leisure":"pitch","name":"Telli","sport":"climbing"}},"293475894":{"location":[46.9703949,8.3171604],"ts":"2018-07-09T18:38:03Z","tz":1,"tags":{"natural":"cliff","source":"survey","sport":"climbing"}},"840615549":{"location":[46.9748999,8.3305725],"ts":"2016-08-03T15:28:24Z","tz":1,"tags":{"climbing_type":"sport","name":"Lopper","sport":"climbing"}},"2667702058":{"location":[47.0310716,8.2965763],"ts":"2023-11-04T10:00:39Z","tz":1,"tags":{"addr:city":"Kriens","addr:housenumber":"1","addr:postcode":"6010","addr:street":"Nidfeldstrasse","climbing:boulder":"yes","leisure":"sports_centre","name":"City Boulder","sport":"climbing","website":"https://www.cityboulder.ch/"}},"2816094753":{"location":[46.9744715,8.3305079],"ts":"2022-07-11T02:26:20Z","tz":1,"tags":{"access":"yes","area":"public","climbing_type":"sport","leisure":"pitch","name":"Klettergarten Rivella / Telli","sport":"climbing"}},"3139701825":{"location":[46.8712009,8.3298568],"ts":"2014-10-20T09:31:09Z","tz":1,"tags":{"access":"yes","climbing:bolted":"no","climbing:quality":"fragile","fixme":"Wegen Nässe vor dem ersten Block abgebrochen, ist es dahinter wirklich Kletterei? Wirkt von unten so.","opening_hours":"24/7","sport":"climbing"}},"5194604690":{"location":[46.974237,8.2618189],"ts":"2017-10-27T18:15:25Z","tz":1,"tags":{"name":"Mattalpplatte","sport":"climbing"}},"7467273044":{"location":[47.0379804,8.3002071],"ts":"2020-04-30T13:23:36Z","tz":1,"tags":{"climbing:boulder":"yes","sport":"climbing"}},"8117809118":{"location":[46.9739711,8.2622129],"ts":"2024-11-09T14:53:19Z","tz":1,"tags":{"climbing":"route_bottom","name":"Galtigentürme Einstieg","name:en":"Galtigentürme traverse start"}},"9889069467":{"location":[46.8994811,8.2589179],"ts":"2022-07-15T07:32:44Z","tz":1,"tags":{"name":"Polizeiposten","sport":"climbing"}},"10963169834":{"location":[46.9748112,8.2310208],"ts":"2024-06-01T22:23:15Z","tz":1,"tags":{"climbing":"route_bottom"}},"10963169835":{"location":[46.9743517,8.2313056],"ts":"2023-08-02T09:46:30Z","tz":1,"tags":{"climbing":"route_top"}}}