{"674113109":{"lat":19.3791472,"lon":-99.1858331,"ts":"2025-03-25T07:15:18Z","tz":-6,"tags":{"access":"customers","building":"retail","climbing:sport":"no","fee":"yes","layer":"1","leisure":"sports_centre","name":"Vertimania Mixcoac","sport":"climbing"}},"812378629":{"lat":19.3468075,"lon":-99.1694529,"ts":"2025-04-02T04:52:21Z","tz":-6,"tags":{"addr:postcode":"04010","addr:suburb":"Santa Catarina","building":"warehouse","leisure":"sports_centre","name":"Rock Solid","sport":"climbing"}},"1105392012":{"lat":19.3340808,"lon":-99.1933838,"ts":"2025-02-25T23:41:23Z","tz":-6,"tags":{"climbing":"area","leisure":"sports_centre","name":"La Escuelita","sport":"climbing"}},"1296553381":{"lat":19.4704615,"lon":-99.2700789,"ts":"2024-06-29T09:13:44Z","tz":-6,"tags":{"climbing":"route","leisure":"sports_centre","sport":"climbing","surface":"stone"}},"1296553383":{"lat":19.4705574,"lon":-99.270213,"ts":"2024-06-27T04:47:16Z","tz":-6,"tags":{"climbing":"yes","climbing:toprope":"yes","climbing:trad":"yes","leisure":"sports_centre","sport":"climbing"}},"1298637493":{"lat":19.4562699,"lon":-99.1646176,"ts":"2024-07-02T19:39:00Z","tz":-6,"tags":{"building":"yes","fee":"yes","leisure":"sports_centre","name":"Toka Climbing","opening_hours":"Mo- Fr 10:00-22:00; Sa-Su 10:00-17:00","payment:cards":"yes","payment:cash":"yes","payment:coins":"yes","payment:credit_cards":"yes","payment:debit_cards":"yes","payment:mastercard":"yes","payment:notes":"yes","payment:visa":"yes","sport":"climbing"}},"1312945095":{"lat":19.4538929,"lon":-99.1721302,"ts":"2024-09-03T03:50:46Z","tz":-6,"tags":{"building":"yes","leisure":"sports_centre","sport":"climbing"}},"7587880072":{"lat":19.3467732,"lon":-99.1692827,"ts":"2020-06-03T05:03:13Z","tz":-6,"tags":{"addr:housenumber":"83","addr:postcode":"04010","addr:street":"Prolongaci√≥n Ayuntamiento","leisure":"sports_centre","name":"Rock Solid","phone":"+525562730070","sport":"climbing"}},"7772297483":{"lat":19.3997398,"lon":-99.2720755,"ts":"2020-07-31T08:52:26Z","tz":-6,"tags":{"access":"customers","branch":"Interlomas","leisure":"sports_centre","name":"Jump-In","sport":"climbing"}},"12014224339":{"lat":19.4703998,"lon":-99.2700982,"ts":"2024-06-27T04:47:16Z","tz":-6,"tags":{"climbing":"route_bottom"}},"12014224340":{"lat":19.4705232,"lon":-99.2700596,"ts":"2024-06-27T04:47:16Z","tz":-6,"tags":{"climbing":"route_top"}}}