{"765566812":{"location":[52.2427062,21.037168],"ts":"2024-10-23T19:16:37Z","tz":1,"tags":{"area":"yes","blind":"no","climbing:boulder":"yes","lit":"no","max_age":"109","min_age":"0","playground":"climbingwall","sport":"climbing","wheelchair":"no"}},"896817672":{"location":[52.1359604,21.0651695],"ts":"2025-02-23T13:46:37Z","tz":1,"tags":{"alt_name":"Ju-huu!!!","check_date":"2025-02-23","leisure":"sports_centre","name":"Tarzanek","sport":"climbing"}},"1093752426":{"location":[52.2065038,21.0282003],"ts":"2024-07-13T18:00:21Z","tz":1,"tags":{"check_date":"2024-07-13","climbing":"boulder","fee":"no","leisure":"sports_centre","opening_hours":"24/7","operator":"Zarząd Zieleni m.st. Warszawy","operator:type":"government_facility-public","sport":"climbing"}},"1160282032":{"location":[52.2023366,20.9216705],"ts":"2023-04-06T20:47:06Z","tz":1,"tags":{"leisure":"sports_centre","name":"Ścianka wpinaczkowa","sport":"climbing"}},"1973003979":{"location":[52.1965578,21.0262555],"ts":"2025-05-12T10:32:42Z","tz":1,"tags":{"addr:city":"Warszawa","addr:housenumber":"2","addr:postcode":"02-511","addr:street":"Dominika Merliniego","building":"yes","email":"info@wgore.eu","leisure":"sports_centre","name":"Wgórę","official_name":"Arena Wspinaczkowa Wgórę","opening_hours":"Mo-Fr 08:00-22:30; Sa-Su 09:00-21:00","phone":"+48222453688","sport":"climbing","website":"http://wgore.eu"}},"3584003769":{"location":[52.2480282,20.9538627],"ts":"2025-05-12T07:59:57Z","tz":1,"tags":{"addr:city":"Warszawa","addr:housenumber":"60","addr:postcode":"01-423","addr:street":"Obozowa","building":"yes","leisure":"sports_centre","name":"Centrum Wspinaczkowe On Sight","opening_hours":"Mo-Fr 08:00-21:45; Sa,Su 09:00-21:15","phone":"+48 697837198","sport":"climbing","website":"http://www.obozowa.waw.pl/"}},"4222629925":{"location":[52.2244931,21.0101832],"ts":"2025-05-12T10:27:50Z","tz":1,"tags":{"addr:city":"Warszawa","addr:housenumber":"51","addr:postcode":"00-681","addr:street":"Hoża","building":"yes","check_date":"2024-06-05","climbing:boulder":"yes","email":"info@crux.boulder.pl","internet_access":"wlan","leisure":"sports_centre","level":"1;2","name":"Crux Boulder","opening_hours":"Mo-Fr 08:00-23:00; Sa,Su 10:00-21:00","phone":"+48536221878","sport":"climbing","website":"https://crux.boulder.pl/"}},"7084484036":{"location":[52.1454843,21.0404461],"ts":"2019-12-25T19:03:11Z","tz":1,"tags":{"addr:city":"Warszawa","addr:housenumber":"11","addr:postcode":"02-776","addr:street":"Ludwika Hirszfelda","fee":"yes","leisure":"sports_centre","name":"Ściana Południowa","payment:cards":"yes","payment:cash":"yes","payment:mastercard":"yes","payment:visa":"yes","sport":"climbing"}},"8561076861":{"location":[52.251278,21.067527],"ts":"2025-05-12T10:26:37Z","tz":1,"tags":{"addr:city":"Warszawa","addr:housenumber":"65","addr:postcode":"03-828","addr:street":"Mińska","building":"yes","contact:facebook":"green_pixie","contact:instagram":"https://www.instagram.com/obiekto/","email":"info@obiekto.pl","leisure":"sports_centre","name":"Obiekto","opening_hours":"Mo-Fr 08:00-22:30; Sa, Su 09:00-21:00","phone":"+48 791 585 451","sport":"climbing","website":"https://obiekto.pl"}},"8578345745":{"location":[52.1837152,21.0881861],"ts":"2025-05-12T09:08:05Z","tz":1,"tags":{"addr:city":"Warszawa","addr:housenumber":"16","addr:postcode":"02-981","addr:street":"Zawodzie","alt_name":"Wolt Boulderownia","building":"yes","email":"voltboulderownia@gmail.com","facebook":"https://www.facebook.com/VOLTboulderownia/","leisure":"sports_centre","name":"Volt Boulderownia","name:en":"Volt Bouldering","opening_hours":"Mo-Fr 08:00-23:00; Sa-Su 09:00-22:00","phone":"+48 500 233 922","sport":"climbing","website":"https://www.voltboulderownia.pl/"}},"8997201409":{"location":[52.2058853,20.980584],"ts":"2021-08-11T13:53:07Z","tz":1,"tags":{"climbing:length":"15","climbing:routes":"50","fee":"yes","leisure":"sports_centre","mobile":"+48 503301745","opening_hours":"Mo-Fr 16:30-22:00; Sa 12:00-18:00","outdoor":"yes","sport":"climbing","website":"https://csr.wum.edu.pl/pl/strefa-klienta/scianka-wspinaczkowa"}},"9718263054":{"location":[52.1702104,20.9330719],"ts":"2025-05-12T08:30:34Z","tz":1,"tags":{"addr:city":"Warszawa","addr:housenumber":"61","addr:postcode":"02-183","addr:street":"Aleja Krakowska","building":"yes","email":"warszawa-krakowska@murall.pl","facebook":"MurallWarszawa","leisure":"sports_centre","name":"Murall Krakowska","opening_hours":"Mo-Su 08:00-23:00","sport":"climbing","website":"https://krakowska.murall.pl"}},"9850876788":{"location":[52.1682697,21.0247322],"ts":"2022-06-27T16:01:46Z","tz":1,"tags":{"description":"dla dzieci","fee":"no","leisure":"sports_centre","sport":"climbing"}},"11577438969":{"location":[52.192223,20.9345716],"ts":"2025-05-12T08:40:17Z","tz":1,"tags":{"addr:city":"Warszawa","addr:housenumber":"80/98","addr:postcode":"02-255","addr:street":"Krakowiaków","building":"yes","email":"info@westbouldering.pl","leisure":"sports_centre","name":"West Bouldering","opening_hours":"Mo-Su 08:00-23:00","phone":"+48 791 193 755","sport":"climbing","website":"https://www.westbouldering.pl/"}},"11967497549":{"location":[52.1436578,21.0053829],"ts":"2025-05-12T08:42:30Z","tz":1,"tags":{"addr:city":"Warszawa","addr:floor":"G","addr:housenumber":"50","addr:postcode":"02-849","addr:street":"Krasnowolska","building":"yes","check_date":"2025-02-09","email":"kontakt@camp4you.pl","internet_access":"wlan","leisure":"sports_centre","level":"0","name":"Camp4","opening_hours":"Mo-Th 08:00-23:00; Fr 08:00-22:30; Sa-Su 09:00-22:00","payment:cash":"yes","payment:credit_cards":"yes","payment:debit_cards":"yes","phone":"+48228471176","sport":"climbing","website":"https://halawspinaczkowa.pl/","wheelchair":"no"}},"12829860205":{"location":[52.2402959,20.9062655],"ts":"2025-05-12T08:28:31Z","tz":1,"tags":{"addr:city":"Warszawa","addr:housenumber":"218","addr:postcode":"01-460","addr:street":"Górczewska","building":"yes","leisure":"sports_centre","name":"Centrum Wspinaczkowe Murall","sport":"climbing"}},"12830060225":{"location":[52.2514104,21.0786684],"ts":"2025-05-12T10:25:16Z","tz":1,"tags":{"addr:city":"Warszawa","addr:housenumber":"40B","addr:postcode":"04-393","addr:street":"Siennicka","building":"yes","leisure":"sports_centre","name":"Hala Sportowa \"Siennicka\"","operator":"OSiR Praga-Południe","sport":"climbing"}}}