{"174866926":{"location":[37.532191,127.0624566],"ts":"2012-08-07T03:50:47Z","tz":9,"tags":{"leisure":"pitch","name":"스포츠클라이밍","sport":"climbing"}},"1018714443":{"location":[37.4614045,127.1649499],"ts":"2022-01-06T06:46:53Z","tz":9,"tags":{"leisure":"sports_centre","name":"을지대학교 인공 암벽장","sport":"climbing"}},"1315315471":{"location":[37.6387756,126.9171752],"ts":"2025-03-30T23:59:55Z","tz":9,"tags":{"addr:city":"서울특별시","addr:district":"은평구","addr:housenumber":"1078","addr:postcode":"03306","addr:street":"통일로","addr:subdistrict":"진관동","building":"yes","building:levels":"3","leisure":"sports_centre","name":"은평인공암벽장","sport":"climbing"}},"1324922781":{"location":[37.5733857,127.091207],"ts":"2025-02-15T00:38:45Z","tz":9,"tags":{"addr:city":"서울특별시","addr:district":"중랑구","addr:subdistrict":"면목동","building":"yes","leisure":"sports_centre","name":"용마폭포공원중랑스포트클라이밍경기장","sport":"climbing"}},"9878859472":{"location":[37.4904657,126.9213686],"ts":"2022-07-10T13:35:31Z","tz":9,"tags":{"name":"Climbing Wall","sport":"climbing"}},"10928060128":{"location":[37.5408112,127.1246252],"ts":"2025-01-12T10:37:22Z","tz":9,"tags":{"addr:city":"서울특별시","addr:district":"강동구","addr:housenumber":"664","addr:postcode":"05328","addr:street":"올림픽로","leisure":"sports_centre","name":"온플릭클라이밍","sport":"climbing"}},"10996278359":{"location":[37.5075887,127.0574294],"ts":"2025-01-11T17:58:56Z","tz":9,"tags":{"addr:city":"서울특별시","addr:district":"강남구","addr:housenumber":"505","addr:postcode":"06168","addr:street":"테헤란로","leisure":"sports_centre","name":"온사이트 클라이밍 onsight climbing","sport":"climbing"}},"11633847471":{"location":[37.557679,126.925842],"ts":"2025-01-11T17:58:56Z","tz":9,"tags":{"addr:city":"서울특별시","addr:district":"마포구","addr:housenumber":"186","addr:street":"양화로","internet_access":"wlan","level":"3","name":"더클라임 연남점","name:en":"THE CLIMB Yeonnam","opening_hours":"Mo-Fr 07:00-00:00; Sa 08:00-22:00; Su 08:00-20:00","phone":"+82 2-2088-5071","sport":"climbing","website":"http://theclimb.co.kr"}},"12319877217":{"location":[37.5030034,127.091359],"ts":"2025-01-11T18:03:51Z","tz":9,"tags":{"addr:city":"서울특별시","addr:district":"송파구","addr:housenumber":"224","addr:postcode":"05583","addr:street":"백제고분로","leisure":"sports_centre","name":"클라임투더문","sport":"climbing"}},"12470768294":{"location":[37.5073839,127.0575228],"ts":"2025-01-03T08:10:02Z","tz":9,"tags":{"addr:city":"서울특별시","addr:district":"강남구","addr:housenumber":"505","addr:postcode":"06168","addr:street":"테헤란로","leisure":"sports_centre","name":"온플릭클라이밍 삼성점","sport":"climbing"}}}