{"18892303":{"lat":50.9405108,"lon":12.7539723,"ts":"2025-03-25T09:42:46Z","tz":1,"tags":{"climbing":"crag","name":"Muldewand","sport":"climbing","type":"site"}},"102602774":{"lat":50.839853,"lon":12.907337,"ts":"2023-08-29T07:59:59Z","tz":1,"tags":{"addr:city":"Chemnitz","addr:housenumber":"20","addr:postcode":"09113","addr:street":"Matthesstraße","building":"yes","contact:phone":"+4937133498888","email":"info@kletter-zentrum.de","fee":"yes","leisure":"sports_centre","name":"Kletterzentrum Chemnitz","opening_hours":"Mo, We, Fr 15:00-23:00; Sa, Su, PH 10:00-20:00; Tu, Th 10:00-23:00","payment:cash":"yes","payment:debit_cards":"yes","sport":"climbing","website":"https://www.kletter-zentrum.de/","wheelchair":"yes"}},"1007667157":{"lat":50.9405596,"lon":12.7539723,"ts":"2024-03-23T08:26:36Z","tz":1,"tags":{"height":"45","name":"Muldewand","natural":"cliff","sport":"climbing"}},"2319210492":{"lat":50.8172205,"lon":12.9213669,"ts":"2022-03-10T09:00:58Z","tz":1,"tags":{"addr:city":"Chemnitz","addr:housenumber":"27","addr:postcode":"09120","addr:street":"Altchemnitzer Straße","climbing":"boulder","leisure":"sports_centre","name":"Boulderlounge Chemnitz","opening_hours":"Mo 15:00-23:00; Tu-Su 09:00-23:00","phone":"+49 371 2623296","sport":"climbing","toilets:wheelchair":"no","website":"https://www.boulderlounge-chemnitz.de/","wheelchair":"no"}},"5028009344":{"lat":50.9311869,"lon":12.7023372,"ts":"2024-06-26T09:40:02Z","tz":1,"tags":{"playground":"climbingwall","sport":"climbing"}},"7451342712":{"lat":50.9534269,"lon":12.8086904,"ts":"2020-05-04T12:31:03Z","tz":1,"tags":{"climbing:boulder":"yes","climbing:rock":"granite","climbing:routes":"4","name":"S.2","natural":"stone","sport":"climbing","website":"http://www.erzbloc.de/index.php?title=Turnvater_Jahn#Sportfrei"}},"7451342713":{"lat":50.9534347,"lon":12.8085597,"ts":"2020-05-04T12:31:03Z","tz":1,"tags":{"climbing:boulder":"yes","climbing:rock":"granite","climbing:routes":"4","indoor":"no","name":"S.1","natural":"stone","outdoor":"no","sport":"climbing","website":"http://www.erzbloc.de/index.php?title=Turnvater_Jahn#Sportfrei"}},"9296413037":{"lat":50.9509468,"lon":12.7669246,"ts":"2024-03-23T08:26:36Z","tz":1,"tags":{"name":"Gelobte Wand","natural":"peak","sport":"climbing"}},"12698273063":{"lat":50.9404763,"lon":12.753592,"ts":"2025-03-25T09:42:46Z","tz":1,"tags":{"climbing":"route","name":"Alpines Gelände","sport":"climbing"}},"12698273064":{"lat":50.940483,"lon":12.7536157,"ts":"2025-03-25T09:42:46Z","tz":1,"tags":{"climbing":"route","name":"Neuer Weg","sport":"climbing"}},"12698273065":{"lat":50.9404809,"lon":12.7536443,"ts":"2025-03-25T09:42:46Z","tz":1,"tags":{"climbing":"route","name":"Blaumacher","sport":"climbing"}},"12698273066":{"lat":50.9404737,"lon":12.753677,"ts":"2025-03-25T09:42:46Z","tz":1,"tags":{"climbing":"route","name":"Plattenwand","sport":"climbing"}},"12698273067":{"lat":50.9403193,"lon":12.7538477,"ts":"2025-03-25T09:42:46Z","tz":1,"tags":{"climbing":"route","sport":"climbing"}},"12698273068":{"lat":50.9403126,"lon":12.7539106,"ts":"2025-03-25T09:42:46Z","tz":1,"tags":{"climbing":"route","sport":"climbing"}},"12698273069":{"lat":50.9403224,"lon":12.7539662,"ts":"2025-03-25T09:42:46Z","tz":1,"tags":{"climbing":"route","sport":"climbing"}}}