{"9942659":{"lat":50.4014076,"lon":12.7489243,"ts":"2020-09-11T22:41:11Z","tz":1,"tags":{"climbing":"crag","climbing:grade:uiaa:max":"VII","climbing:grade:uiaa:min":"II","climbing:rock":"phyllite","name":"Křemenáč","natural":"rock","sport":"climbing","website":"https://www.horosvaz.cz/skaly-skala-7312/"}},"9942660":{"lat":50.4020805,"lon":12.7491784,"ts":"2020-09-11T22:41:11Z","tz":1,"tags":{"climbing":"crag","climbing:grade:uiaa:max":"V","climbing:grade:uiaa:min":"II","climbing:rock":"phyllite","name":"Ztracená varta","natural":"rock","sport":"climbing","website":"https://www.horosvaz.cz/skaly-skala-7320/"}},"9942661":{"lat":50.4018779,"lon":12.7498566,"ts":"2019-08-19T23:31:54Z","tz":1,"tags":{"climbing":"crag","climbing:rock":"phyllite","name":"Okno","natural":"rock","sport":"climbing"}},"9942662":{"lat":50.4013595,"lon":12.7497149,"ts":"2020-09-11T22:41:11Z","tz":1,"tags":{"climbing":"crag","climbing:grade:uiaa:max":"VII","climbing:grade:uiaa:min":"I","climbing:rock":"phyllite","name":"Strašidlo","natural":"rock","sport":"climbing","website":"https://www.horosvaz.cz/skaly-skala-7313/"}},"9942663":{"lat":50.40115,"lon":12.7501563,"ts":"2020-09-11T22:41:11Z","tz":1,"tags":{"climbing":"crag","climbing:grade:uiaa:max":"VI","climbing:grade:uiaa:min":"II","climbing:rock":"phyllite","name":"Sluneční","natural":"rock","sport":"climbing","website":"https://www.horosvaz.cz/skaly-skala-7314/"}},"9942664":{"lat":50.4010424,"lon":12.7506476,"ts":"2020-09-11T22:41:11Z","tz":1,"tags":{"climbing":"crag","climbing:grade:uiaa:max":"IV","climbing:grade:uiaa:min":"II","climbing:rock":"phyllite","name":"Borůvčí","natural":"rock","sport":"climbing","website":"https://www.horosvaz.cz/skaly-skala-7315/"}},"9942665":{"lat":50.4012283,"lon":12.7516579,"ts":"2020-09-11T22:41:11Z","tz":1,"tags":{"climbing":"crag","climbing:grade:uiaa:max":"V","climbing:grade:uiaa:min":"II","climbing:rock":"phyllite","name":"Polední","natural":"rock","sport":"climbing","website":"https://www.horosvaz.cz/skaly-skala-7316/"}},"9942666":{"lat":50.4014924,"lon":12.751501,"ts":"2020-09-11T22:41:11Z","tz":1,"tags":{"climbing":"crag","climbing:grade:uiaa:max":"IV","climbing:grade:uiaa:min":"II","climbing:rock":"phyllite","name":"Východní","natural":"rock","sport":"climbing","website":"https://www.horosvaz.cz/skaly-skala-7317/"}},"9942667":{"lat":50.4020591,"lon":12.7524351,"ts":"2020-09-11T22:41:11Z","tz":1,"tags":{"climbing":"crag","climbing:grade:uiaa:max":"VI","climbing:grade:uiaa:min":"I","climbing:rock":"phyllite","name":"Ohnisková","natural":"rock","sport":"climbing","website":"https://www.horosvaz.cz/skaly-skala-7318/"}},"9942668":{"lat":50.4019909,"lon":12.7528345,"ts":"2020-09-11T22:41:11Z","tz":1,"tags":{"climbing":"crag","climbing:grade:uiaa:max":"VI","climbing:grade:uiaa:min":"II","climbing:rock":"phyllite","name":"Blatenské dvojvěží","natural":"rock","sport":"climbing","website":"https://www.horosvaz.cz/skaly-skala-7319/"}},"10583152":{"lat":50.3592998,"lon":12.7178438,"ts":"2022-10-18T19:26:33Z","tz":1,"tags":{"climbing":"route","name":"Via Ferrata Nove Hamry","route":"via_ferrata","type":"route","via_ferrata_scale":"4"}},"17602691":{"lat":50.3916206,"lon":12.9437041,"ts":"2024-05-16T20:27:05Z","tz":1,"tags":{"climbing":"crag","name":"Gorila","site":"climbing","sport":"climbing","type":"site","website":"https://www.horosvaz.cz/skaly-skala-12371/"}},"17645055":{"lat":50.3223546,"lon":12.754319,"ts":"2024-05-28T06:01:04Z","tz":1,"tags":{"climbing":"crag","name":"Nejdecká jehla","site":"climbing","sport":"climbing","type":"site","website":"https://www.horosvaz.cz/skaly-skala-12021/"}},"17645129":{"lat":50.3219278,"lon":12.7545128,"ts":"2024-05-28T06:01:54Z","tz":1,"tags":{"climbing":"crag","name":"Údolní část východního hřebene","site":"climbing","sport":"climbing","type":"site","website":"https://www.horosvaz.cz/skaly-skala-12390/"}},"72878690":{"lat":50.4717656,"lon":12.7209311,"ts":"2020-01-11T19:43:31Z","tz":1,"tags":{"name":"Nonnenfelsen","natural":"cliff","source":"local_knowledge","sport":"climbing","wikipedia":"de:Nonnenfelsen (Erlabrunn)"}},"242528442":{"lat":50.4321536,"lon":12.7328949,"ts":"2024-06-12T20:13:09Z","tz":1,"tags":{"addr:city":"Johanngeorgenstadt","addr:housenumber":"16","addr:postcode":"08349","addr:street":"Pachthausstraße","building":"yes","climbing:boulder":"yes","leisure":"sports_centre","name":"Kraftwerk Erz Block","sport":"climbing","website":"https://www.kraftwerkerzblock.de"}},"464532322":{"lat":50.451939,"lon":12.6965402,"ts":"2021-06-18T15:51:23Z","tz":1,"tags":{"climbing:bolted":"yes","climbing:rock":"granite","climbing:sport":"yes","climbing:summit_log":"yes","climbing:trad":"yes","name":"Teufelssteinmassiv","natural":"cliff","sport":"climbing"}},"503427807":{"lat":50.4569356,"lon":12.7371004,"ts":"2017-06-26T19:06:09Z","tz":1,"tags":{"landuse":"recreation_ground","name":"Baumkletterpark","sport":"climbing"}},"762525128":{"lat":50.4710592,"lon":12.7214708,"ts":"2020-01-11T19:43:31Z","tz":1,"tags":{"name":"Nonnenfelsen","natural":"cliff","source":"local_knowledge","sport":"climbing","wikipedia":"de:Nonnenfelsen (Erlabrunn)"}},"1258734365":{"lat":50.451912,"lon":12.6962219,"ts":"2020-07-25T12:22:25Z","tz":1,"tags":{"alt_name":"Teufelssteine","climbing:abseil_point":"1","climbing:rock":"granite","climbing:sport":"yes","climbing:summit_log":"yes","climbing:trad":"yes","name":"Teufelsstein","natural":"peak","sport":"climbing","wikidata":"Q31517542"}},"7956013439":{"lat":50.4973953,"lon":12.7784892,"ts":"2020-09-29T18:55:18Z","tz":1,"tags":{"name":"Magnetenwand","sport":"climbing"}},"8040801112":{"lat":50.4718943,"lon":12.7202628,"ts":"2023-02-27T23:21:54Z","tz":1,"tags":{"climbing":"route_bottom","fee":"no","leisure":"sports_centre","name":"Walter Keiderling Klettersteig","rungs":"yes","sac_scale":"alpine_hiking","sport":"climbing"}},"9969792460":{"lat":50.3498662,"lon":12.8954919,"ts":"2022-08-22T11:55:24Z","tz":1,"tags":{"name":"Nevěstino lože","natural":"rock","sport":"climbing"}},"9969792461":{"lat":50.350199,"lon":12.8920182,"ts":"2022-08-22T11:55:24Z","tz":1,"tags":{"name":"Ztracenka","natural":"rock","sport":"climbing"}},"11910706812":{"lat":50.3915873,"lon":12.9437762,"ts":"2024-05-16T20:27:05Z","tz":1,"tags":{"climbing":"route_bottom","climbing:grade:uiaa":"3","name":"Bez dokončení","sport":"climbing","website":"https://www.horosvaz.cz/skaly-cesta-62395/"}},"11910706813":{"lat":50.3915947,"lon":12.9437601,"ts":"2024-05-16T20:27:05Z","tz":1,"tags":{"climbing":"route_bottom","climbing:grade:uiaa":"4","name":"Náhorní cesta","sport":"climbing","website":"https://www.horosvaz.cz/skaly-cesta-62396/"}},"11910706814":{"lat":50.3916021,"lon":12.9437441,"ts":"2024-05-16T20:27:05Z","tz":1,"tags":{"climbing":"route_bottom","climbing:grade:uiaa":"4","name":"Krátký boulder","sport":"climbing","website":"https://www.horosvaz.cz/skaly-cesta-62397/"}},"11910706815":{"lat":50.3916095,"lon":12.9437281,"ts":"2024-05-16T20:27:05Z","tz":1,"tags":{"climbing":"route_bottom","climbing:grade:uiaa":"4+","name":"Hrana předskalí","sport":"climbing","website":"https://www.horosvaz.cz/skaly-cesta-62398/"}},"11910706816":{"lat":50.3916169,"lon":12.9437121,"ts":"2024-05-16T20:27:05Z","tz":1,"tags":{"climbing":"route_bottom","climbing:grade:uiaa":"4","name":"Cesta zapadajícího slunce","sport":"climbing","website":"https://www.horosvaz.cz/skaly-cesta-62399/"}},"11910706817":{"lat":50.3916243,"lon":12.943696,"ts":"2024-05-16T20:27:05Z","tz":1,"tags":{"climbing":"route_bottom","climbing:grade:uiaa":"5+","name":"Ostrovský komín","sport":"climbing","website":"https://www.horosvaz.cz/skaly-cesta-62400/"}},"11910706818":{"lat":50.3916317,"lon":12.94368,"ts":"2024-05-16T20:27:05Z","tz":1,"tags":{"climbing":"route_bottom","climbing:grade:uiaa":"4+","name":"Údolní","sport":"climbing","website":"https://www.horosvaz.cz/skaly-cesta-62401/"}},"11910706819":{"lat":50.3916391,"lon":12.943664,"ts":"2024-05-16T20:27:05Z","tz":1,"tags":{"climbing":"route_bottom","climbing:grade:uiaa":"5-","name":"Narozeninová","sport":"climbing","website":"https://www.horosvaz.cz/skaly-cesta-62402/"}},"11910706820":{"lat":50.3916465,"lon":12.9436479,"ts":"2024-05-16T20:27:05Z","tz":1,"tags":{"climbing":"route_bottom","climbing:grade:uiaa":"5+","name":"SV stěnka","sport":"climbing","website":"https://www.horosvaz.cz/skaly-cesta-62403/"}},"11910706821":{"lat":50.3916539,"lon":12.9436319,"ts":"2024-05-16T20:27:05Z","tz":1,"tags":{"climbing":"route_bottom","climbing:grade:uiaa":"2","name":"Stará cesta","sport":"climbing","website":"https://www.horosvaz.cz/skaly-cesta-62404/"}},"11938899209":{"lat":50.3219026,"lon":12.754537,"ts":"2024-05-28T06:01:54Z","tz":1,"tags":{"climbing":"route_bottom","climbing:grade:uiaa":"4+","name":"Omédská","sport":"climbing","website":"https://www.horosvaz.cz/skaly-cesta-62443/"}},"11938899210":{"lat":50.3219127,"lon":12.7545273,"ts":"2024-05-28T06:01:54Z","tz":1,"tags":{"climbing":"route_bottom","climbing:grade:uiaa":"4+","name":"Uvítací","sport":"climbing","website":"https://www.horosvaz.cz/skaly-cesta-62444/"}},"11938899211":{"lat":50.3219227,"lon":12.7545177,"ts":"2024-05-28T06:01:54Z","tz":1,"tags":{"climbing":"route_bottom","climbing:grade:uiaa":"3+","name":"Cesta padlých stromů","sport":"climbing","website":"https://www.horosvaz.cz/skaly-cesta-62445/"}},"11938899212":{"lat":50.3219328,"lon":12.754508,"ts":"2024-05-28T06:01:54Z","tz":1,"tags":{"climbing":"route_bottom","climbing:grade:uiaa":"4+","name":"Letošův boulder","sport":"climbing","website":"https://www.horosvaz.cz/skaly-cesta-62446/"}},"11938899213":{"lat":50.3219429,"lon":12.7544983,"ts":"2024-05-28T06:01:54Z","tz":1,"tags":{"climbing":"route_bottom","climbing:grade:uiaa":"6+","name":"Kominická spára","sport":"climbing","website":"https://www.horosvaz.cz/skaly-cesta-62447/"}},"11938899214":{"lat":50.3219529,"lon":12.7544886,"ts":"2024-05-28T06:01:54Z","tz":1,"tags":{"climbing":"route_bottom","climbing:grade:uiaa":"3+","name":"Ludvíkova spára","sport":"climbing","website":"https://www.horosvaz.cz/skaly-cesta-62448/"}},"11938904845":{"lat":50.3223311,"lon":12.7543386,"ts":"2024-05-28T06:01:04Z","tz":1,"tags":{"climbing":"route_bottom","climbing:grade:uiaa":"6","name":"Snědá píseň","sport":"climbing","website":"https://www.horosvaz.cz/skaly-cesta-103799/"}},"11938904846":{"lat":50.3223429,"lon":12.7543289,"ts":"2024-05-28T06:01:04Z","tz":1,"tags":{"climbing":"route_bottom","climbing:grade:uiaa":"6","name":"Bez bab","sport":"climbing","website":"https://www.horosvaz.cz/skaly-cesta-62315/"}},"11938904847":{"lat":50.3223546,"lon":12.7543191,"ts":"2024-05-28T06:01:04Z","tz":1,"tags":{"climbing":"route_bottom","climbing:grade:uiaa":"4+","name":"Varianta Levé náhorní cesty","sport":"climbing","website":"https://www.horosvaz.cz/skaly-cesta-62314/"}},"11938904848":{"lat":50.3223663,"lon":12.7543093,"ts":"2024-05-28T06:01:04Z","tz":1,"tags":{"climbing":"route_bottom","climbing:grade:uiaa":"4","name":"Levá náhorní cesta","sport":"climbing","website":"https://www.horosvaz.cz/skaly-cesta-62316/"}},"11938904849":{"lat":50.3223781,"lon":12.7542995,"ts":"2024-05-28T06:01:04Z","tz":1,"tags":{"climbing":"route_bottom","climbing:grade:uiaa":"2","name":"Sestupovka","sport":"climbing","website":"https://www.horosvaz.cz/skaly-cesta-62317/"}}}