{"17696060":{"location":[49.833391,11.2183103],"ts":"2025-01-19T20:40:07Z","tz":1,"tags":{"climbing":"area","name":"Frankenjura","site":"climbing","sport":"climbing","type":"site","wikimedia_commons":"Category:Frankenjura"}},"34336210":{"location":[49.8092153,11.2328713],"ts":"2022-09-26T06:37:26Z","tz":1,"tags":{"climbing":"crag","name":"Ruine Neideck","natural":"cliff","sport":"climbing"}},"38488706":{"location":[49.7477881,11.2459081],"ts":"2019-06-27T21:04:27Z","tz":1,"tags":{"alt_name":"Rötelfels","climbing":"crag","climbing:rock":"limestone","name":"Röthelfels","natural":"cliff","note":"575m","sport":"climbing","wikipedia":"de:Röthelfels"}},"59714392":{"location":[49.6909438,11.2483613],"ts":"2024-12-23T13:51:31Z","tz":1,"tags":{"climbing":"crag","name":"Thuisbrunner Felsen","natural":"peak","sport":"climbing"}},"177404357":{"location":[49.7139628,11.1565056],"ts":"2019-11-28T13:05:42Z","tz":1,"tags":{"climbing:multipitch":"no","climbing:rock":"limestone","climbing:sport":"yes","name":"Rodenstein","natural":"cliff","sport":"climbing"}},"185334228":{"location":[49.8144448,11.2348337],"ts":"2023-07-04T14:47:02Z","tz":1,"tags":{"access:conditional":"no @ (Feb 1 - Jul 15)","climbing:sport":"yes","description":"Kletterverbot per Verordnung vom 1.2.-15.7.","name":"Matterhornwand","natural":"cliff","sport":"climbing"}},"185334230":{"location":[49.814456,11.2358983],"ts":"2022-10-02T06:25:33Z","tz":1,"tags":{"access:conditional":"no @ (Feb 1 - Jul 15)","climbing:sport":"yes","description":"Kletterverbot per Verordnung von 1.2.-15.7.","name":"Freundschaftsturm","natural":"cliff","sport":"climbing"}},"220318395":{"location":[49.8151812,11.2165153],"ts":"2022-09-25T18:26:02Z","tz":1,"tags":{"climbing":"crag","name":"Schauertaler Ostwand","natural":"cliff","sport":"climbing"}},"220318396":{"location":[49.8124209,11.2201896],"ts":"2023-07-04T14:47:02Z","tz":1,"tags":{"name":"Streitberger Schild","natural":"cliff","sport":"climbing"}},"353241483":{"location":[49.7236913,11.2240082],"ts":"2015-06-12T20:13:26Z","tz":1,"tags":{"name":"Hutzelturm","natural":"bare_rock","sport":"climbing"}},"502856632":{"location":[49.7547296,11.2330427],"ts":"2017-06-23T10:35:48Z","tz":1,"tags":{"height":"25 m","name":"Urspringer Wand (Sperberfels)","natural":"cliff","sport":"climbing"}},"586015690":{"location":[49.7871666,11.2236862],"ts":"2021-08-09T06:55:13Z","tz":1,"tags":{"climbing":"crag","name":"Birkenreuther Wand","natural":"cliff","sport":"climbing"}},"640953979":{"location":[49.8155912,11.2174607],"ts":"2025-01-21T12:17:54Z","tz":1,"tags":{"name":"Schauertaler Westwand","natural":"cliff","sport":"climbing"}},"691600655":{"location":[49.6339589,11.2298998],"ts":"2023-01-29T15:49:06Z","tz":1,"tags":{"image":"https://commons.wikimedia.org/wiki/File:Igensdorf-Teufelstisch.jpg","name":"Teufelstisch","natural":"cliff","protect_class":"7","protection_title":"Naturdenkmal","ref":"122","ref:DE-BY":"ND-04516","short_protection_title":"ND","sport":"climbing","tourism":"attraction","wikidata":"Q2407270","wikimedia_commons":"Category:Teufelstisch (Igensdorf)","wikipedia":"de:Teufelstisch (Igensdorf)"}},"802300439":{"location":[49.7540504,11.1079399],"ts":"2023-01-25T08:12:17Z","tz":1,"tags":{"climbing":"no","natural":"cliff","note":"Laut Verordnung von 1976 Nr. 056.","official_name":"Dolomitfelsen","protect_class":"7","protection_title":"Naturdenkmal","ref:DE-BY":"ND-04473","short_protection_title":"ND"}},"946030057":{"location":[49.6305029,11.0113164],"ts":"2024-02-02T18:58:28Z","tz":1,"tags":{"addr:city":"Bubenreuth","addr:housenumber":"1","addr:postcode":"91088","addr:street":"Kurt-Albert-Straße","building":"yes","building:colour":"#9f895b","building:levels":"4","building:material":"wood","climbing:boulder":"yes","climbing:toprope":"no","contact:website":"https://blockhelden.de/boulderhalle-erlangen/","fee":"yes","leisure":"sports_centre","name":"BLOCKHELDEN Boulderhalle Frankenjura","opening_hours":"Mo-Su 09:00-23:00","roof:colour":"#fefefe","roof:shape":"flat","sport":"climbing","wheelchair":"limited","wikidata":"Q112062547"}},"956366792":{"location":[49.8141716,11.2270645],"ts":"2021-06-20T17:56:00Z","tz":1,"tags":{"climbing:length":"15","climbing:orientation":"S","climbing:quality":"solid","climbing:rock":"limestone","climbing:routes":"10","climbing:sport":"yes","name":"Brocksfels","natural":"cliff","sport":"climbing"}},"956366793":{"location":[49.8149805,11.2264616],"ts":"2023-07-04T14:47:02Z","tz":1,"tags":{"climbing:length":"20","climbing:orientation":"S","climbing:routes":"17","climbing:sport":"yes","name":"Glatte Wand","natural":"cliff","sport":"climbing"}},"989131594":{"location":[49.6162324,11.0672634],"ts":"2020-11-18T11:51:41Z","tz":1,"tags":{"height":"5","material":"sandstone","number_of_routes":"1","sport":"climbing","surface":"dirt","type":"single rock"}},"1051756220":{"location":[49.7772497,11.2216411],"ts":"2022-10-08T15:20:56Z","tz":1,"tags":{"climbing":"crag","climbing:grade:uiaa:max":"8","climbing:grade:uiaa:min":"4","climbing:length:max":"20","climbing:length:min":"12","climbing:orientation":"SE","climbing:rock":"limestone","climbing:routes":"10","climbing:sport":"yes","name":"Wohlmuthshüller Wand","natural":"cliff","sport":"climbing"}},"1313293005":{"location":[49.8124155,11.2201224],"ts":"2023-07-04T14:47:02Z","tz":1,"tags":{"ele":"368","name":"Streitberger Schild","natural":"peak","sport":"climbing"}},"1313293013":{"location":[49.8133056,11.2170556],"ts":"2023-01-29T15:49:06Z","tz":1,"tags":{"ele":"384","image":"https://commons.wikimedia.org/wiki/File:Schauertaler_Turm_Streitberg.jpg","name":"Schwammkalkfelsturm Langer Stein oder Schauertaler Turm","natural":"cliff","protect_class":"7","protection_title":"Naturdenkmal","ref":"207","ref:DE-BY":"ND-04590","short_protection_title":"ND","sport":"climbing","wikimedia_commons":"Category:Schauertaler Turm (Streitberg)"}},"1353138767":{"location":[49.8161529,11.2164439],"ts":"2025-01-21T12:17:54Z","tz":1,"tags":{"natural":"cliff","sport":"climbing"}},"1959213268":{"location":[49.8144283,11.2358675],"ts":"2022-10-02T06:09:02Z","tz":1,"tags":{"access:conditional":"no @ (Feb 15 - Jul 15)","climbing":"crag","climbing:sport":"yes","description":"Kletterverbot per Verordnung vom 1.2.-15.7. Vogelschutz","name":"Freundschaftsturm","natural":"cliff","sport":"climbing"}},"1959213291":{"location":[49.8143968,11.2350291],"ts":"2023-07-04T14:47:02Z","tz":1,"tags":{"access:delivery":"no @ (Feb 1 - Jul 15)","climbing":"crag","climbing:bouldering":"yes","climbing:sport":"yes","description":"Kletterverbot per Verordnung vom 1.2.-15.7. Vogelschutz","name":"Matterhornwand","natural":"cliff","sport":"climbing"}},"4795527536":{"location":[49.8135812,11.241587],"ts":"2022-09-25T13:42:35Z","tz":1,"tags":{"climbing":"crag","climbing:sport":"yes","name":"Eichner-Gedächtnis-Wand","natural":"cliff","sport":"climbing"}},"5896914722":{"location":[49.725666,11.2228165],"ts":"2018-09-10T18:04:07Z","tz":1,"tags":{"name":"Enteignungswand","natural":"cliff","sport":"climbing"}},"6404117066":{"location":[49.6851978,11.2471996],"ts":"2023-05-14T19:34:46Z","tz":1,"tags":{"name":"Bahnhof","natural":"cliff","sport":"climbing"}},"6641785320":{"location":[49.6927566,11.2191385],"ts":"2023-01-30T16:58:28Z","tz":1,"tags":{"height":"15","name":"Haidhofer Schlossbergwand","natural":"cliff","official_name":"Schloßbergfelsen","protect_class":"7","protection_title":"Naturdenkmal","ref":"170","ref:DE-BY":"ND-04561","short_protection_title":"ND","sport":"climbing"}},"8850902196":{"location":[49.8143758,11.2304306],"ts":"2022-09-25T13:42:35Z","tz":1,"tags":{"climbing":"crag","climbing:length":"20","climbing:orientation":"S","climbing:rock":"limestone","climbing:sport":"yes","name":"Hummelstaner Block","natural":"cliff","sport":"climbing"}},"8964351572":{"location":[49.7141259,11.2489428],"ts":"2021-07-30T22:30:03Z","tz":1,"tags":{"climbing":"crag","name":"Schiffsbug","natural":"cliff","sport":"climbing"}},"8964358664":{"location":[49.7243378,11.2417485],"ts":"2021-07-30T22:23:42Z","tz":1,"tags":{"climbing":"crag","name":"Schweinthaler Wand","natural":"cliff","sport":"climbing"}},"8964358665":{"location":[49.7210089,11.245749],"ts":"2021-07-30T22:23:42Z","tz":1,"tags":{"climbing":"crag","name":"Mostvieler Talwand","natural":"cliff","sport":"climbing"}},"8964358666":{"location":[49.7200727,11.2461213],"ts":"2021-07-30T22:23:42Z","tz":1,"tags":{"climbing":"crag","name":"Erlanger Felsentor","natural":"cliff","sport":"climbing"}},"8992004460":{"location":[49.7842297,11.2192783],"ts":"2021-08-09T06:55:13Z","tz":1,"tags":{"climbing":"crag","name":"Krankenhausfels","natural":"cliff","sport":"climbing"}},"8992039127":{"location":[49.8196471,11.2364198],"ts":"2021-08-09T07:08:33Z","tz":1,"tags":{"climbing":"crag","name":"Dachsbau","natural":"cliff","sport":"climbing"}},"8992039128":{"location":[49.8183307,11.2460154],"ts":"2021-08-09T07:08:33Z","tz":1,"tags":{"climbing":"crag","name":"Schwingbogen","natural":"cliff","sport":"climbing"}},"10052917236":{"location":[49.8093486,11.2331279],"ts":"2022-09-26T06:37:26Z","tz":1,"tags":{"name":"Ruine Neideck","natural":"cliff","sport":"climbing"}},"10102823294":{"location":[49.6269587,11.0453055],"ts":"2022-10-15T09:40:58Z","tz":1,"tags":{"climbing:boulder":"yes","name":"Atzelsberger Blöcke","natural":"rock","sport":"climbing"}},"10724289593":{"location":[49.7142521,11.0940233],"ts":"2024-11-20T15:48:09Z","tz":1,"tags":{"addr:city":"Forchheim","addr:country":"DE","addr:housename":"Wiesent Center","addr:housenumber":"1","addr:postcode":"91301","addr:street":"Trettlachstraße","contact:instagram":"https://www.instagram.com/frankenjura_academy/","email":"contact@frankenjura-academy.com","leisure":"sports_centre","name":"Frankenjura Academy","operator":"KBZ Frankenjura GmbH","phone":"+49 9191 9757371","sport":"climbing","website":"https://www.frankenjura-academy.com/"}},"11005823542":{"location":[49.8374048,11.0704872],"ts":"2023-06-25T15:25:05Z","tz":1,"tags":{"climbing":"crag","name":"Frankendorfer Klettergarten - Kreuzerwand/Kalkofen","natural":"cliff","sport":"climbing"}}}