{"32492651":{"location":[49.4471129,11.0744524],"ts":"2024-12-04T15:43:21Z","tz":1,"tags":{"addr:city":"Nürnberg","addr:country":"DE","addr:housenumber":"21a","addr:postcode":"90402","addr:street":"Frauentormauer","alt_name":"IX","barrier":"city_wall","building":"yes","building:colour":"#bea78d","height":"17","leisure":"sports_centre","man_made":"tower","name":"DAV Jugendturm","old_name":"Kasemattenturm","operator":"JDAV Nürnberg","ref":"IX","roof:colour":"#715a41","roof:height":"3","roof:material":"roof_tiles","roof:shape":"hipped","source":"Yahoo","sport":"climbing","tower:type":"defensive","website":"https://www.jdav-nuernberg.de/","wheelchair":"limited","wikidata":"Q98630262"}},"34664377":{"location":[49.592624,11.0301898],"ts":"2022-01-08T14:54:29Z","tz":1,"tags":{"building:colour":"gray","building:height":"12","building:material":"mdf","height":"12","man_made":"tower","material":"sand on wood","name":"Kletterturm (DAV Erlangen)","opening_hours":"Mo-Su 07:00-23:00","operator":"DAV Erlangen","roof:colour":"gray","roof:shape":"flat","source":"http://www.alpenverein-erlangen.de/Kletterzentrum/Kletterturm.html","sport":"climbing","start_date":"2008-11-01","surface":"cobblestone","tower:construction":"freestanding","tower:type":"climbing"}},"147640243":{"location":[49.5806141,11.0193117],"ts":"2020-11-18T11:51:41Z","tz":1,"tags":{"height":"10","leisure":"pitch","name":"Kletterturm","sport":"climbing"}},"166198384":{"location":[49.6085544,11.134279],"ts":"2023-03-14T13:38:34Z","tz":1,"tags":{"addr:city":"Neunkirchen a. Brand","addr:housenumber":"36","addr:postcode":"91077","addr:street":"Gräfenberger Straße","building":"supermarket","building:levels":"1","climbing:boulder":"yes","fee":"yes","leisure":"sports_centre","name":"Boulderia","opening_hours":"Mo-Fr 9:00-22:00; PH 9:00-22:00","phone":"+4991347076212","roof:shape":"gabled","source":"Bing","sport":"climbing","website":"https://www.boulderia.de/"}},"214771131":{"location":[49.597209,10.9441228],"ts":"2020-12-17T23:50:42Z","tz":1,"tags":{"access":"yes","leisure":"pitch","lit":"no","sport":"climbing","surface":"sand"}},"242535090":{"location":[49.5926627,11.0298633],"ts":"2022-02-14T15:05:58Z","tz":1,"tags":{"building:colour":"gray","building:height":"4","building:material":"mdf","climbing":"boulder","height":"4","man_made":"tower","material":"sand on wood","name":"Boulderanlage (DAV Erlangen)","opening_hours":"Mo-Su 07:00-23:00","operator":"DAV Erlangen","roof:colour":"gray","roof:shape":"flat","source":"http://www.alpenverein-erlangen.de/Kletterzentrum/Kletterturm.html","sport":"climbing","start_date":"2013-10-01","surface":"cobblestone","tower:construction":"freestanding","tower:type":"climbing"}},"383577111":{"location":[49.5926585,11.0299581],"ts":"2020-07-03T18:05:38Z","tz":1,"tags":{"access":"private","description":"Außen-Klettergelände des DAV Erlangen mit Kletterturm und Boulderbereich","leisure":"pitch","sport":"climbing","surface":"grass"}},"537791545":{"location":[49.4739683,10.9145659],"ts":"2017-02-01T22:55:27Z","tz":1,"tags":{"name":"Boulderfelsen","sport":"climbing"}},"1111495678":{"location":[49.5830311,10.9141226],"ts":"2022-11-08T10:55:27Z","tz":1,"tags":{"access":"private","building:colour":"gray","man_made":"tower","operator":"Adidas","roof:colour":"gray","roof:shape":"flat","sport":"climbing","tower:construction":"freestanding","tower:type":"climbing"}},"1111495679":{"location":[49.5831088,10.9137348],"ts":"2022-11-08T10:55:27Z","tz":1,"tags":{"access":"private","building:colour":"gray","man_made":"tower","operator":"Adidas","roof:colour":"gray","roof:shape":"flat","sport":"climbing","tower:construction":"freestanding","tower:type":"climbing"}},"1215867914":{"location":[49.4797711,11.1224848],"ts":"2024-09-23T07:16:43Z","tz":1,"tags":{"access":"customers","addr:city":"Nürnberg","addr:country":"DE","addr:housenumber":"9","addr:postcode":"90411","addr:street":"Gebertstraße","climbing:boulder":"yes","email":"servus@cafekraft.de","fee":"yes","leisure":"sports_centre","name":"Café Kraft","opening_hours":"Mo-Fr 11:00-23:00; Tu,Th,Sa,Su 09:00-23:00","phone":"+49 911 50736120","source":"http://cafekraft.de/nuernberg","sport":"climbing","toilets:wheelchair":"no","website":"https://www.cafekraft.de/","wheelchair":"yes"}},"1246153412":{"location":[49.431584,11.0591933],"ts":"2024-09-30T16:34:42Z","tz":1,"tags":{"access":"yes","addr:city":"Nürnberg","addr:country":"DE","addr:housenumber":"21a","addr:postcode":"90441","addr:street":"Industriestraße","building":"sports_hall","climbing:boulder":"limited","climbing:sport":"yes","email":"info@bambule-kletterhalle.de","fee":"yes","leisure":"sports_centre","name":"Bambule Kletterhalle","opening_hours":"Mo-Fr 10:00-23:00, Sa-Su 09:00-22:00","phone":"+49 911 94009809","sport":"climbing","website":"https://www.bambule-kletterhalle.de"}},"1530295421":{"location":[49.4596241,11.0352878],"ts":"2023-03-18T12:30:54Z","tz":1,"tags":{"addr:city":"Nürnberg","addr:country":"DE","addr:housenumber":"212","addr:postcode":"90429","addr:street":"Fürther Straße","leisure":"sports_centre","name":"Climbing Factory","opening_hours":"Mo-Fr 10:00-22:30; Sa,Su,PH 09:00-21:30","operator":"Kletterschule Frankenjura","sport":"climbing","website":"https://climbing-factory.de"}},"1602104556":{"location":[49.5928261,11.0306744],"ts":"2022-01-17T08:15:22Z","tz":1,"tags":{"addr:city":"Erlangen","addr:housenumber":"5","addr:postcode":"91052","addr:street":"Helene-Richter-Straße","fee":"yes","indoor":"yes","leisure":"sports_centre","name":"Hanne-Jung-Kletterhalle","opening_hours":"PH,Mo-Su 07:00-23:00","operator":"DAV Sektion Erlangen","source":"https://www.alpenverein.de/DAV-Services/Kletterhallen-Suche/Detail/Erlangen/DAV-Kletterzentrum-Erlangen-Hanne-Jung-Kletterhalle/232353","sport":"climbing"}},"2331053313":{"location":[49.4344151,11.0972883],"ts":"2023-12-08T19:30:28Z","tz":1,"tags":{"addr:city":"Nürnberg","addr:country":"DE","addr:housenumber":"185","addr:postcode":"90461","addr:street":"Allersberger Straße","charge":"14 EUR","check_date":"2023-12-08","climbing:boulder":"yes","email":"info@boulderhalle-e4.de","fee":"yes","leisure":"sports_centre","name":"Boulderhalle E4","opening_hours":"Mo-Th 09:00-23:00; Fr-Su 08:00-23:00","phone":"+49 911 49042202","sport":"climbing","website":"https://www.boulderhalle-e4.de/"}},"5342606011":{"location":[49.5743875,10.9971883],"ts":"2023-02-01T18:29:13Z","tz":1,"tags":{"addr:city":"Erlangen","addr:housenumber":"45","addr:postcode":"91058","addr:street":"Bierlachweg","climbing:boulder":"yes","climbing:toprope":"no","contact:facebook":"https://www.facebook.com/dersteinbockerlangen/","contact:instagram":"https://instagram.com/dersteinbockerlangen","contact:website":"https://www.dersteinbock-erlangen.de","fee":"yes","leisure":"sports_centre","name":"Der Steinbock Erlangen","opening_hours":"Mo-Fr 09:00-23:00; Sa-Su: 09:00-22:00","sport":"climbing"}},"9396859544":{"location":[49.4510292,11.0287018],"ts":"2024-09-28T14:52:13Z","tz":1,"tags":{"addr:city":"Nürnberg","addr:country":"DE","addr:housenumber":"54","addr:postcode":"90431","addr:street":"Leyher Straße","climbing:boulder":"yes","contact:facebook":"https://www.facebook.com/dersteinbocknuernberg/","contact:instagram":"https://www.instagram.com/dersteinbocknuernberg/","contact:website":"https://www.dersteinbock-nuernberg.de/","leisure":"sports_centre","name":"Der Steinbock Nürnberg","opening_hours":"Mo-Fr 10:00-23:00, Sa-Su 09:00-22:00","sport":"climbing"}},"9396883198":{"location":[49.4427777,10.9596556],"ts":"2024-02-06T09:39:28Z","tz":1,"tags":{"addr:city":"Zirndorf","addr:housenumber":"9","addr:postcode":"90513","addr:street":"Steinweg","climbing:boulder":"yes","contact:facebook":"https://www.facebook.com/dersteinbockzirndorf","contact:instagram":"http://instagram.com/dersteinbockzirndorf","contact:website":"http://www.boulderhalle-steinbock.de","indoor":"yes","leisure":"sports_centre","name":"Der Steinbock Zirndorf","opening_hours":"Mo-Fr 10:00-23:00; Sa-Su 10:00-23:00","outdoor":"yes","phone":"+49 (0) 911 47891211","sport":"climbing","wheelchair":"no"}},"9424634217":{"location":[49.5839825,11.0224934],"ts":"2023-11-04T04:40:37Z","tz":1,"tags":{"access":"customers","addr:city":"Erlangen","addr:housenumber":"116","addr:postcode":"91052","addr:street":"Hartmannstraße","climbing:length":"18","climbing:speed":"yes","climbing:sport":"yes","climbing:toprope":"yes","climbing:traditional":"no","email":"vereinszentrum@alpenverein-erlangen.de","leisure":"sports_centre","name":"DAV Kletter- und Vereinszentrum / Sparkassen Bergwelt","opening_hours":"Mo 12:00-23:00; Tu-Fr 09:00-23:00; Sa-Su 09:00-21:00","phone":"+49 9131 93830950","sport":"climbing","survey:date":"2022-01-17","website":"https://kletter-und-vereinszentrum.de/"}}}