{"70534218":{"location":[48.3404317,10.9108055],"ts":"2024-04-18T08:12:52Z","tz":1,"tags":{"addr:city":"Augsburg","addr:country":"DE","addr:housenumber":"15b","addr:postcode":"86161","addr:street":"Ilsungstraße","building":"yes","contact:phone":"+49 821-999581-0","contact:website":"https://www.dav-kletterzentrum-augsburg.de","fee":"yes","leisure":"sports_centre","name":"DAV Kletterzentrum Augsburg","opening_hours":"Mo, Th-Fr 09:00-23:00; Tu 07:00-23:00; We 15:00-23:00; Sa-Su 09:00-22:00","operator":"Deutscher Alpenverein, Sektion Augsburg (DAV)","sport":"climbing","wheelchair":"no"}},"95352225":{"location":[48.2584858,10.9702077],"ts":"2023-07-10T14:44:34Z","tz":1,"tags":{"addr:city":"Mering","addr:housenumber":"60","addr:postcode":"86415","addr:street":"Hermann-Löns-Straße","building":"yes","club":"sport","description":"Hier ist das Vereinsheim und Kletterwand des DAV Sektion Mering. Die Geschaeftsstelle ist in der Muenchnerstraße 20 86815 Mering","name":"Vereinsheim DAV Sektion Mering","operator":"Deutscher Alpenverein Sektion Mering","sport":"climbing","website":"https://www.alpenverein-mering.de/"}},"98436121":{"location":[48.4485076,11.1339054],"ts":"2023-11-10T15:55:25Z","tz":1,"tags":{"addr:city":"Aichach","addr:country":"DE","addr:housenumber":"79","addr:postcode":"86551","addr:street":"Münchener Straße","building":"yes","leisure":"sports_centre","name":"DAV Sektion Aichach","sport":"climbing","website":"https://dav-aichach.de/"}},"101197833":{"location":[48.3614177,10.9447713],"ts":"2011-03-13T07:08:34Z","tz":1,"tags":{"leisure":"pitch","sport":"climbing"}},"921087667":{"location":[48.319506,10.9076152],"ts":"2022-02-15T18:30:43Z","tz":1,"tags":{"access":"yes","leisure":"pitch","lit":"no","sport":"climbing","surface":"sand"}},"1150668402":{"location":[48.2583564,10.9701777],"ts":"2023-07-10T14:44:34Z","tz":1,"tags":{"leisure":"sports_centre","opening_hours":"Tu-Su 09:00-21:00","operator":"Deutscher Alpenverein Sektion Mering","outdoor":"yes","sport":"climbing","website":"https://alpenverein-mering.de/Klettern-und-Bouldern/"}}}