{"289142384":{"lat":46.6887067,"lon":11.0733896,"ts":"2018-07-10T18:19:09Z","tz":1,"tags":{"climbing:length":"20","climbing:sport":"yes","leisure":"sports_centre","name":"Klettergarten Burgstallknott - Parete d'arrampicata Burgstallknott","name:de":"Klettergarten Burgstallknott","name:it":"Parete d'arrampicata Burgstallknott","opening_hours":"Apr-Nov","source:date":"2018-04-20","sport":"climbing","start_date":"1982","url":"https://www.merano-suedtirol.it/de/partschins/betrieb/klettergarten-burgstallknott-2444/"}},"585726016":{"lat":46.68495,"lon":11.0494934,"ts":"2020-09-11T22:41:11Z","tz":1,"tags":{"climbing:grade:uiaa:max":"9","climbing:grade:uiaa:min":"2","climbing:length:max":"30","leisure":"sports_centre","name":"Panorama Klettergarten \"Huafwond\"","opening_hours":"Apr-Nov open","sport":"climbing","website":"https://www.merano-suedtirol.it/de/partschins/betrieb/panorama-klettergarten-huafwond-2630/"}},"857786355":{"lat":46.5810436,"lon":11.1600418,"ts":"2023-09-24T16:00:00Z","tz":1,"tags":{"climbing:bolted":"2","climbing:length":"15","climbing:orientation":"W","climbing:quality":"solid","climbing:rock":"porphyry","climbing:sport":"yes","name":"St. Hippolyt","natural":"cliff","sport":"climbing"}},"3581358193":{"lat":46.6495639,"lon":10.9770105,"ts":"2022-12-03T14:00:17Z","tz":1,"tags":{"name":"Klettergarten Juval - Arrampicata Juval","name:de":"Klettergarten Juval","name:it":"Arrampicata Juval","natural":"rock","source":"https://www.openstreetmap.org/note/369441","sport":"climbing"}},"4194106959":{"lat":46.6501775,"lon":10.9808756,"ts":"2019-01-01T09:38:15Z","tz":1,"tags":{"climbing:bolted":"yes","climbing:orientation":"south","climbing:sport":"15","climbing:toprope":"yes","leisure":"sports_centre","name":"Klettergarten Wallburg - Arrampicata Wallburg","name:de":"Klettergarten Wallburg","name:it":"Arrampicata Wallburg","sport":"climbing"}},"4899803954":{"lat":46.6528035,"lon":10.9871323,"ts":"2017-06-06T14:36:37Z","tz":1,"tags":{"climbing":"yes","description":"https://www.vertical-life.info/de/crags/84","name":"Wintertraum","natural":"rock","source":"https://www.vertical-life.info/de/crags/84","sport":"climbing"}},"6386760674":{"lat":46.6604545,"lon":11.1552815,"ts":"2019-04-05T21:13:11Z","tz":1,"tags":{"addr:city":"Meran - Merano","addr:housenumber":"74","addr:postcode":"39012","addr:street":"Gampenstra√üe - Via delle Palade","email":"rockarena@kletterhalle.it","leisure":"sports_centre","name":"Rockarena","phone":"+39 0473 234619","ref:vatin":"IT02885770210","sport":"climbing","website":"https://www.rockarena.it"}},"7717744440":{"lat":46.5724474,"lon":11.1811026,"ts":"2020-07-15T20:14:04Z","tz":1,"tags":{"addr:city":"Lana","leisure":"sports_centre","name":"Palestra di roccia Tisner Auen Klettergarten","name:de":"Klettergarten Tisner Auen","name:it":"Palestra di roccia Tisner Auen","sport":"climbing"}}}