{"320172421":{"location":[43.9219509,11.087011],"ts":"2022-05-27T19:15:49Z","tz":1,"tags":{"landuse":"quarry","leisure":"sports_centre","name":"Cava della Strega","sport":"climbing"}},"2293057910":{"location":[43.9240506,11.0940055],"ts":"2023-10-30T14:54:21Z","tz":1,"tags":{"leisure":"sports_centre","name":"Falesia di Figline","sport":"climbing","website":"https://www.caiprato.it/archivi-doc/relazioni-vie/falesie-di-arrampicata/falesia-di-figline/"}},"8050288628":{"location":[43.9265748,11.1194743],"ts":"2020-10-27T11:51:34Z","tz":1,"tags":{"leisure":"sports_centre","name":"Parete \"Malaparte\"","source":"caiprato.it","sport":"climbing"}},"8388528731":{"location":[43.960877,11.0812144],"ts":"2024-02-18T17:06:52Z","tz":1,"tags":{"leisure":"sports_centre","name":"Falesia di Masso ai corvi","outdoor":"yes","source":"https://www.caiprato.it/falesia-di-massacorbi/","sport":"climbing"}},"8423324372":{"location":[43.8950671,11.1031975],"ts":"2025-05-26T08:59:35Z","tz":1,"tags":{"addr:city":"Prato","addr:housenumber":"14","addr:postcode":"59100","addr:street":"Via del Bisenzio a San Martino","facebook":"https://www.facebook.com/crazycenterprato/","fee":"yes","indoor":"yes","leisure":"sports_centre","name":"Crazy Center","payment:cash":"yes","payment:credit_cards":"yes","phone":"+39 328 6089543","sport":"climbing","website":"https://www.crazycenter.it/","wheelchair":"no"}}}