{"1334957452":{"location":[10.8058579,106.7179642],"ts":"2024-11-18T04:15:08Z","tz":7,"tags":{"addr:city":"Ho Chi Minh City","addr:district":"Bình Thạnh","addr:housenumber":"168/42a","addr:postcode":"700000","addr:province":"Thành phố Hồ Chí Minh","addr:street":"Nguyễn Gia Trí (D2)","addr:subdistrict":"Phường 25","building":"yes","fee":"yes","leisure":"sports_centre","name":"Skywalk Climbing","opening_hours":"Mo-Su 09:00-22:00","operator":"Skywalk Climbing","sport":"climbing","website":"https://skywalkvn.com"}},"12061625090":{"location":[10.7291802,106.7191206],"ts":"2025-01-31T10:21:18Z","tz":7,"tags":{"alt_name":"Push Climbing District 7","leisure":"sports_centre","name":"Crescent Wall","sport":"climbing","website":"https://pushclimbing.vn/push-district-7/"}},"12998390290":{"location":[10.7976911,106.7348133],"ts":"2025-07-21T23:59:29Z","tz":7,"tags":{"addr:city":"Thành phố Thủ Đức","addr:district":"Quan 2","addr:housenumber":"789","addr:postcode":"700000","addr:province":"Thành phố Hồ Chí Minh","addr:street":"Đường số 1","leisure":"sports_centre","name":"Vertical Academy","sport":"climbing","website":"https://vertical-academy.com/"}}}