{"605702348":{"lat":49.7203691,"lon":15.7064232,"ts":"2018-09-19T18:56:28Z","tz":1,"tags":{"name":"Velká koukalka (Medvědí)","natural":"cliff","note":"Difficulty 2 - 6+","sport":"climbing"}},"4004653311":{"lat":49.6142475,"lon":15.5733523,"ts":"2021-04-25T08:46:49Z","tz":1,"tags":{"addr:city":"Havlíčkův Brod","addr:housenumber":"2941","addr:postcode":"58001","addr:street":"Wolkerova","leisure":"sports_centre","name":"lezecká stěna Wolkerova","note":"http://mic.muhb.cz/vismo/o_utvar.asp?id_u=12707","sport":"climbing"}},"5787860649":{"lat":49.7146217,"lon":15.7138334,"ts":"2020-09-11T22:41:11Z","tz":1,"tags":{"access":"yes","climbing:bolted":"yes","climbing:grade:uiaa:max":"6+","climbing:grade:uiaa:min":"4","climbing:orientation":"S","climbing:sport":"yes","indoor":"no","leisure":"pitch","opening_hours":"24/7","outdoor":"yes","source":"survey;gps","sport":"climbing","website":"http://www.goat.cz/index.php?path=Lezeni_ZdarskeVrchy_Chotebor_Chotebor"}},"5787860650":{"lat":49.7211137,"lon":15.6905434,"ts":"2024-02-02T14:10:40Z","tz":1,"tags":{"access":"yes","climbing:bolted":"yes","climbing:grade:uiaa:max":"6+","climbing:grade:uiaa:min":"2","climbing:length":"10","climbing:sport":"yes","climbing:toprope":"yes","indoor":"no","leisure":"pitch","name":"Horní koukalka (Domino)","opening_hours":"24/7","outdoor":"yes","sport":"climbing"}},"5787860651":{"lat":49.722492,"lon":15.6883654,"ts":"2024-02-02T14:10:40Z","tz":1,"tags":{"access":"yes","climbing:bolted":"yes","climbing:grade:uiaa:max":"6+","climbing:grade:uiaa:min":"2","climbing:length":"10","climbing:quality":"solid","climbing:sport":"yes","climbing:toprope":"yes","indoor":"no","leisure":"pitch","name":"Velká koukalka (Medvědí)","opening_hours":"24/7","outdoor":"yes","sport":"climbing"}}}