{"165413791":{"location":[48.1141933,15.5417485],"ts":"2023-05-22T08:06:22Z","tz":1,"tags":{"addr:city":"Weinburg","addr:country":"AT","addr:housenumber":"28a","addr:postcode":"3205","addr:street":"Brüder-Teich-Straße","at_bev:addr_date":"2019-04-01","building":"yes","fee":"yes","leisure":"sports_centre","name":"KTZ-Weinburg","opening_hours":"Mo-Fr 09:00-22:00; Sa,Su,PH 09:00-20:30","sport":"climbing","website":"http://www.kletterzentrum-weinburg.at"}},"10721775052":{"location":[48.0128916,15.5886685],"ts":"2025-06-14T10:29:44Z","tz":1,"tags":{"addr:city":"Lilienfeld","addr:housenumber":"12","addr:postcode":"3180","addr:street":"Castellistraße","email":"andreas@felsliebe.at","name":"Felsliebe","opening_hours":"Th,Fr 09:00-12:00,13:00-20:00; Sa 09:00-12:00,13:00-18:00; PH off","operator":"Andreas Podlesnic","phone":"+43 664 4206288","shop":"sports","sport":"climbing","website":"https://felsliebe.com"}},"10764314978":{"location":[48.0186055,15.6802612],"ts":"2023-03-26T19:00:58Z","tz":1,"tags":{"leisure":"sports_centre","name":"Seil und Bogen","sport":"climbing","website":"https://seilundbogen.at/"}},"12126138899":{"location":[48.2164717,15.6364314],"ts":"2024-08-26T18:24:17Z","tz":1,"tags":{"addr:city":"St. Pölten","addr:housenumber":"69","addr:postcode":"3100","addr:street":"Herzogenburger Straße","brand":"Boulderbar","climbing:boulder":"yes","contact:email":"stpoelten@boulderbar.net","contact:phone":"+43 2742 34815","contact:website":"https://boulderbar.net/standorte/st-poelten/","diet:vegetarian":"yes","drink:coffee":"yes","food:pizza":"yes","leisure":"sports_centre","name":"Boulderbar St. Pölten","opening_hours":"Mo-Fr 09:00-23:00; Sa, Su, PH 09:00-22:00","operator":"Boulderbar","sport":"climbing"}}}