{"19317500":{"location":[40.2178277,-8.2178257],"ts":"2025-07-03T10:55:23Z","tz":0,"tags":{"climbing":"area","name":"Vila Nova de Poiares - Fraga","site":"climbing","type":"site","website":"https://www.fpme.org/webpu/index.php/zonas-de-escalada/croquis/434-vila-nova-de-poiares-fraga-da-pena"}},"7788482637":{"location":[40.2159402,-8.2168594],"ts":"2025-07-03T11:02:16Z","tz":0,"tags":{"climbing":"crag","leisure":"sports_centre","name":"Setor Penedo Rua Sésamo","sport":"climbing"}},"7788482638":{"location":[40.2171028,-8.217483],"ts":"2025-07-03T11:02:16Z","tz":0,"tags":{"climbing":"crag","leisure":"sports_centre","name":"Setor Penedo da Desgraça","sport":"climbing"}},"7788482639":{"location":[40.2183649,-8.2187206],"ts":"2025-07-03T11:02:16Z","tz":0,"tags":{"climbing":"crag","leisure":"sports_centre","name":"Setor Penedo do Mouro","sport":"climbing"}},"7788482640":{"location":[40.2197153,-8.218792],"ts":"2025-07-03T11:02:16Z","tz":0,"tags":{"climbing":"crag","leisure":"sports_centre","name":"Setor Miradouro","sport":"climbing"}},"12578631498":{"location":[40.2107804,-8.4336092],"ts":"2025-05-26T23:46:46Z","tz":0,"tags":{"addr:city":"Coimbra","addr:housenumber":"76","addr:postcode":"3000-302","addr:street":"Rua dos Oleiros","contact:instagram":"upa.climbing","leisure":"sports_centre","name":"upa!","opening_hours":"Mo-Fr 10:00-22:00, Sa-Su,PH 10:00-20:00","sport":"climbing","website":"https://upaclimbing.pt"}}}