{"4577445439":{"location":[41.5814479,-81.5328826],"ts":"2019-02-20T06:01:32Z","tz":-5,"tags":{"addr:city":"Euclid","addr:housenumber":"21200 #B3","addr:postcode":"44123","addr:state":"OH","addr:street":"Saint Clair Avenue","indoor":"yes","leisure":"sports_centre","name":"Cleveland Rock Gym","phone":"+1-216-692-3300","source":"http://www.clevelandrockgym.com/","sport":"climbing","website":"https://www.clevelandrockgym.com/"}},"10726310577":{"location":[41.6326721,-81.4469219],"ts":"2023-11-10T16:00:22Z","tz":-5,"tags":{"addr:housenumber":"33801","addr:street":"Curtis Boulevard","addr:unit":"106","climbing":"boulder","leisure":"fitness_centre","name":"Paradiso Climbing Co-op","opening_hours":"Tu-Th 17:00-21:00","phone":"+1-440-710-6532","sport":"climbing","website":"https://www.paradisoclimbing.co/"}},"10726413780":{"location":[41.6326866,-81.4469376],"ts":"2023-03-10T19:05:21Z","tz":-5,"tags":{"name":"Paradiso Climbing Co-op","opening_hours":"Tu-Th 17:00-22:00","sport":"climbing","website":"https://www.paradisoclimbing.co/"}}}