{"454593620":{"location":[40.0259692,-105.2567614],"ts":"2024-06-20T21:26:32Z","tz":-7,"tags":{"addr:city":"Boulder","addr:housenumber":"2829","addr:postcode":"80301","addr:state":"CO","addr:street":"Mapleton Avenue","building":"commercial","fee":"yes","leisure":"sports_centre","name":"Boulder Rock Club","opening_hours":"Mo-Fr 06:00-22:00; Sa-Su 08:00-20:00","phone":"+1-303-447-2804","source":"esri_USDOT_ColoradoOITGIS","sport":"climbing","website":"https://boulderrockclub.com/"}},"510030390":{"location":[39.9896128,-105.2924122],"ts":"2023-09-19T18:36:26Z","tz":-7,"tags":{"climbing":"crag","climbing:url:openbeta":"https://openbeta.io/crag/435e979e-9130-57b9-812e-54b3c696d8a3","climbing:url:thecrag":"https://www.thecrag.com/18988843","name":"2nd Flatiron","natural":"bare_rock","sport":"climbing"}},"856902761":{"location":[39.9904434,-105.2939596],"ts":"2023-09-19T18:41:30Z","tz":-7,"tags":{"climbing":"route","climbing:grade:yds_class":"5.7","climbing:url:openbeta":"https://openbeta.io/climbs/0e966a9f-9fb2-5d2d-8e5e-a6c3e6a4acef","climbing:url:thecrag":"https://www.thecrag.com/20978347","name":"Zig Zag","sport":"climbing"}},"1377972241":{"location":[39.9521065,-105.1607225],"ts":"2025-04-16T06:20:28Z","tz":-7,"tags":{"climbing:boulder":"yes","sport":"climbing"}},"2082662871":{"location":[40.0216245,-105.250614],"ts":"2023-09-20T05:23:44Z","tz":-7,"tags":{"addr:city":"Boulder","addr:housenumber":"3240","addr:postcode":"80301","addr:state":"CO","addr:street":"Prairie Avenue","leisure":"sports_centre","name":"The Spot Bouldering Gym","phone":"+1-303-379-8806","sport":"climbing","website":"https://www.thespotgym.com/"}},"2082663121":{"location":[40.0299005,-105.2574861],"ts":"2019-10-10T01:28:25Z","tz":-7,"tags":{"addr:city":"Boulder","addr:housenumber":"2845","addr:postcode":"80301","addr:state":"CO","addr:street":"Valmont Road","leisure":"sports_centre","name":"Movement Climbing and Fitness","sport":"climbing"}},"4991357228":{"location":[39.989499,-105.29116],"ts":"2023-09-19T18:36:26Z","tz":-7,"tags":{"climbing":"route_bottom","climbing:url:openbeta":"https://openbeta.io/climbs/bf0d5788-f53d-524e-a23e-9115ef32fe5b","climbing:url:thecrag":"https://www.thecrag.com/20975953","name":"Freeway","sport":"climbing"}},"6736050042":{"location":[39.9732164,-105.4630576],"ts":"2019-08-22T16:08:32Z","tz":-7,"tags":{"climbing":"crag","name":"The Visor","natural":"cliff","sport":"climbing"}},"6736050043":{"location":[40.0077911,-105.4088949],"ts":"2019-08-22T16:08:32Z","tz":-7,"tags":{"climbing":"crag","name":"Midnight Rock","natural":"cliff","sport":"climbing"}},"6736050044":{"location":[39.9731045,-105.4634355],"ts":"2019-08-22T16:08:32Z","tz":-7,"tags":{"climbing":"crag","name":"Surprising Crag","natural":"cliff","sport":"climbing"}},"6736050045":{"location":[40.008674,-105.4096352],"ts":"2019-08-22T16:08:32Z","tz":-7,"tags":{"climbing":"crag","name":"Lost Angel Wall","natural":"cliff","sport":"climbing"}},"6736050046":{"location":[40.0100164,-105.4089088],"ts":"2019-08-22T16:08:32Z","tz":-7,"tags":{"climbing":"crag","name":"Oceanic Wall","natural":"cliff","sport":"climbing"}},"6736050047":{"location":[40.0037386,-105.4059773],"ts":"2019-08-22T16:08:32Z","tz":-7,"tags":{"climbing":"crag","name":"Tonnere Tower","natural":"cliff","sport":"climbing"}},"6736050048":{"location":[39.972159,-105.4633463],"ts":"2019-08-22T16:08:32Z","tz":-7,"tags":{"climbing":"crag","name":"Clocktower","natural":"cliff","sport":"climbing"}},"6736050049":{"location":[39.9976058,-105.4154891],"ts":"2019-08-22T16:08:32Z","tz":-7,"tags":{"climbing":"crag","name":"West Animal World","natural":"cliff","sport":"climbing"}},"6736050050":{"location":[40.0094967,-105.4089207],"ts":"2019-08-22T16:08:32Z","tz":-7,"tags":{"climbing":"crag","name":"Dream Dome","natural":"cliff","sport":"climbing"}},"6736050051":{"location":[39.9733873,-105.4637446],"ts":"2019-08-22T16:08:32Z","tz":-7,"tags":{"climbing":"crag","name":"Overhung Wall","natural":"cliff","sport":"climbing"}},"6736050052":{"location":[40.0073166,-105.4053331],"ts":"2019-08-22T16:08:32Z","tz":-7,"tags":{"climbing":"crag","name":"Wall of Winter Warmth","natural":"cliff","sport":"climbing"}},"6736050053":{"location":[40.0006201,-105.3893244],"ts":"2019-08-22T16:08:32Z","tz":-7,"tags":{"climbing":"crag","name":"Cob Rock","natural":"cliff","sport":"climbing"}},"6736050054":{"location":[40.0016887,-105.3873394],"ts":"2019-08-22T16:08:32Z","tz":-7,"tags":{"climbing":"crag","name":"Bitty Buttress","natural":"cliff","sport":"climbing"}},"6736050055":{"location":[40.0022793,-105.4129336],"ts":"2019-08-22T16:08:32Z","tz":-7,"tags":{"climbing":"crag","name":"Bowling Alley","natural":"cliff","sport":"climbing"}},"6736050056":{"location":[40.0017855,-105.4134724],"ts":"2019-08-22T16:08:32Z","tz":-7,"tags":{"climbing":"crag","name":"Practice Rock","natural":"cliff","sport":"climbing"}},"6736050057":{"location":[40.0031544,-105.3885286],"ts":"2019-08-22T16:08:32Z","tz":-7,"tags":{"climbing":"crag","name":"Main Blob Rock","natural":"cliff","sport":"climbing"}},"6736050058":{"location":[40.002685,-105.3878402],"ts":"2019-08-22T16:08:32Z","tz":-7,"tags":{"climbing":"crag","name":"East Blob Rock","natural":"cliff","sport":"climbing"}},"6736050059":{"location":[40.0077341,-105.4083761],"ts":"2019-08-22T16:08:32Z","tz":-7,"tags":{"climbing":"crag","name":"Vanishing Point","natural":"cliff","sport":"climbing"}},"6736050060":{"location":[40.0011662,-105.4127571],"ts":"2019-08-22T16:08:32Z","tz":-7,"tags":{"climbing":"crag","name":"Bell Buttress","natural":"cliff","sport":"climbing"}},"6736050061":{"location":[39.9991974,-105.3821579],"ts":"2019-08-22T16:08:32Z","tz":-7,"tags":{"climbing":"crag","name":"Eagle Rock","natural":"cliff","sport":"climbing"}},"6736050062":{"location":[40.0081374,-105.4094998],"ts":"2019-08-22T16:08:32Z","tz":-7,"tags":{"climbing":"crag","name":"Wake Up Wall","natural":"cliff","sport":"climbing"}},"6736050063":{"location":[40.0024373,-105.3973736],"ts":"2019-08-22T16:08:32Z","tz":-7,"tags":{"climbing":"crag","name":"Cascade Wall","natural":"cliff","sport":"climbing"}},"6736050064":{"location":[39.9983901,-105.4116626],"ts":"2019-08-22T16:08:32Z","tz":-7,"tags":{"climbing":"crag","name":"Second Tier","natural":"cliff","sport":"climbing"}},"6736050065":{"location":[40.0036447,-105.396255],"ts":"2019-08-22T16:08:32Z","tz":-7,"tags":{"climbing":"crag","name":"Bihedral","natural":"cliff","sport":"climbing"}},"6736050066":{"location":[39.9983478,-105.4149519],"ts":"2019-08-22T16:08:32Z","tz":-7,"tags":{"climbing":"crag","name":"Animal World","natural":"cliff","sport":"climbing"}},"6736050067":{"location":[39.9981425,-105.4128926],"ts":"2019-08-22T16:08:32Z","tz":-7,"tags":{"climbing":"crag","name":"The Watermark","natural":"cliff","sport":"climbing"}},"6736050068":{"location":[40.003659,-105.3945896],"ts":"2019-08-22T16:08:32Z","tz":-7,"tags":{"climbing":"crag","name":"Happy Hour","natural":"cliff","sport":"climbing"}},"6736050069":{"location":[39.9986464,-105.4113768],"ts":"2019-08-22T16:08:32Z","tz":-7,"tags":{"climbing":"crag","name":"Crack Land","natural":"cliff","sport":"climbing"}},"6736050070":{"location":[40.0018584,-105.4142189],"ts":"2019-08-22T16:08:32Z","tz":-7,"tags":{"climbing":"crag","name":"The Cornerstone","natural":"cliff","sport":"climbing"}},"6736050071":{"location":[40.0018674,-105.3871196],"ts":"2019-08-22T16:08:32Z","tz":-7,"tags":{"climbing":"crag","name":"The Amphitheatre","natural":"cliff","sport":"climbing"}},"6736050072":{"location":[39.9987574,-105.4123564],"ts":"2019-08-22T16:08:32Z","tz":-7,"tags":{"climbing":"crag","name":"First Tier","natural":"cliff","sport":"climbing"}},"6736050073":{"location":[40.0057641,-105.4064225],"ts":"2019-08-22T16:08:32Z","tz":-7,"tags":{"climbing":"crag","name":"Boulder Falls","natural":"cliff","sport":"climbing"}},"6736050074":{"location":[40.0021509,-105.3950047],"ts":"2019-08-22T16:08:32Z","tz":-7,"tags":{"climbing":"crag","name":"Witches' Tower","natural":"cliff","sport":"climbing"}},"6736050075":{"location":[40.0068185,-105.4066091],"ts":"2019-08-22T16:08:32Z","tz":-7,"tags":{"climbing":"crag","name":"Plotinus Wall","natural":"cliff","sport":"climbing"}},"6736050076":{"location":[39.9966516,-105.4139073],"ts":"2019-08-22T16:08:32Z","tz":-7,"tags":{"climbing":"crag","name":"The Vampire","natural":"cliff","sport":"climbing"}},"6736050077":{"location":[39.9971981,-105.4176983],"ts":"2019-08-22T16:08:32Z","tz":-7,"tags":{"climbing":"crag","name":"The Beer Can","natural":"cliff","sport":"climbing"}},"6736050078":{"location":[39.9976108,-105.416364],"ts":"2019-08-22T16:08:32Z","tz":-7,"tags":{"climbing":"crag","name":"Boulderado","natural":"cliff","sport":"climbing"}},"6736050079":{"location":[40.0034133,-105.3962707],"ts":"2019-08-22T16:08:32Z","tz":-7,"tags":{"climbing":"crag","name":"Riviera","natural":"cliff","sport":"climbing"}},"6736050080":{"location":[39.9964105,-105.414669],"ts":"2019-08-22T16:08:32Z","tz":-7,"tags":{"climbing":"crag","name":"Black Widow Slab","natural":"cliff","sport":"climbing"}},"6736050081":{"location":[39.9962849,-105.4166898],"ts":"2019-08-22T16:08:32Z","tz":-7,"tags":{"climbing":"crag","name":"Sleeping Beauty","natural":"cliff","sport":"climbing"}},"6736050082":{"location":[40.0018795,-105.395426],"ts":"2019-08-22T16:08:32Z","tz":-7,"tags":{"climbing":"crag","name":"Sherwood Forest","natural":"cliff","sport":"climbing"}},"6736050083":{"location":[40.0048431,-105.3929635],"ts":"2019-08-22T16:08:32Z","tz":-7,"tags":{"climbing":"crag","name":"Security Risk","natural":"cliff","sport":"climbing"}},"7201903111":{"location":[39.9733354,-105.2872223],"ts":"2020-02-10T22:42:48Z","tz":-7,"tags":{"climbing":"crag","name":"Dinosaur Rock","sport":"climbing"}},"7201903112":{"location":[39.974172,-105.2877829],"ts":"2020-02-10T22:42:48Z","tz":-7,"tags":{"climbing":"crag","name":"Der Zerkle","sport":"climbing"}},"7201903113":{"location":[39.974764,-105.288947],"ts":"2020-02-10T22:42:48Z","tz":-7,"tags":{"climbing":"crag","name":"Red Devil","sport":"climbing"}},"7989319835":{"location":[39.990476,-105.2933122],"ts":"2020-10-08T18:35:05Z","tz":-7,"tags":{"climbing":"route_bottom","name":"Zig Zag","sport":"climbing"}},"7989319836":{"location":[39.9902906,-105.294607],"ts":"2020-10-08T18:35:05Z","tz":-7,"tags":{"climbing":"route_top"}},"8595863143":{"location":[39.987053,-105.4373856],"ts":"2021-04-05T16:48:22Z","tz":-7,"tags":{"climbing":"crag","name":"Nip and Tuck Climbing Area","sport":"climbing"}},"11203299309":{"location":[39.9899368,-105.2934712],"ts":"2023-09-19T18:36:26Z","tz":-7,"tags":{"climbing":"route_top","sport":"climbing"}},"12758737005":{"location":[39.9520929,-105.1607569],"ts":"2025-04-16T06:20:28Z","tz":-7,"tags":{"sport":"climbing"}}}