{"5865226205":{"lat":47.432802,"lon":0.6944422,"ts":"2022-10-27T13:47:52Z","tz":1,"tags":{"addr:housenumber":"7","addr:street":"Avenue du Danemark","contact:facebook":"https://www.facebook.com/BlockOutTours/","indoor":"yes","name":"Block Out","office":"company","ref:FR:SIRET":"83975977600017","sport":"climbing","website":"https://www.blockout.fr/bo-tours"}},"7947547606":{"lat":47.4321926,"lon":0.6909438,"ts":"2024-02-28T22:50:04Z","tz":1,"tags":{"addr:city":"Tours","addr:housenumber":"15","addr:postcode":"37100","addr:street":"Avenue du Danemark","amenity":"restaurant","brand":"Arkose","contact:email":"contacttours@arkose.com","contact:facebook":"arkosetours","contact:instagram":"arkose.tours","contact:phone":"+33 2 34 36 42 10","contact:website":"https://arkose.com/tours","description":"Escalade de bloc & Restaurant","diet:vegetarian":"yes","leisure":"sports_centre","name":"Arkose","opening_hours":"Mo-Su 09:00-23:00","opening_hours:kitchen":"Mo-Su 12:00-14:30, 19:00-22:15","outdoor_seating":"yes","ref:FR:SIRET":"79319653600064","sport":"climbing","takeaway":"yes"}},"11769680037":{"lat":47.3396887,"lon":0.6287199,"ts":"2024-03-28T19:45:39Z","tz":1,"tags":{"addr:housenumber":"7","addr:street":"Impasse Thimonnier","name":"West Coast Academy","phone":"+337 67 33 70 78","sport":"climbing","website":"https://wca-jlt.fr/"}}}