{"145268394":{"location":[41.6131908,0.6321252],"ts":"2023-01-23T01:00:21Z","tz":1,"tags":{"abandoned":"yes","building":"construction","leisure":"sports_centre","name":"Sala d'escalada del Centre Excursionista de Lleida","name:ca":"Sala d'escalada del Centre Excursionista de Lleida","sport":"climbing"}},"7007949069":{"location":[41.6925161,0.5973951],"ts":"2019-11-25T11:04:16Z","tz":1,"tags":{"building":"yes","description":"Rocòdrom del Club Excursionista i Escalada de Rosselló","leisure":"sports_centre","source":"survey;gps","sport":"climbing"}},"12202126582":{"location":[41.6057307,0.6407173],"ts":"2025-06-29T17:37:46Z","tz":1,"tags":{"addr:city":"Lleida","addr:housenumber":"107","addr:postcode":"25001","addr:street":"Avinguda de les Garrigues","alt_name":"Rocòdrom Fanatic Lleida","contact:instagram":"fanaticlleida","email":"info@fanaticlleida.com","fee":"yes","leisure":"sports_centre","name":"Fanatic Lleida","opening_date":"2024-10-05","opening_hours":"Mo-Fr 09:00-22:30; Sa-Su 10:00-20:00","sport":"climbing","website":"https://fanaticlleida.com/"}},"12406637622":{"location":[41.6125686,0.6626759],"ts":"2025-06-29T17:39:11Z","tz":1,"tags":{"addr:city":"Lleida","addr:housenumber":"3","addr:postcode":"25190","addr:street":"Carrer de Térmens","addr:unit":"G","alt_name":"Rocòdrom Boulder Indoor","charge":"9 EUR/day","email":"info@boulderindoor.com","fee":"yes","leisure":"sports_centre","name":"Boulder Indoor","opening_hours":"Mo-Fr 10:00-22:30; Sa,Su 10:00-14:00, 17:00-20:00; PH off","payment:cash":"yes","payment:debit_cards":"yes","phone":"+34 973 125 111","sport":"climbing","website":"https://www.boulderindoor.com"}},"12862142701":{"location":[41.5629707,0.5188863],"ts":"2025-05-25T10:53:11Z","tz":1,"tags":{"addr:city":"Alcarràs","addr:housenumber":"180","addr:postcode":"25180","addr:street":"Avinguda de Catalunya","leisure":"sports_centre","name":"L'Aspardenya","sport":"climbing"}},"12961511764":{"location":[41.6244483,0.6401734],"ts":"2025-06-29T17:13:57Z","tz":1,"tags":{"addr:city":"Lleida","addr:housenumber":"41","addr:postcode":"25005","addr:street":"Carrer de Sant Pere Claver","contact:facebook":"https://www.facebook.com/people/Rocodromo-Punt-Extrem/100057105203911/","fee":"yes","leisure":"sports_centre","name":"Rocódromo Punt Extrem","name:ca":"Rocòdrom Punt Extrem","phone":"+34 629 36 38 79","sport":"climbing"}},"12961528152":{"location":[41.6105669,0.6145606],"ts":"2025-06-29T17:36:53Z","tz":1,"tags":{"addr:city":"Lleida","addr:housenumber":"6","addr:postcode":"25003","addr:street":"Carrer d'Indíbil i Mandoni","alt_name":"Rocòdrom Disblia","contact:instagram":"clubdisblia","fee":"yes","leisure":"sports_centre","name":"Club d'Escalada Disblia","phone":"+34 627 933 511;+34 678 445 547","sport":"climbing"}}}