{"84924520":{"lat":50.6409061,"lon":3.0899368,"ts":"2025-02-12T16:24:19Z","tz":1,"tags":{"building":"school","leisure":"sports_centre","source":"cadastre-dgi-fr source : Direction Générale des Impôts - Cadastre. Mise à jour : 2010","sport":"climbing"}},"108106964":{"lat":50.6403805,"lon":3.009609,"ts":"2021-09-20T20:13:09Z","tz":1,"tags":{"building":"yes","leisure":"sports_hall","name":"Salle de sports Jean Jaurès","source":"cadastre-dgi-fr source : Direction Générale des Impôts - Cadastre. Mise à jour : 2011","sport":"climbing"}},"192504628":{"lat":50.6807577,"lon":3.05076,"ts":"2022-01-24T14:30:06Z","tz":1,"tags":{"addr:street":"Avenue Saint-Pierre","building":"yes","leisure":"fitness_centre","name":"Climb up","opening_hours":"Sa,Su 09:00-21:00; Mo-Fr 09:00-23:00","source":"data.gouv.fr:Le ministère des droits des femmes, de la ville, de la jeunesse et des sports - 2014","sport":"climbing","surface":"concrete","website":"https://lille-wambrechies.climb-up.fr/"}},"285973223":{"lat":50.6407708,"lon":3.1152084,"ts":"2020-10-14T12:19:11Z","tz":1,"tags":{"building":"yes","climbing:boulder":"yes","climbing:grade:french:max":"8c","climbing:grade:french:min":"4","climbing:toprope":"yes","fee":"yes","indoor":"yes","leisure":"sports_centre","name":"Le Polyèdre","source":"cadastre-dgi-fr source : Direction Générale des Impôts - Cadastre. Mise à jour : 2014","sport":"climbing"}},"313867107":{"lat":50.6446779,"lon":3.1429974,"ts":"2020-10-09T02:08:35Z","tz":1,"tags":{"climbing:toprope":"yes","leisure":"pitch","name":"mur d'escalade pour enfants","sport":"climbing"}},"3562971194":{"lat":50.5824892,"lon":3.0953251,"ts":"2024-10-20T18:23:45Z","tz":1,"tags":{"addr:city":"Lesquin","addr:housenumber":"110","addr:postcode":"59810","addr:street":"Rue Jean Jaurès","charge":"13 EUR","fee":"yes","leisure":"sports_centre","name":"Climb Up","opening_hours":"Mo-Fr 10:00-23:00; Sa-Su 09:00-21:00","sport":"climbing","website":"https://lille-lesquin.climb-up.fr"}},"5589858395":{"lat":50.648274,"lon":3.1169056,"ts":"2021-05-20T08:48:54Z","tz":1,"tags":{"amenity":"restaurant","diet:vegan":"yes","diet:vegetarian":"yes","leisure":"sports_centre","name":"Block'out","opening_hours":"Mo-Fr 11:00-23:00; Sa,Su 09:00-21:00","phone":"+33 9 63 52 95 45","sport":"climbing","website":"https://www.blockout.fr/bo-lille","wheelchair":"limited"}},"6096312717":{"lat":50.6230745,"lon":3.1360625,"ts":"2025-02-11T20:34:05Z","tz":1,"tags":{"addr:housenumber":"51","addr:postcode":"59650","addr:street":"Rue Trémière","charge":"13 EUR","fee":"yes","leisure":"sports_centre","name":"Climb Up","payment:cash":"yes","payment:credit_cards":"yes","phone":"+33 3 20 04 97 50","sport":"climbing","website":"https://lille-villeneuvedascq.climb-up.fr/"}},"7512378939":{"lat":50.6170023,"lon":3.1020651,"ts":"2024-06-27T05:27:23Z","tz":1,"tags":{"addr:city":"Lezennes","addr:housenumber":"2bis","addr:postcode":"59260","addr:street":"Rue Paul Langevin","contact:phone":"+33 3 20 63 29 20","contact:website":"https://lille.vertical-art.fr/","email":"lille@vertical-art.fr","leisure":"sports_centre","name":"Vertical'Art Lille","opening_hours":"Mo-Fr 11:00-23:00; Sa-Su 09:00-21:00","sport":"climbing"}},"7645925303":{"lat":50.6254632,"lon":3.0560081,"ts":"2024-01-21T17:34:41Z","tz":1,"tags":{"addr:city":"Lille","addr:housenumber":"75","addr:postcode":"59000","addr:street":"Rue des Postes","contact:city":"Lille","contact:email":"contactlille@arkose.com","contact:housenumber":"75","contact:phone":"+33 2 90 87 04 64","contact:postcode":"59000","contact:street":"Rue des Postes","contact:website":"https://arkose.com/lille","fee":"yes","food":"restaurant","leisure":"sports_centre","name":"Arkose Lille","opening_hours":"Mo-Su 07:00-00:00","operator":"Arkose","operator:type":"private_for_profit","payment:cards":"yes","payment:cash":"yes","sport":"climbing"}}}