{"10592815":{"location":[50.8867845,15.2311919],"ts":"2020-10-19T13:31:16Z","tz":1,"tags":{"climbing":"route","name":"Via Ferrata Kočičí kameny","route":"via_ferrata","type":"route","via_ferrata_scale":"3"}},"362628166":{"location":[50.7745326,15.4244936],"ts":"2023-11-09T10:46:51Z","tz":1,"tags":{"email":"info@verticalpark.cz","leisure":"sports_centre","name":"Vertical Park","opening_hours":"Mo-Su 11:00-17:00","phone":"+420 603 777 255","sport":"climbing","website":"https://www.verticalpark.cz/"}},"2511154220":{"location":[50.8794378,15.2484295],"ts":"2017-12-03T09:50:40Z","tz":1,"tags":{"name":"Věž grálů","name:de":"Gralsturm","natural":"peak","sport":"climbing"}},"3668981274":{"location":[50.7789439,15.4165978],"ts":"2023-11-09T10:47:36Z","tz":1,"tags":{"name":"MonkeyPark Harrachov","opening_hours":"Mo-Su 10:00-20:00","sport":"climbing","website":"https://www.bobovka.cz/"}},"5261660544":{"location":[50.878019,15.2488007],"ts":"2017-12-03T09:50:40Z","tz":1,"tags":{"name":"Parsifal","natural":"peak","sport":"climbing"}},"5261660545":{"location":[50.8781721,15.2476985],"ts":"2017-12-03T09:50:40Z","tz":1,"tags":{"name":"Hrad rytířů","natural":"peak","sport":"climbing"}},"5261660546":{"location":[50.8796081,15.2483113],"ts":"2017-12-03T09:50:40Z","tz":1,"tags":{"name":"Strážce grálu","natural":"peak","sport":"climbing"}},"9165736179":{"location":[50.8581,15.1222],"ts":"2021-10-11T19:27:27Z","tz":1,"tags":{"climbing:rock":"granite","climbing:sport":"yes","climbing:trad":"yes","name":"Netopýří věžička","name:cs":"Netopýří věžička","name:de":"Fledermaustürmchen","natural":"peak","source":"survey; gps; local knowing","sport":"climbing"}},"9165736180":{"location":[50.85831,15.12239],"ts":"2021-10-11T19:52:11Z","tz":1,"tags":{"alt_name:de":"Schweinegusche","climbing:rock":"granite","climbing:sport":"yes","climbing:trad":"yes","name":"Sviní kámen","name:cs":"Sviní kámen","name:de":"Saustein","natural":"peak","source":"survey; gps; local knowing","sport":"climbing"}},"9165736181":{"location":[50.85859,15.11853],"ts":"2024-08-14T11:59:12Z","tz":1,"tags":{"climbing:rock":"granite","climbing:sport":"no","climbing:trad":"yes","name":"Skrytá věž","name:cs":"Skrtá vez","name:de":"Verborgener Turm","natural":"peak","source":"survey; gps; local knowing","sport":"climbing","wikidata":"Q26161598"}},"9165736183":{"location":[50.85758,15.1197],"ts":"2021-10-11T19:27:27Z","tz":1,"tags":{"climbing:rock":"granite","climbing:sport":"yes","climbing:trad":"yes","name":"Jizerský kostelík","name:cs":"Jizerský kostelík","name:de":"Iserkirchl","natural":"peak","source":"survey; gps; local knowing","sport":"climbing"}},"9165736184":{"location":[50.85767,15.12172],"ts":"2021-10-11T19:27:27Z","tz":1,"tags":{"climbing:rock":"granite","climbing:sport":"yes","climbing:trad":"yes","name":"Labut'","name:cs":"Labut'","name:de":"Schwan","natural":"peak","source":"survey; gps; local knowing","sport":"climbing"}},"9165736185":{"location":[50.85744,15.12226],"ts":"2021-10-11T19:27:27Z","tz":1,"tags":{"climbing:rock":"granite","climbing:sport":"yes","climbing:trad":"yes","name":"Zoomen kámen","name:cs":"Zoomen kámen","name:de":"Brechstein","natural":"peak","source":"survey; gps; local knowing","sport":"climbing"}}}