{"4840259":{"lat":50.4647635,"lon":15.292458,"ts":"2015-04-27T15:11:29Z","tz":1,"tags":{"name":"Babinec","name:de":"Kaffeekränzchen","ref":"42","sport":"climbing","type":"site"}},"4840260":{"lat":50.4667355,"lon":15.297319,"ts":"2015-04-27T15:11:29Z","tz":1,"tags":{"name":"Krkavčí skály","name:de":"Rabenfelsen","ref":"43","sport":"climbing","type":"site"}},"4840261":{"lat":50.47443,"lon":15.278972,"ts":"2015-04-27T15:11:29Z","tz":1,"tags":{"name":"Lahole","ref":"44","sport":"climbing","type":"site"}},"4840262":{"lat":50.465855,"lon":15.32254,"ts":"2015-04-27T15:11:29Z","tz":1,"tags":{"name":"Přivýšina","ref":"369","sport":"climbing","type":"site"}},"4840263":{"lat":50.4670415,"lon":15.290305,"ts":"2015-04-27T15:11:29Z","tz":1,"tags":{"name":"Skalní město","name:de":"Felsenstadt","ref":"36","sport":"climbing","type":"site"}},"4840264":{"lat":50.471416,"lon":15.2870415,"ts":"2015-04-27T15:11:30Z","tz":1,"tags":{"name":"Starý hrádek","name:de":"Alte Burg","ref":"122","sport":"climbing","type":"site"}},"4840265":{"lat":50.46727,"lon":15.27405,"ts":"2015-04-27T15:11:30Z","tz":1,"tags":{"name":"U Ervínova hradu","name:de":"Bei der Erwinburg","ref":"120","sport":"climbing","type":"site"}},"4840266":{"lat":50.4645965,"lon":15.300847,"ts":"2015-04-27T15:11:30Z","tz":1,"tags":{"name":"U Mouřenína","name:de":"Am Mohren","ref":"46","sport":"climbing","type":"site"}},"4840267":{"lat":50.4672495,"lon":15.280986,"ts":"2015-04-27T15:11:30Z","tz":1,"tags":{"name":"U koupaliště","name:de":"Am Bad","ref":"119","sport":"climbing","type":"site"}},"4840268":{"lat":50.471236,"lon":15.2774715,"ts":"2015-04-27T15:11:30Z","tz":1,"tags":{"name":"V maštalích","name:de":"In den Marställen","ref":"121","sport":"climbing","type":"site"}},"1173964438":{"lat":50.4694388,"lon":15.1713525,"ts":"2024-08-16T15:07:08Z","tz":1,"tags":{"addr:conscriptionnumber":"408","addr:country":"CZ","addr:housenumber":"408","addr:place":"Sobotka","addr:postcode":"50743","leisure":"sports_centre","name":"Horolezecká stěna Sobotka","ref:ruian:addr":"1722204","sport":"climbing"}},"12116743523":{"lat":50.4696907,"lon":15.1717155,"ts":"2024-08-17T11:43:48Z","tz":1,"tags":{"leisure":"sports_centre","sport":"climbing"}}}