{"273970016":{"lat":24.7357243,"lon":110.477813,"ts":"2023-06-23T07:40:55Z","tz":8,"tags":{"name":"Banyan Tree Crag","natural":"cliff","sport":"climbing"}},"273970017":{"lat":24.7428017,"lon":110.4707662,"ts":"2024-08-11T08:02:36Z","tz":8,"tags":{"name":"Twin Gates Crag","natural":"cliff","sport":"climbing"}},"274953268":{"lat":24.7275371,"lon":110.5246363,"ts":"2024-11-09T04:31:15Z","tz":8,"tags":{"name":"禽人山","name:en":"Bird Man","natural":"cliff","sport":"climbing"}},"274953269":{"lat":24.72777,"lon":110.4851108,"ts":"2017-06-18T14:13:51Z","tz":8,"tags":{"name":"Dragon City","natural":"cliff","sport":"climbing"}},"274953271":{"lat":24.7004762,"lon":110.4667198,"ts":"2017-06-18T13:59:56Z","tz":8,"tags":{"name":"Leipi shan","natural":"cliff","sport":"climbing"}},"274953275":{"lat":24.7426564,"lon":110.4702328,"ts":"2023-06-23T07:40:55Z","tz":8,"tags":{"name":"The western tower","natural":"cliff","sport":"climbing"}},"288728193":{"lat":24.7550809,"lon":110.5574234,"ts":"2018-10-20T00:55:00Z","tz":8,"tags":{"name":"Spear Head","natural":"cliff","sport":"climbing"}},"383252761":{"lat":24.7329824,"lon":110.5016677,"ts":"2017-06-18T14:11:19Z","tz":8,"tags":{"name":"Space Buttress","natural":"cliff","sport":"climbing"}},"1364118179":{"lat":24.7281021,"lon":110.4677281,"ts":"2024-04-20T11:52:53Z","tz":8,"tags":{"ele":"380","name":"月亮山","name:de":"Mondberg","name:en":"Moon Hill","name:es":"Moon Hill","name:ko":"월량산","name:zh-Latn-pinyin":"Yueliang Shan","natural":"peak","sport":"climbing","wikidata":"Q284624"}},"2755584225":{"lat":24.7412874,"lon":110.468005,"ts":"2018-11-02T14:28:01Z","tz":8,"tags":{"name":"穿岩藏球","name:en":"Brother's Cave","natural":"cave_entrance","sport":"climbing"}},"2755584226":{"lat":24.7415334,"lon":110.4684548,"ts":"2023-12-25T16:03:20Z","tz":8,"tags":{"name":"好汉洞","name:en":"Treasure Cave","natural":"cave_entrance","sport":"climbing"}},"3619575025":{"lat":24.735538,"lon":110.499076,"ts":"2017-06-18T14:09:17Z","tz":8,"tags":{"name":"矮山","name:en":"Low Mountain","natural":"peak","sport":"climbing"}},"3619580401":{"lat":24.7292177,"lon":110.5177789,"ts":"2017-06-18T14:09:17Z","tz":8,"tags":{"name":"鸡蛋山","name:en":"Egg Mountain","natural":"peak","sport":"climbing"}},"3623331002":{"lat":24.7594825,"lon":110.5092377,"ts":"2019-09-25T03:31:17Z","tz":8,"tags":{"name:en":"Bamboo Cave","natural":"peak","sport":"climbing"}},"3671866685":{"lat":24.7745125,"lon":110.4671538,"ts":"2022-01-28T13:29:28Z","tz":8,"tags":{"name":"老铁山","name:en":"Lao Tie Mountain","name:zh":"老铁山","natural":"peak","sport":"climbing"}},"3773023281":{"lat":24.7592472,"lon":110.473532,"ts":"2021-10-13T02:00:25Z","tz":8,"tags":{"leisure":"pitch","name":"瑞士奶酪","name:en":"Swiss Cheese Crag","sport":"climbing"}},"3773023282":{"lat":24.7566234,"lon":110.4772065,"ts":"2023-09-23T13:31:19Z","tz":8,"tags":{"leisure":"pitch","name":"鸡鸡山","name:en":"Jeremy's JiJi","sport":"climbing"}},"3822014005":{"lat":24.7160053,"lon":110.5223062,"ts":"2017-06-18T14:09:17Z","tz":8,"tags":{"name":"白山","name:en":"White Mountain","natural":"peak","sport":"climbing"}},"3828481266":{"lat":24.7295903,"lon":110.4890458,"ts":"2022-10-05T13:23:52Z","tz":8,"tags":{"name":"鸡窝洞","name:en":"Chicken Cave","natural":"cave_entrance","sport":"climbing"}},"5217199746":{"lat":24.740837,"lon":110.4964887,"ts":"2023-09-23T09:49:41Z","tz":8,"tags":{"leisure":"pitch","name":"中指峰","name:en":"Middle Finger","sport":"climbing"}},"5217247178":{"lat":24.7797879,"lon":110.4339806,"ts":"2023-09-23T12:53:31Z","tz":8,"tags":{"leisure":"pitch","name":"蝌蚪山","name:en":"Baby Frog","sport":"climbing"}},"5217247182":{"lat":24.7649037,"lon":110.4367932,"ts":"2021-09-27T11:07:10Z","tz":8,"tags":{"leisure":"pitch","name":"龙牙齿","name:en":"The Dragons Tooth","sport":"climbing"}},"5217247184":{"lat":24.7735549,"lon":110.470073,"ts":"2022-01-28T13:29:28Z","tz":8,"tags":{"leisure":"pitch","name":"流浪谷","name:en":"Dingos Dell","name:zh":"流浪谷","sport":"climbing"}},"5217247189":{"lat":24.7797294,"lon":110.4309111,"ts":"2023-09-23T17:15:37Z","tz":8,"tags":{"leisure":"pitch","name":"白岩","name:en":"White Cliff","natural":"peak","sport":"climbing"}},"5217247190":{"lat":24.7762226,"lon":110.4347531,"ts":"2023-09-23T12:53:31Z","tz":8,"tags":{"leisure":"pitch","name":"达格岩","name:en":"The Dag Crag","sport":"climbing"}},"5217252547":{"lat":24.7721798,"lon":110.5307017,"ts":"2017-11-08T01:25:29Z","tz":8,"tags":{"name":"Riverside","sport":"climbing"}},"5217253977":{"lat":24.7373306,"lon":110.4774471,"ts":"2023-09-23T09:49:41Z","tz":8,"tags":{"leisure":"pitch","name":"竹林岩","name:en":"The Bamboo Grove","sport":"climbing"}},"5999321059":{"lat":24.7563625,"lon":110.5355358,"ts":"2018-10-20T00:55:00Z","tz":8,"tags":{"name":"Old Goat Mountain","sport":"climbing"}},"6031062117":{"lat":24.756072,"lon":110.592008,"ts":"2018-11-02T02:19:45Z","tz":8,"tags":{"name":"Festival","sport":"climbing"}},"6032090272":{"lat":24.7396557,"lon":110.4682636,"ts":"2023-09-23T17:15:37Z","tz":8,"tags":{"leisure":"pitch","name":"小马岩","name:en":"Horse Crag","sport":"climbing"}},"6371612485":{"lat":24.7444688,"lon":110.4894612,"ts":"2021-09-27T11:07:10Z","tz":8,"tags":{"description":"Rock climbing 150 all day unlimited","leisure":"pitch","opening_hours":"24/7","sport":"climbing","tourism":"attraction"}},"9168626487":{"lat":24.7541729,"lon":110.4759246,"ts":"2023-09-23T13:31:19Z","tz":8,"tags":{"natural":"peak","sport":"climbing"}},"11212274624":{"lat":24.739678,"lon":110.491831,"ts":"2023-09-23T12:58:15Z","tz":8,"tags":{"leisure":"pitch","name":"尖叫山龟山","name:en":"Screaming Mountain Turtle","sport":"climbing"}},"11212351048":{"lat":24.754423,"lon":110.47597,"ts":"2023-09-23T13:31:19Z","tz":8,"tags":{"leisure":"pitch","name":"三只小猪","name:en":"3 Little Pigs","sport":"climbing"}},"11429162035":{"lat":24.7472998,"lon":110.568405,"ts":"2025-01-21T07:01:19Z","tz":8,"tags":{"leisure":"sports_centre","name":"攀岩壁","name:en":"Climbing Wall","operator":"Terratribes","sport":"climbing"}},"11453004465":{"lat":24.7389976,"lon":110.4262358,"ts":"2023-12-25T16:03:20Z","tz":8,"tags":{"leisure":"sports_centre","name":"龙村岩壁","sport":"climbing"}},"11453004466":{"lat":24.7502784,"lon":110.4637266,"ts":"2023-12-25T16:03:20Z","tz":8,"tags":{"leisure":"sports_centre","name":"金水岸岩壁","sport":"climbing"}}}