{"15651328":{"lat":50.0839515,"lon":19.7293333,"ts":"2023-03-27T11:11:29Z","tz":1,"tags":{"height":"18","name":"Obchodnia","natural":"bare_rock","rock":"limestone","source":"knowledge","sport":"climbing"}},"167585182":{"lat":50.2063416,"lon":19.7257869,"ts":"2024-07-01T08:30:22Z","tz":1,"tags":{"climbing:bolted":"yes","climbing:sport":"yes","climbing:trad":"yes","height":"15","leisure":"climbing","name":"Ostatnia","natural":"bare_rock","rock":"limestone","source":"bing","sport":"climbing"}},"167585280":{"lat":50.2066048,"lon":19.7260239,"ts":"2021-08-11T07:43:11Z","tz":1,"tags":{"height":"14","leisure":"climbing","name":"Dziewczynka","natural":"bare_rock","rock":"limestone","source":"bing","sport":"climbing"}},"167585388":{"lat":50.2059366,"lon":19.7276408,"ts":"2021-08-11T07:43:11Z","tz":1,"tags":{"height":"22","leisure":"climbing","name":"Ogrodzieniec","natural":"bare_rock","rock":"limestone","source":"bing","sport":"climbing"}},"167589528":{"lat":50.2047239,"lon":19.7286887,"ts":"2021-08-11T07:43:11Z","tz":1,"tags":{"height":"18","leisure":"climbing","name":"Sokołowe","natural":"bare_rock","rock":"limestone","source":"knowledge","sport":"climbing"}},"168358846":{"lat":50.1527684,"lon":19.7850437,"ts":"2023-05-15T08:30:47Z","tz":1,"tags":{"name":"Filar Abazego","natural":"cliff","sport":"climbing"}},"168358848":{"lat":50.1527276,"lon":19.7851961,"ts":"2012-06-20T21:49:04Z","tz":1,"tags":{"name":"Filar Wallischa","natural":"cliff","sport":"climbing"}},"168358849":{"lat":50.1528356,"lon":19.7850648,"ts":"2023-05-15T08:30:47Z","tz":1,"tags":{"name":"Żółta Ścianka","natural":"cliff","sport":"climbing"}},"169385352":{"lat":50.2041636,"lon":19.7287363,"ts":"2022-02-20T02:43:52Z","tz":1,"tags":{"climbing:bolted":"yes","climbing:length":"16","climbing:quality":"solid","climbing:rock":"limestone","climbing:sport":"yes","climbing:trad":"yes","height":"18","leisure":"climbing","name":"Przełaz","natural":"bare_rock","rock":"limestone","source":"survey","sport":"climbing"}},"169723318":{"lat":50.2085379,"lon":19.758399,"ts":"2024-07-01T10:12:53Z","tz":1,"tags":{"name":"Goła","natural":"cliff","source":"bing","sport":"climbing"}},"199230940":{"lat":50.175866,"lon":19.7431984,"ts":"2024-07-01T10:45:28Z","tz":1,"tags":{"height":"18","leisure":"climbing","name":"Dupa Słonia","natural":"cliff","rock":"limestone","source":"knowledge","sport":"climbing","wikidata":"Q9212983","wikimedia_commons":"File:Dolina Będkowska a7.jpg","wikipedia":"pl:Dupa Słonia"}},"199230942":{"lat":50.175866,"lon":19.7433726,"ts":"2024-07-01T10:45:28Z","tz":1,"tags":{"alt_name":"Zamczysko;Będkowska Baszta","climbing:bolted":"yes","climbing:grade:polish:max":"VI.6+","climbing:grade:polish:min":"V+","climbing:length":"30","climbing:multipitch":"yes","climbing:quality":"fragile","climbing:rock":"limestone","climbing:routes":"50","climbing:sport":"yes","height":"32","name":"Dupa Słonia","natural":"bare_rock","rock":"limestone","source":"knowledge","sport":"climbing","url":"https://topo.wspinka.org/grupa-zamczyska/bedkowska-baszta-dupa-slonia","wikidata":"Q9212983","wikipedia":"pl:Dupa Słonia"}},"202537204":{"lat":50.1055276,"lon":19.7066077,"ts":"2015-02-15T13:39:18Z","tz":1,"tags":{"climbing:bolted":"yes","climbing:boulder":"yes","climbing:length":"8","climbing:multipitch":"yes","climbing:quality":"solid","climbing:rock":"limestone","climbing:sport":"yes","name":"Skała z krzyżem","natural":"bare_rock","rock":"limestone","source":"knowledge","sport":"climbing"}},"202537280":{"lat":50.1055968,"lon":19.7064258,"ts":"2015-01-03T13:18:55Z","tz":1,"tags":{"height":"8","leisure":"climbing","name":"Skała z krzyżem","natural":"cliff","rock":"limestone","source":"knowledge","sport":"climbing"}},"223265656":{"lat":50.2511631,"lon":19.8122727,"ts":"2015-02-21T19:04:02Z","tz":1,"tags":{"climbing:bolted":"yes","climbing:grade:polish:max":"VI.1","climbing:grade:polish:min":"II","climbing:length":"15","climbing:quality":"fragile","climbing:rock":"limestone","climbing:routes":"18","climbing:sport":"yes","height":"15","name":"Skała Zachwytu","natural":"bare_rock","rock":"limestone","source":"knowledge","sport":"climbing","url":"http://topo.wspinka.org/dolina-pradnika/skala-zachwytu"}},"233355346":{"lat":50.0810477,"lon":19.9210451,"ts":"2021-11-26T18:40:54Z","tz":1,"tags":{"addr:city":"Kraków","addr:country":"PL","addr:housename":"Centrum Wspinaczkowe Forteca","addr:housenumber":"60","addr:postcode":"30-017","addr:street":"Racławicka","building":"yes","building:levels":"3","leisure":"sports_centre","name":"Centrum Wspinaczkowe Forteca","opening_hours":"10:00-22:00","roof:shape":"flat","sport":"climbing"}},"234160623":{"lat":50.2636692,"lon":19.7423023,"ts":"2015-02-03T21:30:31Z","tz":1,"tags":{"climbing:quality":"solid","climbing:rock":"limestone","height":"12","name":"Poganowe Skały","natural":"bare_rock","rock":"limestone","source":"knowledge","sport":"climbing"}},"234160624":{"lat":50.2513792,"lon":19.7553356,"ts":"2024-07-01T07:24:46Z","tz":1,"tags":{"climbing:quality":"solid","climbing:rock":"limestone","height":"18","name":"Trzon","natural":"bare_rock","rock":"limestone","source":"knowledge","sport":"climbing"}},"234160625":{"lat":50.2474761,"lon":19.7710618,"ts":"2015-02-03T21:30:32Z","tz":1,"tags":{"climbing:quality":"solid","climbing:rock":"limestone","height":"25","name":"Skała nad potokiem","natural":"bare_rock","rock":"limestone","source":"knowledge","sport":"climbing"}},"234160626":{"lat":50.2474953,"lon":19.7711034,"ts":"2020-01-31T15:43:30Z","tz":1,"tags":{"height":"25","leisure":"climbing","name":"Skała nad potokiem","natural":"cliff","rock":"limestone","source":"knowledge","sport":"climbing"}},"234160690":{"lat":50.2511631,"lon":19.8122662,"ts":"2013-08-19T19:19:18Z","tz":1,"tags":{"height":"15","leisure":"climbing","natural":"cliff","rock":"limestone","source":"knowledge","sport":"climbing"}},"234160694":{"lat":50.2510089,"lon":19.7504593,"ts":"2025-03-17T08:57:06Z","tz":1,"tags":{"climbing:quality":"solid","climbing:rock":"limestone","height":"16","name":"Zimna Skała","natural":"bare_rock","rock":"limestone","source":"knowledge","sport":"climbing"}},"234160697":{"lat":50.2522475,"lon":19.7568754,"ts":"2015-02-03T21:30:29Z","tz":1,"tags":{"climbing:quality":"solid","climbing:rock":"limestone","height":"20","name":"Jęzory","natural":"bare_rock","rock":"limestone","source":"knowledge","sport":"climbing"}},"237075246":{"lat":50.1580622,"lon":19.7585696,"ts":"2024-07-01T15:20:51Z","tz":1,"tags":{"height":"15","name":"Bodzio","natural":"bare_rock","rock":"limestone","source":"knowledge","sport":"climbing"}},"237075248":{"lat":50.1580479,"lon":19.7585904,"ts":"2024-07-01T15:20:51Z","tz":1,"tags":{"height":"12","leisure":"climbing","name":"Bodzio","natural":"cliff","rock":"limestone","source":"knowledge","sport":"climbing"}},"237075250":{"lat":50.1660803,"lon":19.7652153,"ts":"2024-07-01T11:39:54Z","tz":1,"tags":{"height":"10","leisure":"climbing","name":"Brzuchata Turniczka","natural":"cliff","rock":"limestone","source":"knowledge","sport":"climbing"}},"237075252":{"lat":50.166015,"lon":19.765229,"ts":"2024-07-01T11:39:54Z","tz":1,"tags":{"height":"12","name":"Brzuchata Turniczka","natural":"bare_rock","rock":"limestone","source":"knowledge","sport":"climbing"}},"237075257":{"lat":50.1587473,"lon":19.758995,"ts":"2013-09-08T09:06:00Z","tz":1,"tags":{"height":"12","leisure":"climbing","name":"Cycówka","natural":"cliff","rock":"limestone","source":"knowledge","sport":"climbing"}},"237075258":{"lat":50.1587451,"lon":19.7590794,"ts":"2015-02-03T21:25:52Z","tz":1,"tags":{"height":"15","name":"Cycówka","natural":"bare_rock","rock":"limestone","source":"knowledge","sport":"climbing"}},"237075259":{"lat":50.1635433,"lon":19.7658167,"ts":"2015-02-03T21:25:52Z","tz":1,"tags":{"height":"12","name":"Cyrk","natural":"bare_rock","rock":"limestone","source":"knowledge","sport":"climbing"}},"237075260":{"lat":50.1635245,"lon":19.7658179,"ts":"2013-09-08T09:06:00Z","tz":1,"tags":{"height":"8","leisure":"climbing","name":"Cyrk","natural":"cliff","rock":"limestone","source":"knowledge","sport":"climbing"}},"237075261":{"lat":50.158465,"lon":19.7603442,"ts":"2013-09-08T09:06:00Z","tz":1,"tags":{"height":"15","leisure":"climbing","name":"Czarna Ścianka","natural":"cliff","rock":"limestone","source":"knowledge","sport":"climbing"}},"237075262":{"lat":50.1585385,"lon":19.7604124,"ts":"2024-07-01T15:20:51Z","tz":1,"tags":{"height":"18","name":"Czarna Ścianka","natural":"bare_rock","rock":"limestone","source":"knowledge","sport":"climbing"}},"237075264":{"lat":50.1655818,"lon":19.7639057,"ts":"2013-09-08T09:06:01Z","tz":1,"tags":{"height":"12","leisure":"climbing","name":"Drugi Filarek","natural":"cliff","rock":"limestone","source":"knowledge","sport":"climbing"}},"237075267":{"lat":50.165097,"lon":19.764817,"ts":"2015-02-03T21:25:53Z","tz":1,"tags":{"height":"15","name":"Dziurawa Turnia","natural":"bare_rock","rock":"limestone","source":"knowledge","sport":"climbing"}},"237075268":{"lat":50.1650874,"lon":19.7648044,"ts":"2013-09-08T09:06:01Z","tz":1,"tags":{"height":"12","leisure":"climbing","name":"Dziurawa Turnia","natural":"cliff","rock":"limestone","source":"knowledge","sport":"climbing"}},"237075269":{"lat":50.1564061,"lon":19.7551202,"ts":"2013-09-08T09:06:01Z","tz":1,"tags":{"height":"15","leisure":"climbing","name":"Filar obok Garażu","natural":"cliff","rock":"limestone","source":"knowledge","sport":"climbing"}},"237075271":{"lat":50.1748317,"lon":19.7597879,"ts":"2013-09-08T09:06:01Z","tz":1,"tags":{"height":"10","leisure":"climbing","name":"Gzylowa Igła","natural":"cliff","rock":"limestone","source":"knowledge","sport":"climbing"}},"237075272":{"lat":50.1748428,"lon":19.7597965,"ts":"2015-02-03T21:25:54Z","tz":1,"tags":{"height":"18","name":"Gzylowa Igła","natural":"bare_rock","rock":"limestone","source":"knowledge","sport":"climbing"}},"237075273":{"lat":50.1748347,"lon":19.7599349,"ts":"2013-09-08T09:06:02Z","tz":1,"tags":{"height":"18","leisure":"climbing","name":"Gzylowe Skały","natural":"cliff","rock":"limestone","source":"knowledge","sport":"climbing"}},"237075274":{"lat":50.1651999,"lon":19.7643693,"ts":"2024-07-01T11:53:51Z","tz":1,"tags":{"height":"25","name":"Jastrzębia Turnia","natural":"bare_rock","rock":"limestone","source":"knowledge","sport":"climbing"}},"237075275":{"lat":50.1651853,"lon":19.7643662,"ts":"2024-07-01T11:53:51Z","tz":1,"tags":{"height":"25","leisure":"climbing","name":"Jastrzębia Turnia","natural":"cliff","rock":"limestone","source":"knowledge","sport":"climbing"}},"237075276":{"lat":50.1590315,"lon":19.7650745,"ts":"2024-07-01T14:49:34Z","tz":1,"tags":{"height":"15","name":"Krucha Turnia","natural":"bare_rock","rock":"limestone","source":"knowledge","sport":"climbing"}},"237075277":{"lat":50.1590923,"lon":19.7650967,"ts":"2024-07-01T14:49:34Z","tz":1,"tags":{"height":"12","leisure":"climbing","name":"Krucha Turnia","natural":"cliff","rock":"limestone","source":"knowledge","sport":"climbing"}},"237075278":{"lat":50.153949,"lon":19.7548455,"ts":"2013-09-08T09:06:02Z","tz":1,"tags":{"height":"30","leisure":"climbing","name":"Kula","natural":"cliff","rock":"limestone","source":"knowledge","sport":"climbing"}},"237075279":{"lat":50.1539732,"lon":19.7543011,"ts":"2013-09-08T09:06:02Z","tz":1,"tags":{"height":"20","leisure":"climbing","name":"Kula","natural":"cliff","rock":"limestone","source":"knowledge","sport":"climbing"}},"237075280":{"lat":50.165616,"lon":19.7639267,"ts":"2024-07-30T14:46:39Z","tz":1,"tags":{"height":"15","name":"Lotniki","natural":"bare_rock","rock":"limestone","source":"knowledge","sport":"climbing"}},"237075281":{"lat":50.1562336,"lon":19.75512,"ts":"2013-09-08T09:06:03Z","tz":1,"tags":{"height":"15","leisure":"climbing","name":"Mała Płyta","natural":"cliff","rock":"limestone","source":"knowledge","sport":"climbing"}},"237075292":{"lat":50.1656723,"lon":19.7638147,"ts":"2024-07-30T14:46:39Z","tz":1,"tags":{"height":"12","leisure":"climbing","name":"Pierwszy Filarek","natural":"cliff","rock":"limestone","source":"knowledge","sport":"climbing"}},"237075293":{"lat":50.1654529,"lon":19.7641163,"ts":"2015-02-03T21:25:56Z","tz":1,"tags":{"height":"15","name":"Pochyła Grań","natural":"bare_rock","rock":"limestone","source":"knowledge","sport":"climbing"}},"237075294":{"lat":50.1654066,"lon":19.7641328,"ts":"2013-09-08T09:06:05Z","tz":1,"tags":{"height":"15","leisure":"climbing","name":"Pochyła Grań","natural":"cliff","rock":"limestone","source":"knowledge","sport":"climbing"}},"237075295":{"lat":50.165358,"lon":19.7639955,"ts":"2024-07-30T14:46:39Z","tz":1,"tags":{"height":"18","leisure":"climbing","name":"Pochyła Turnia","natural":"cliff","rock":"limestone","source":"knowledge","sport":"climbing"}},"237075296":{"lat":50.1653655,"lon":19.7640184,"ts":"2024-07-30T14:46:39Z","tz":1,"tags":{"height":"20","name":"Pochyła Turnia","natural":"bare_rock","rock":"limestone","source":"knowledge","sport":"climbing"}},"237075299":{"lat":50.1533592,"lon":19.7568227,"ts":"2013-09-08T09:06:05Z","tz":1,"tags":{"height":"15","leisure":"climbing","name":"Ponad Gnój Turnia","natural":"cliff","rock":"limestone","source":"knowledge","sport":"climbing"}},"237075300":{"lat":50.1533592,"lon":19.7568061,"ts":"2015-02-03T21:25:56Z","tz":1,"tags":{"height":"16","name":"Ponad Gnój Turnia","natural":"bare_rock","rock":"limestone","source":"knowledge","sport":"climbing"}},"237075301":{"lat":50.1571953,"lon":19.7593654,"ts":"2013-09-08T09:06:05Z","tz":1,"tags":{"height":"20","leisure":"climbing","name":"Postrzępiona Turnia","natural":"cliff","rock":"limestone","source":"knowledge","sport":"climbing"}},"237075302":{"lat":50.1573965,"lon":19.7594223,"ts":"2013-09-08T09:06:06Z","tz":1,"tags":{"height":"30","leisure":"climbing","name":"Postrzępiona Turnia","natural":"cliff","rock":"limestone","source":"knowledge","sport":"climbing"}},"237075303":{"lat":50.1542727,"lon":19.7564851,"ts":"2015-02-03T21:25:57Z","tz":1,"tags":{"height":"8","name":"Przydrożna Skała Czwarta","natural":"bare_rock","rock":"limestone","source":"knowledge","sport":"climbing"}},"237075304":{"lat":50.1542532,"lon":19.7564458,"ts":"2013-09-08T09:06:06Z","tz":1,"tags":{"height":"6","leisure":"climbing","name":"Przydrożna Skała Czwarta","natural":"cliff","rock":"limestone","source":"knowledge","sport":"climbing"}},"237075305":{"lat":50.1539504,"lon":19.7567431,"ts":"2013-09-08T09:06:06Z","tz":1,"tags":{"height":"12","leisure":"climbing","name":"Przydrożna Skała Druga","natural":"cliff","rock":"limestone","source":"knowledge","sport":"climbing"}},"237075306":{"lat":50.1539579,"lon":19.7567671,"ts":"2015-02-03T21:25:57Z","tz":1,"tags":{"height":"14","name":"Przydrożna Skała Druga","natural":"bare_rock","rock":"limestone","source":"knowledge","sport":"climbing"}},"237075309":{"lat":50.1540674,"lon":19.7565543,"ts":"2013-09-08T09:06:06Z","tz":1,"tags":{"height":"10","leisure":"climbing","name":"Przydrożna Skała Trzecia","natural":"cliff","rock":"limestone","source":"knowledge","sport":"climbing"}},"237075310":{"lat":50.1540833,"lon":19.7565448,"ts":"2015-02-03T21:25:58Z","tz":1,"tags":{"height":"12","name":"Przydrożna Skała Trzecia","natural":"bare_rock","rock":"limestone","source":"knowledge","sport":"climbing"}},"237075311":{"lat":50.1586831,"lon":19.7645363,"ts":"2013-09-08T09:06:07Z","tz":1,"tags":{"height":"7","leisure":"climbing","name":"Płetwa","natural":"cliff","rock":"limestone","source":"knowledge","sport":"climbing"}},"237075312":{"lat":50.1586831,"lon":19.764553,"ts":"2015-02-03T21:25:58Z","tz":1,"tags":{"height":"8","name":"Płetwa","natural":"bare_rock","rock":"limestone","source":"knowledge","sport":"climbing"}},"237075313":{"lat":50.157543,"lon":19.7609615,"ts":"2015-02-03T21:25:58Z","tz":1,"tags":{"height":"45","name":"Rozwalista Turnia","natural":"bare_rock","rock":"limestone","source":"knowledge","sport":"climbing"}},"237075314":{"lat":50.1576326,"lon":19.7609306,"ts":"2013-09-08T09:06:07Z","tz":1,"tags":{"height":"40","leisure":"climbing","name":"Rozwalista Turnia","natural":"cliff","rock":"limestone","source":"knowledge","sport":"climbing"}},"237075316":{"lat":50.153949,"lon":19.7545089,"ts":"2015-02-03T21:25:58Z","tz":1,"tags":{"height":"35","name":"Sikornik","natural":"bare_rock","rock":"limestone","source":"knowledge","sport":"climbing"}},"237075319":{"lat":50.1563851,"lon":19.7551216,"ts":"2015-02-03T21:25:59Z","tz":1,"tags":{"height":"30","name":"Skały przy Garażu","natural":"bare_rock","rock":"limestone","source":"knowledge","sport":"climbing"}},"237075320":{"lat":50.1565164,"lon":19.7551508,"ts":"2013-09-08T09:06:08Z","tz":1,"tags":{"height":"20","leisure":"climbing","name":"Szara Płyta","natural":"cliff","rock":"limestone","source":"knowledge","sport":"climbing"}},"237075321":{"lat":50.1651824,"lon":19.7645385,"ts":"2024-07-01T11:53:51Z","tz":1,"tags":{"height":"35","name":"Szeroka Turnia","natural":"bare_rock","rock":"limestone","source":"knowledge","sport":"climbing"}},"237075322":{"lat":50.1651575,"lon":19.7645256,"ts":"2024-07-01T11:53:51Z","tz":1,"tags":{"height":"30","leisure":"climbing","name":"Szeroka Turnia","natural":"cliff","rock":"limestone","source":"knowledge","sport":"climbing"}},"237075323":{"lat":50.1648278,"lon":19.7654143,"ts":"2024-07-30T14:41:32Z","tz":1,"tags":{"height":"25","name":"Szeroki Mur","natural":"bare_rock","rock":"limestone","source":"knowledge","sport":"climbing"}},"237075325":{"lat":50.1648002,"lon":19.7653712,"ts":"2024-07-30T14:41:32Z","tz":1,"tags":{"height":"25","leisure":"climbing","name":"Szeroki Mur","natural":"cliff","rock":"limestone","source":"knowledge","sport":"climbing"}},"237075326":{"lat":50.1647781,"lon":19.7651713,"ts":"2024-07-30T14:41:32Z","tz":1,"tags":{"height":"25","name":"Sępia Baszta","natural":"bare_rock","rock":"limestone","source":"knowledge","sport":"climbing"}},"237075327":{"lat":50.1647604,"lon":19.7651764,"ts":"2024-07-30T14:41:32Z","tz":1,"tags":{"height":"20","leisure":"climbing","name":"Sępia Baszta","natural":"cliff","rock":"limestone","source":"knowledge","sport":"climbing"}},"237075328":{"lat":50.1654831,"lon":19.7638016,"ts":"2013-09-08T09:06:09Z","tz":1,"tags":{"height":"15","leisure":"climbing","name":"Słoneczna Turnia","natural":"cliff","rock":"limestone","source":"knowledge","sport":"climbing"}},"237075330":{"lat":50.165491,"lon":19.7638016,"ts":"2024-07-30T14:46:39Z","tz":1,"tags":{"height":"15","name":"Słoneczna Turnia","natural":"bare_rock","rock":"limestone","source":"knowledge","sport":"climbing"}},"237075333":{"lat":50.1655265,"lon":19.7639778,"ts":"2013-09-08T09:06:10Z","tz":1,"tags":{"height":"12","leisure":"climbing","name":"Trzeci Filarek","natural":"cliff","rock":"limestone","source":"knowledge","sport":"climbing"}},"237075334":{"lat":50.1571332,"lon":19.7560738,"ts":"2015-02-03T21:26:02Z","tz":1,"tags":{"height":"20","name":"Turnia Długosza","natural":"bare_rock","rock":"limestone","source":"knowledge","sport":"climbing"}},"237075335":{"lat":50.1571211,"lon":19.7560833,"ts":"2013-09-08T09:06:10Z","tz":1,"tags":{"height":"15","leisure":"climbing","name":"Turnia Długosza","natural":"cliff","rock":"limestone","source":"knowledge","sport":"climbing"}},"237075336":{"lat":50.1560987,"lon":19.7547148,"ts":"2013-09-08T09:06:10Z","tz":1,"tags":{"height":"15","leisure":"climbing","name":"Turnia Marcinkiewicza","natural":"cliff","rock":"limestone","source":"knowledge","sport":"climbing"}},"237075337":{"lat":50.1561027,"lon":19.7547148,"ts":"2015-02-03T21:26:02Z","tz":1,"tags":{"height":"18","name":"Turnia Marcinkiewicza","natural":"bare_rock","rock":"limestone","source":"knowledge","sport":"climbing"}},"237075340":{"lat":50.1568302,"lon":19.7556074,"ts":"2013-09-08T09:06:11Z","tz":1,"tags":{"height":"20","leisure":"climbing","name":"Turnia z Krokiem","natural":"cliff","rock":"limestone","source":"knowledge","sport":"climbing"}},"237075341":{"lat":50.1568506,"lon":19.7556074,"ts":"2015-02-03T21:26:02Z","tz":1,"tags":{"height":"25","name":"Turnia z Krokiem","natural":"bare_rock","rock":"limestone","source":"knowledge","sport":"climbing"}},"237075342":{"lat":50.1577457,"lon":19.7583036,"ts":"2024-07-02T07:17:52Z","tz":1,"tags":{"height":"12","leisure":"climbing","name":"Turnia z Krzyżem","natural":"cliff","rock":"limestone","source":"knowledge","sport":"climbing"}},"237075343":{"lat":50.1577556,"lon":19.7582765,"ts":"2024-07-02T07:17:52Z","tz":1,"tags":{"height":"15","name":"Turnia z Krzyżem","natural":"bare_rock","rock":"limestone","source":"knowledge","sport":"climbing"}},"237075344":{"lat":50.1572904,"lon":19.7594162,"ts":"2024-07-01T15:20:51Z","tz":1,"tags":{"height":"30","name":"Wielbłąd","natural":"bare_rock","rock":"limestone","source":"knowledge","sport":"climbing"}},"237075347":{"lat":50.1747874,"lon":19.7599349,"ts":"2015-02-03T21:26:03Z","tz":1,"tags":{"height":"20","name":"Wschodnia Baszta","natural":"bare_rock","rock":"limestone","source":"knowledge","sport":"climbing"}},"237075348":{"lat":50.1747732,"lon":19.7599109,"ts":"2013-09-08T09:06:12Z","tz":1,"tags":{"height":"8","leisure":"climbing","name":"Wschodnia Baszta","natural":"cliff","rock":"limestone","source":"knowledge","sport":"climbing"}},"237075349":{"lat":50.1569208,"lon":19.7553964,"ts":"2013-09-08T09:06:12Z","tz":1,"tags":{"height":"12","leisure":"climbing","name":"Wysoka Płyta","natural":"cliff","rock":"limestone","source":"knowledge","sport":"climbing"}},"237075350":{"lat":50.1569361,"lon":19.7553909,"ts":"2015-02-03T21:26:03Z","tz":1,"tags":{"height":"15","name":"Wysoka Płyta","natural":"bare_rock","rock":"limestone","source":"knowledge","sport":"climbing"}},"237075351":{"lat":50.174895,"lon":19.7597496,"ts":"2024-07-01T11:30:08Z","tz":1,"tags":{"height":"18","leisure":"climbing","name":"Zachodnia Grzęda","natural":"cliff","rock":"limestone","source":"knowledge","sport":"climbing"}},"237075352":{"lat":50.174895,"lon":19.7597496,"ts":"2024-07-01T11:30:08Z","tz":1,"tags":{"height":"20","name":"Zachodnia Grzęda","natural":"bare_rock","rock":"limestone","source":"knowledge","sport":"climbing"}},"237075355":{"lat":50.1570025,"lon":19.7559816,"ts":"2013-09-08T09:06:13Z","tz":1,"tags":{"height":"30","leisure":"climbing","name":"Zjazdowa Turnia","natural":"cliff","rock":"limestone","source":"knowledge","sport":"climbing"}},"237075356":{"lat":50.1570214,"lon":19.755951,"ts":"2015-02-03T21:26:04Z","tz":1,"tags":{"height":"35","name":"Zjazdowa Turnia","natural":"bare_rock","rock":"limestone","source":"knowledge","sport":"climbing"}},"237075373":{"lat":50.1580813,"lon":19.7621961,"ts":"2024-07-01T15:20:51Z","tz":1,"tags":{"height":"15","name":"Ściana na przeciw Okrętu","natural":"bare_rock","rock":"limestone","source":"knowledge","sport":"climbing"}},"237075374":{"lat":50.1580266,"lon":19.762244,"ts":"2024-07-01T15:20:51Z","tz":1,"tags":{"height":"12","leisure":"climbing","name":"Ściana na przeciw Okrętu","natural":"cliff","rock":"limestone","source":"knowledge","sport":"climbing"}},"237075377":{"lat":50.1559952,"lon":19.756287,"ts":"2019-03-07T13:39:37Z","tz":1,"tags":{"height":"40","leisure":"climbing","name":"Żabi Koń","natural":"cliff","rock":"limestone","source":"knowledge","sport":"climbing"}},"237075378":{"lat":50.1559715,"lon":19.756295,"ts":"2023-03-08T06:12:00Z","tz":1,"tags":{"height":"45","name":"Żabi Koń","natural":"bare_rock","rock":"limestone","source":"knowledge","sport":"climbing","url":"https://www.youtube.com/watch?v=WVNswQ4jQZA"}},"237075385":{"lat":50.1647449,"lon":19.7651459,"ts":"2013-09-08T09:06:16Z","tz":1,"tags":{"height":"10","leisure":"climbing","natural":"cliff","rock":"limestone","source":"knowledge","sport":"climbing"}},"237075386":{"lat":50.1635842,"lon":19.7657887,"ts":"2013-09-08T09:06:16Z","tz":1,"tags":{"height":"6","leisure":"climbing","natural":"cliff","rock":"limestone","source":"knowledge","sport":"climbing"}},"237075387":{"lat":50.1748546,"lon":19.7598259,"ts":"2013-09-08T09:06:16Z","tz":1,"tags":{"height":"15","leisure":"climbing","natural":"cliff","rock":"limestone","source":"knowledge","sport":"climbing"}},"237152653":{"lat":50.0850999,"lon":19.7286952,"ts":"2022-05-08T20:49:35Z","tz":1,"tags":{"height":"8","name":"Brzuszna Skała","natural":"bare_rock","rock":"limestone","source":"knowledge","sport":"climbing"}},"237152654":{"lat":50.0851266,"lon":19.7287672,"ts":"2022-05-08T20:20:11Z","tz":1,"tags":{"height":"8","leisure":"climbing","name":"Brzuszna Skała","natural":"cliff","rock":"limestone","source":"knowledge","sport":"climbing"}},"237152655":{"lat":50.089732,"lon":19.725511,"ts":"2013-09-08T20:21:40Z","tz":1,"tags":{"height":"5","leisure":"climbing","name":"Drzewna","natural":"cliff","rock":"limestone","source":"knowledge","sport":"climbing"}},"237152656":{"lat":50.089726,"lon":19.7255037,"ts":"2015-02-03T21:25:52Z","tz":1,"tags":{"height":"6","name":"Drzewna","natural":"bare_rock","rock":"limestone","source":"knowledge","sport":"climbing"}},"237152657":{"lat":50.074971,"lon":19.7067183,"ts":"2015-02-03T21:25:53Z","tz":1,"tags":{"height":"16","name":"Dębowe","natural":"bare_rock","rock":"limestone","source":"knowledge","sport":"climbing"}},"237152658":{"lat":50.074961,"lon":19.7067061,"ts":"2013-09-08T20:21:41Z","tz":1,"tags":{"height":"14","leisure":"climbing","name":"Dębowe","natural":"cliff","rock":"limestone","source":"knowledge","sport":"climbing"}},"237152659":{"lat":50.0890776,"lon":19.7503753,"ts":"2013-09-08T20:21:41Z","tz":1,"tags":{"height":"12","leisure":"climbing","name":"Głowa Słonia","natural":"cliff","rock":"limestone","source":"knowledge","sport":"climbing"}},"237152660":{"lat":50.0891013,"lon":19.7503175,"ts":"2015-08-02T19:08:33Z","tz":1,"tags":{"height":"15","name":"Głowa Słonia","natural":"bare_rock","rock":"limestone","source":"knowledge","sport":"climbing"}},"237152661":{"lat":50.0758677,"lon":19.7064405,"ts":"2013-09-08T20:21:41Z","tz":1,"tags":{"height":"14","leisure":"climbing","name":"Kanapa","natural":"cliff","rock":"limestone","source":"knowledge","sport":"climbing"}},"237152662":{"lat":50.0758689,"lon":19.706456,"ts":"2015-02-03T21:25:54Z","tz":1,"tags":{"height":"16","name":"Kanapa","natural":"bare_rock","rock":"limestone","source":"knowledge","sport":"climbing"}},"237152663":{"lat":50.0892811,"lon":19.7509158,"ts":"2013-09-08T20:21:41Z","tz":1,"tags":{"height":"18","leisure":"climbing","name":"Krzywosąd","natural":"cliff","rock":"limestone","source":"knowledge","sport":"climbing"}},"237152664":{"lat":50.0893253,"lon":19.7507732,"ts":"2015-08-05T18:44:11Z","tz":1,"tags":{"height":"22","name":"Krzywy Sąd","natural":"bare_rock","rock":"limestone","source":"knowledge","sport":"climbing"}},"237152665":{"lat":50.0748591,"lon":19.7068951,"ts":"2015-02-03T21:25:54Z","tz":1,"tags":{"height":"18","name":"Księżycowa","natural":"bare_rock","rock":"limestone","source":"knowledge","sport":"climbing"}},"237152666":{"lat":50.0748551,"lon":19.7068858,"ts":"2013-09-08T20:21:42Z","tz":1,"tags":{"height":"17","leisure":"climbing","name":"Księżycowa","natural":"cliff","rock":"limestone","source":"knowledge","sport":"climbing"}},"237152667":{"lat":50.0895206,"lon":19.725393,"ts":"2013-09-08T20:21:42Z","tz":1,"tags":{"height":"9","leisure":"climbing","name":"Leszczynowa","natural":"cliff","rock":"limestone","source":"knowledge","sport":"climbing"}},"237152668":{"lat":50.0895262,"lon":19.7254002,"ts":"2015-02-03T21:25:54Z","tz":1,"tags":{"height":"10","name":"Leszczynowa","natural":"bare_rock","rock":"limestone","source":"knowledge","sport":"climbing"}},"237152669":{"lat":50.0835396,"lon":19.7294495,"ts":"2022-05-08T20:20:11Z","tz":1,"tags":{"height":"9","leisure":"climbing","name":"Lisie Jamy","natural":"cliff","rock":"limestone","source":"knowledge","sport":"climbing"}},"237152670":{"lat":50.0835396,"lon":19.7294489,"ts":"2022-05-08T20:20:11Z","tz":1,"tags":{"height":"10","name":"Lisie Jamy","natural":"bare_rock","rock":"limestone","source":"knowledge","sport":"climbing"}},"237152671":{"lat":50.0893944,"lon":19.7255966,"ts":"2022-09-17T13:12:25Z","tz":1,"tags":{"height":"6","leisure":"climbing","name":"Menhir","natural":"bare_rock","rock":"limestone","source":"knowledge","sport":"climbing"}},"237152673":{"lat":50.0755113,"lon":19.7064708,"ts":"2013-09-08T20:21:43Z","tz":1,"tags":{"height":"12","leisure":"climbing","name":"Mnik","natural":"cliff","rock":"limestone","source":"knowledge","sport":"climbing"}},"237152674":{"lat":50.0755129,"lon":19.7064936,"ts":"2015-02-03T21:25:55Z","tz":1,"tags":{"height":"14","name":"Mnik","natural":"bare_rock","rock":"limestone","source":"knowledge","sport":"climbing"}},"237152675":{"lat":50.0845846,"lon":19.7289544,"ts":"2015-02-03T21:25:55Z","tz":1,"tags":{"height":"18","name":"Mysiura","natural":"bare_rock","rock":"limestone","source":"knowledge","sport":"climbing"}},"237152677":{"lat":50.0845846,"lon":19.7289804,"ts":"2013-09-08T20:21:43Z","tz":1,"tags":{"height":"17","leisure":"climbing","name":"Mysiura","natural":"cliff","rock":"limestone","source":"knowledge","sport":"climbing"}},"237152679":{"lat":50.0839515,"lon":19.7293333,"ts":"2022-05-08T20:20:11Z","tz":1,"tags":{"height":"16","leisure":"climbing","name":"Obchodnia","natural":"cliff","rock":"limestone","source":"knowledge","sport":"climbing"}},"237152680":{"lat":50.0837614,"lon":19.7292419,"ts":"2022-05-08T20:20:11Z","tz":1,"tags":{"height":"22","name":"Położna","natural":"bare_rock","rock":"limestone","source":"knowledge","sport":"climbing"}},"237152681":{"lat":50.0837178,"lon":19.7292754,"ts":"2013-09-08T20:21:44Z","tz":1,"tags":{"height":"20","leisure":"climbing","name":"Położna","natural":"cliff","rock":"limestone","source":"knowledge","sport":"climbing"}},"237152682":{"lat":50.0844795,"lon":19.72899,"ts":"2013-09-08T20:21:44Z","tz":1,"tags":{"height":"8","leisure":"climbing","name":"Skała Artystów","natural":"cliff","rock":"limestone","source":"knowledge","sport":"climbing"}},"237152683":{"lat":50.0844795,"lon":19.72895,"ts":"2015-02-03T21:25:58Z","tz":1,"tags":{"height":"8","name":"Skała Artystów","natural":"bare_rock","rock":"limestone","source":"knowledge","sport":"climbing"}},"237152684":{"lat":50.0720028,"lon":19.7057437,"ts":"2013-09-08T20:21:44Z","tz":1,"tags":{"height":"12","leisure":"climbing","name":"Skała na Łopiankach","natural":"cliff","rock":"limestone","source":"knowledge","sport":"climbing"}},"237152685":{"lat":50.0720028,"lon":19.7057697,"ts":"2015-02-03T21:25:58Z","tz":1,"tags":{"height":"14","name":"Skała na Łopiankach","natural":"bare_rock","rock":"limestone","source":"knowledge","sport":"climbing"}},"237152691":{"lat":50.089811,"lon":19.7254191,"ts":"2013-09-08T20:21:45Z","tz":1,"tags":{"height":"12","leisure":"climbing","name":"Węzia","natural":"cliff","rock":"limestone","source":"knowledge","sport":"climbing"}},"237152692":{"lat":50.089807,"lon":19.7254129,"ts":"2015-02-03T21:26:03Z","tz":1,"tags":{"height":"12","name":"Węzia Skała","natural":"bare_rock","rock":"limestone","source":"knowledge","sport":"climbing"}},"237152693":{"lat":50.0762337,"lon":19.7061133,"ts":"2013-09-08T20:21:45Z","tz":1,"tags":{"height":"12","leisure":"climbing","name":"Zaciszny Filar","natural":"cliff","rock":"limestone","source":"knowledge","sport":"climbing"}},"237152694":{"lat":50.0762367,"lon":19.70613,"ts":"2015-02-03T21:26:03Z","tz":1,"tags":{"height":"14","name":"Zaciszny Filar","natural":"bare_rock","rock":"limestone","source":"knowledge","sport":"climbing"}},"237152695":{"lat":50.0841532,"lon":19.7292497,"ts":"2022-05-08T20:20:11Z","tz":1,"tags":{"height":"14","name":"Zręb","natural":"bare_rock","rock":"limestone","source":"knowledge","sport":"climbing"}},"237152696":{"lat":50.0841759,"lon":19.7292856,"ts":"2013-09-08T20:21:45Z","tz":1,"tags":{"height":"14","leisure":"climbing","name":"Zręb","natural":"cliff","rock":"limestone","source":"knowledge","sport":"climbing"}},"237152824":{"lat":50.0848536,"lon":19.7286555,"ts":"2013-09-08T20:21:55Z","tz":1,"tags":{"height":"7","leisure":"climbing","name":"Żmijowa Płetwa","natural":"cliff","rock":"limestone","source":"knowledge","sport":"climbing"}},"237152825":{"lat":50.0847328,"lon":19.7286297,"ts":"2022-05-08T20:20:11Z","tz":1,"tags":{"height":"6","leisure":"climbing","name":"Żmijowa Skała","natural":"cliff","rock":"limestone","source":"knowledge","sport":"climbing"}},"237152827":{"lat":50.0847898,"lon":19.7286184,"ts":"2022-05-08T20:20:11Z","tz":1,"tags":{"height":"7","name":"Żmijowe","natural":"bare_rock","rock":"limestone","source":"knowledge","sport":"climbing"}},"237152833":{"lat":50.0838426,"lon":19.7292397,"ts":"2022-05-08T20:20:11Z","tz":1,"tags":{"height":"20","leisure":"climbing","natural":"cliff","rock":"limestone","source":"knowledge","sport":"climbing"}},"237152837":{"lat":50.0844029,"lon":19.7289144,"ts":"2015-02-03T21:25:50Z","tz":1,"tags":{"height":"8","natural":"bare_rock","rock":"limestone","source":"knowledge","sport":"climbing"}},"237225243":{"lat":50.1527805,"lon":19.7851317,"ts":"2023-05-19T01:38:27Z","tz":1,"tags":{"height":"35","name":"Filar Abazego","natural":"bare_rock","rock":"limestone","source":"knowledge","sport":"climbing"}},"237225246":{"lat":50.1526475,"lon":19.7844452,"ts":"2015-02-03T21:25:53Z","tz":1,"tags":{"height":"40","name":"Filar Pokutników","natural":"bare_rock","rock":"limestone","source":"knowledge","sport":"climbing"}},"237225249":{"lat":50.1526287,"lon":19.7846892,"ts":"2013-09-09T12:42:41Z","tz":1,"tags":{"height":"35","leisure":"climbing","name":"Filar Pokutników","natural":"cliff","rock":"limestone","source":"knowledge","sport":"climbing"}},"237225252":{"lat":50.1527567,"lon":19.7843353,"ts":"2013-09-09T12:42:41Z","tz":1,"tags":{"height":"30","leisure":"climbing","name":"Mur Pokutników","natural":"cliff","rock":"limestone","source":"knowledge","sport":"climbing"}},"237225255":{"lat":50.1524799,"lon":19.7848544,"ts":"2015-02-03T21:25:56Z","tz":1,"tags":{"height":"15","name":"Ostra Turniczka","natural":"bare_rock","rock":"limestone","source":"knowledge","sport":"climbing"}},"237225258":{"lat":50.1524833,"lon":19.7848642,"ts":"2013-09-09T12:42:41Z","tz":1,"tags":{"height":"12","leisure":"climbing","name":"Ostra Turniczka","natural":"cliff","rock":"limestone","source":"knowledge","sport":"climbing"}},"237225260":{"lat":50.1532052,"lon":19.784985,"ts":"2015-02-03T21:25:57Z","tz":1,"tags":{"height":"20","name":"Poprzeczna Grzęda","natural":"bare_rock","rock":"limestone","source":"knowledge","sport":"climbing"}},"237225266":{"lat":50.1525328,"lon":19.7848105,"ts":"2013-09-09T12:42:41Z","tz":1,"tags":{"height":"25","leisure":"climbing","name":"Turnia Łazików","natural":"cliff","rock":"limestone","source":"knowledge","sport":"climbing"}},"237225269":{"lat":50.1529342,"lon":19.7841219,"ts":"2023-07-23T22:47:40Z","tz":1,"tags":{"height":"25","name":"Zamarła Turnia","natural":"bare_rock","rock":"limestone","source":"knowledge","sport":"climbing"}},"237225273":{"lat":50.1530073,"lon":19.7841746,"ts":"2023-07-23T22:47:40Z","tz":1,"tags":{"height":"20","leisure":"climbing","name":"Zamarła Turnia","natural":"cliff","rock":"limestone","source":"knowledge","sport":"climbing"}},"237225290":{"lat":50.1528333,"lon":19.7851259,"ts":"2023-05-15T08:30:47Z","tz":1,"tags":{"natural":"cliff","rock":"limestone","source":"knowledge","sport":"climbing"}},"261133785":{"lat":50.1422513,"lon":19.8466792,"ts":"2014-02-11T20:20:03Z","tz":1,"tags":{"height":"10","leisure":"climbing","name":"Niewielka Skała","natural":"cliff","rock":"limestone","source":"knowledge","sport":"climbing"}},"261133788":{"lat":50.1422591,"lon":19.846717,"ts":"2019-03-11T15:36:40Z","tz":1,"tags":{"climbing:bolted":"yes","climbing:grade:polish:max":"VI.1","climbing:grade:polish:min":"III","climbing:length":"10","climbing:quality":"solid","climbing:rock":"limestone","climbing:routes":"6","climbing:sport":"yes","height":"12","name":"Niewielka Skała","natural":"bare_rock","rock":"limestone","source":"knowledge","sport":"climbing","url":"https://topo.wspinka.org/wawoz-podskalanski/niewielka-skala"}},"261133789":{"lat":50.1421471,"lon":19.8465874,"ts":"2019-03-11T15:36:40Z","tz":1,"tags":{"height":"15","leisure":"climbing","name":"Wielka Skała","natural":"cliff","rock":"limestone","source":"knowledge","sport":"climbing"}},"261133790":{"lat":50.1421471,"lon":19.8466181,"ts":"2019-03-11T15:36:40Z","tz":1,"tags":{"climbing:bolted":"yes","climbing:grade:polish:max":"VI.3+","climbing:grade:polish:min":"IV","climbing:length":"15","climbing:quality":"solid","climbing:rock":"limestone","climbing:routes":"13","climbing:sport":"yes","height":"16","name":"Wielka Skała","natural":"bare_rock","rock":"limestone","source":"knowledge","sport":"climbing","url":"https://topo.wspinka.org/wawoz-podskalanski/wielka-skala"}},"266417348":{"lat":50.2059511,"lon":19.7276408,"ts":"2014-03-15T20:36:52Z","tz":1,"tags":{"height":"20","leisure":"climbing","name":"Ogrodzieniec","natural":"cliff","rock":"limestone","source":"knowledge","sport":"climbing"}},"266417349":{"lat":50.2063416,"lon":19.7258233,"ts":"2015-03-24T11:26:34Z","tz":1,"tags":{"height":"15","leisure":"climbing","name":"Ostatnia","natural":"cliff","rock":"limestone","source":"knowledge","sport":"climbing"}},"266417350":{"lat":50.2062686,"lon":19.7256734,"ts":"2015-03-24T11:26:34Z","tz":1,"tags":{"height":"14","leisure":"climbing","name":"Ostatnia","natural":"cliff","rock":"limestone","source":"knowledge","sport":"climbing"}},"266417353":{"lat":50.2042618,"lon":19.7286358,"ts":"2022-02-19T08:46:07Z","tz":1,"tags":{"height":"14","leisure":"climbing","name":"Przełaz","natural":"cliff","rock":"limestone","source":"knowledge","sport":"climbing"}},"266417354":{"lat":50.2041636,"lon":19.7287188,"ts":"2022-02-20T02:43:52Z","tz":1,"tags":{"height":"16","leisure":"climbing","name":"Przełąz","natural":"cliff","rock":"limestone","source":"knowledge","sport":"climbing"}},"266417359":{"lat":50.2049554,"lon":19.7289858,"ts":"2015-03-22T16:53:58Z","tz":1,"tags":{"height":"10","name":"Sokołowe","natural":"bare_rock","rock":"limestone","source":"knowledge","sport":"climbing"}},"266417360":{"lat":50.2047894,"lon":19.7287311,"ts":"2014-03-15T20:36:53Z","tz":1,"tags":{"height":"16","leisure":"climbing","name":"Wschodni Mur","natural":"cliff","rock":"limestone","source":"knowledge","sport":"climbing"}},"266417361":{"lat":50.2049674,"lon":19.7289732,"ts":"2014-03-15T20:36:53Z","tz":1,"tags":{"height":"8","leisure":"climbing","name":"Wschodni Mur","natural":"cliff","rock":"limestone","source":"knowledge","sport":"climbing"}},"292448865":{"lat":50.1704512,"lon":19.8058134,"ts":"2024-07-02T08:08:18Z","tz":1,"tags":{"name":"Jaskinia Mamutowa","natural":"bare_rock","sport":"climbing"}},"292453940":{"lat":50.1520175,"lon":19.8173297,"ts":"2014-07-12T17:01:58Z","tz":1,"tags":{"name":"Leśna Baszta","natural":"cliff","sport":"climbing"}},"316682953":{"lat":50.1727798,"lon":19.7373892,"ts":"2021-09-08T19:23:09Z","tz":1,"tags":{"climbing:bolted":"yes","climbing:length":"18","climbing:quality":"solid","climbing:rock":"limestone","climbing:sport":"yes","height":"20","name":"Brandysowa","natural":"bare_rock","rock":"limestone","source":"survey","sport":"climbing"}},"318130613":{"lat":50.1905578,"lon":19.7730264,"ts":"2019-01-20T11:49:03Z","tz":1,"tags":{"climbing:bolted":"yes","climbing:quality":"solid","climbing:rock":"limestone","climbing:sport":"yes","height":"15","name":"Łabajowe Plecy","natural":"bare_rock","rock":"limestone","source":"knowledge","sport":"climbing"}},"318130614":{"lat":50.1906138,"lon":19.7730276,"ts":"2014-12-20T20:52:20Z","tz":1,"tags":{"height":"15","leisure":"climbing","name":"Mniszkowa","natural":"cliff","rock":"limestone","source":"knowledge","sport":"climbing"}},"318130615":{"lat":50.1906138,"lon":19.7730278,"ts":"2016-12-03T18:16:04Z","tz":1,"tags":{"climbing:bolted":"yes","climbing:grade:polish:max":"VI.1+","climbing:grade:polish:min":"IV","climbing:length":"12","climbing:quality":"solid","climbing:rock":"limestone","climbing:routes":"7","climbing:sport":"yes","height":"15","name":"Mniszkowa","natural":"bare_rock","rock":"limestone","source":"knowledge","sport":"climbing","url":"http://topo.wspinka.org/grupa-labajowej/mniszkowa"}},"318130616":{"lat":50.1906243,"lon":19.7732702,"ts":"2018-01-15T18:50:15Z","tz":1,"tags":{"climbing:bolted":"yes","climbing:grade:polish:max":"V+","climbing:grade:polish:min":"III","climbing:length":"10","climbing:quality":"solid","climbing:rock":"limestone","climbing:routes":"5","climbing:sport":"yes","height":"12","name":"Przedszkole","natural":"bare_rock","rock":"limestone","source":"knowledge","sport":"climbing","url":"https://topo.wspinka.org/grupa-labajowej/przedszkole"}},"318130617":{"lat":50.1906474,"lon":19.7732433,"ts":"2018-01-15T18:50:15Z","tz":1,"tags":{"height":"12","leisure":"climbing","name":"Przedszkole","natural":"cliff","rock":"limestone","source":"knowledge","sport":"climbing"}},"318130618":{"lat":50.1914935,"lon":19.774055,"ts":"2019-01-20T11:49:04Z","tz":1,"tags":{"climbing:bolted":"yes","climbing:length":"9","climbing:quality":"solid","climbing:rock":"limestone","climbing:routes":"11","climbing:sport":"yes","height":"10","name":"Stumilowy Kras","natural":"bare_rock","rock":"limestone","source":"knowledge","sport":"climbing","url":"https://topo.wspinka.org/dolina-bedkowska/stumilowy-kras"}},"318130619":{"lat":50.1915096,"lon":19.7740243,"ts":"2014-12-20T20:52:20Z","tz":1,"tags":{"height":"10","leisure":"climbing","name":"Stumilowy Kras","natural":"cliff","rock":"limestone","source":"knowledge","sport":"climbing"}},"318130621":{"lat":50.1904147,"lon":19.7721583,"ts":"2014-12-20T20:52:20Z","tz":1,"tags":{"height":"18","leisure":"climbing","name":"Łabajowa Baszta","natural":"cliff","rock":"limestone","source":"knowledge","sport":"climbing"}},"318130622":{"lat":50.190405,"lon":19.7721583,"ts":"2016-12-03T18:16:05Z","tz":1,"tags":{"climbing:bolted":"yes","climbing:grade:polish:max":"VI.2","climbing:grade:polish:min":"III","climbing:length":"18","climbing:multipitch":"yes","climbing:quality":"solid","climbing:rock":"limestone","climbing:routes":"18","climbing:sport":"yes","climbing:trad":"yes","height":"18","name":"Łabajowa Baszta","natural":"bare_rock","rock":"limestone","source":"knowledge","sport":"climbing","url":"http://topo.wspinka.org/grupa-labajowej/labajowa-baszta"}},"318130623":{"lat":50.1903894,"lon":19.7722505,"ts":"2018-01-15T18:50:15Z","tz":1,"tags":{"height":"12","leisure":"climbing","name":"Łabajowa Basteja","natural":"cliff","rock":"limestone","source":"knowledge","sport":"climbing"}},"318130624":{"lat":50.1903689,"lon":19.7722465,"ts":"2019-01-20T11:49:04Z","tz":1,"tags":{"climbing:bolted":"yes","climbing:grade:polish:max":"VI+","climbing:grade:polish:min":"IV","climbing:ice":"yes","climbing:length":"12","climbing:quality":"solid","climbing:rock":"limestone","climbing:routes":"3","climbing:sport":"yes","height":"14","name":"Łabajowa Basteja","natural":"bare_rock","rock":"limestone","source":"knowledge","sport":"climbing"}},"318130625":{"lat":50.190543,"lon":19.7726232,"ts":"2014-12-20T20:52:21Z","tz":1,"tags":{"height":"20","leisure":"climbing","name":"Łabajowa","natural":"cliff","rock":"limestone","source":"knowledge","sport":"climbing"}},"318130626":{"lat":50.190543,"lon":19.7726232,"ts":"2016-12-03T18:16:06Z","tz":1,"tags":{"climbing:bolted":"yes","climbing:grade:polish:max":"VI.6","climbing:grade:polish:min":"II","climbing:length":"20","climbing:quality":"solid","climbing:rock":"limestone","climbing:routes":"60","climbing:sport":"yes","climbing:trad":"yes","height":"22","name":"Łabajowa","natural":"bare_rock","rock":"limestone","source":"knowledge","sport":"climbing","url":"http://topo.wspinka.org/grupa-labajowej/labajowa"}},"319736245":{"lat":50.2507765,"lon":19.7486418,"ts":"2025-03-17T08:57:06Z","tz":1,"tags":{"climbing:quality":"solid","climbing:rock":"limestone","height":"10","natural":"bare_rock","rock":"limestone","source":"knowledge","sport":"climbing"}},"319736251":{"lat":50.250617,"lon":19.7482416,"ts":"2025-03-17T08:57:06Z","tz":1,"tags":{"climbing:quality":"solid","climbing:rock":"limestone","height":"12","name":"Dziurawa","natural":"bare_rock","rock":"limestone","source":"knowledge","sport":"climbing"}},"319736252":{"lat":50.2506243,"lon":19.7481797,"ts":"2014-12-31T16:17:44Z","tz":1,"tags":{"height":"12","leisure":"climbing","name":"Dziurawa","natural":"cliff","rock":"limestone","source":"knowledge","sport":"climbing"}},"319736253":{"lat":50.2522863,"lon":19.7568317,"ts":"2015-01-01T17:54:56Z","tz":1,"tags":{"height":"18","leisure":"climbing","name":"Jęzory","natural":"cliff","rock":"limestone","source":"knowledge","sport":"climbing"}},"319736254":{"lat":50.2522859,"lon":19.7564883,"ts":"2014-12-31T16:17:45Z","tz":1,"tags":{"height":"14","leisure":"climbing","name":"Kanapa","natural":"cliff","rock":"limestone","source":"knowledge","sport":"climbing"}},"319736255":{"lat":50.2522503,"lon":19.7564344,"ts":"2015-02-03T21:30:29Z","tz":1,"tags":{"climbing:quality":"solid","climbing:rock":"limestone","height":"15","name":"Kanapa","natural":"bare_rock","rock":"limestone","source":"knowledge","sport":"climbing"}},"319736256":{"lat":50.2512356,"lon":19.7554602,"ts":"2024-07-01T07:24:46Z","tz":1,"tags":{"climbing:quality":"solid","climbing:rock":"limestone","height":"16","name":"Kieł","natural":"bare_rock","rock":"limestone","source":"knowledge","sport":"climbing"}},"319736257":{"lat":50.2518009,"lon":19.754166,"ts":"2025-03-17T08:57:06Z","tz":1,"tags":{"climbing:quality":"solid","climbing:rock":"limestone","height":"16","name":"Piramida","natural":"bare_rock","rock":"limestone","source":"knowledge","sport":"climbing"}},"319736258":{"lat":50.2519302,"lon":19.7542372,"ts":"2025-03-17T08:57:06Z","tz":1,"tags":{"height":"16","leisure":"climbing","name":"Piramida","natural":"cliff","rock":"limestone","source":"knowledge","sport":"climbing"}},"319736259":{"lat":50.2518104,"lon":19.7541693,"ts":"2014-12-31T16:17:45Z","tz":1,"tags":{"height":"16","leisure":"climbing","name":"Piramida","natural":"cliff","rock":"limestone","source":"knowledge","sport":"climbing"}},"319736261":{"lat":50.2637628,"lon":19.7422092,"ts":"2014-12-31T16:17:45Z","tz":1,"tags":{"height":"14","leisure":"climbing","name":"Poganowe Skały","natural":"cliff","rock":"limestone","source":"knowledge","sport":"climbing"}},"319736263":{"lat":50.2522835,"lon":19.7565907,"ts":"2014-12-31T16:17:45Z","tz":1,"tags":{"height":"12","leisure":"climbing","name":"Siata","natural":"cliff","rock":"limestone","source":"knowledge","sport":"climbing"}},"319736265":{"lat":50.2522383,"lon":19.7566115,"ts":"2015-02-03T21:30:32Z","tz":1,"tags":{"climbing:quality":"solid","climbing:rock":"limestone","height":"12","name":"Siata","natural":"bare_rock","rock":"limestone","source":"knowledge","sport":"climbing"}},"319736268":{"lat":50.2522434,"lon":19.7557105,"ts":"2014-12-31T16:17:45Z","tz":1,"tags":{"height":"16","leisure":"climbing","name":"Skała nad łąką","natural":"cliff","rock":"limestone","source":"knowledge","sport":"climbing"}},"319736272":{"lat":50.2521941,"lon":19.7557368,"ts":"2025-03-17T08:57:06Z","tz":1,"tags":{"climbing:quality":"solid","climbing:rock":"limestone","height":"16","name":"Skała nad łąką","natural":"bare_rock","rock":"limestone","source":"knowledge","sport":"climbing"}},"319736273":{"lat":50.2514338,"lon":19.7553643,"ts":"2014-12-31T16:17:46Z","tz":1,"tags":{"height":"18","leisure":"climbing","name":"Trzon","natural":"cliff","rock":"limestone","source":"knowledge","sport":"climbing"}},"319736274":{"lat":50.252233,"lon":19.757124,"ts":"2014-12-31T16:17:46Z","tz":1,"tags":{"height":"14","leisure":"climbing","name":"Zimne Płyty","natural":"cliff","rock":"limestone","source":"knowledge","sport":"climbing"}},"319736275":{"lat":50.2522259,"lon":19.7572046,"ts":"2015-02-03T21:30:34Z","tz":1,"tags":{"climbing:quality":"solid","climbing:rock":"limestone","height":"16","name":"Zimne Płyty","natural":"bare_rock","rock":"limestone","source":"knowledge","sport":"climbing"}},"320670251":{"lat":50.1727527,"lon":19.7374075,"ts":"2015-01-06T12:52:17Z","tz":1,"tags":{"height":"10","leisure":"climbing","natural":"cliff","rock":"limestone","source":"knowledge","sport":"climbing"}},"320670263":{"lat":50.1764022,"lon":19.7287698,"ts":"2024-07-01T10:51:00Z","tz":1,"tags":{"climbing:bolted":"yes","climbing:grade:polish:max":"V+","climbing:grade:polish:min":"IV","climbing:length":"16","climbing:quality":"solid","climbing:rock":"limestone","climbing:routes":"3","climbing:sport":"yes","height":"20","name":"Ambona","natural":"bare_rock","rock":"limestone","source":"knowledge","sport":"climbing"}},"320670264":{"lat":50.1763494,"lon":19.7286996,"ts":"2024-07-01T10:51:00Z","tz":1,"tags":{"height":"16","leisure":"climbing","name":"Ambona","natural":"cliff","rock":"limestone","source":"knowledge","sport":"climbing"}},"320670265":{"lat":50.1977878,"lon":19.7193294,"ts":"2015-04-19T18:53:49Z","tz":1,"tags":{"climbing:bolted":"yes","climbing:length":"12","climbing:quality":"solid","climbing:rock":"limestone","climbing:routes":"14","climbing:sport":"yes","climbing:trad":"yes","height":"15","name":"Baraszki","natural":"bare_rock","rock":"limestone","source":"knowledge","sport":"climbing"}},"320670268":{"lat":50.1727643,"lon":19.7373629,"ts":"2015-01-06T12:52:18Z","tz":1,"tags":{"height":"18","leisure":"climbing","name":"Brandysowa","natural":"cliff","rock":"limestone","source":"knowledge","sport":"climbing"}},"320670269":{"lat":50.1778377,"lon":19.7173024,"ts":"2024-07-01T10:09:02Z","tz":1,"tags":{"climbing:bolted":"yes","climbing:length":"30","climbing:quality":"solid","climbing:rock":"limestone","climbing:sport":"yes","climbing:trad":"yes","height":"35","name":"Szare Płyty","natural":"bare_rock","rock":"limestone","source":"knowledge","sport":"climbing"}},"320670270":{"lat":50.1775498,"lon":19.7170432,"ts":"2015-04-07T19:22:21Z","tz":1,"tags":{"climbing:bolted":"yes","climbing:length":"35","climbing:quality":"solid","climbing:rock":"limestone","climbing:sport":"yes","climbing:trad":"yes","height":"45","name":"Brodło","natural":"bare_rock","rock":"limestone","source":"knowledge","sport":"climbing"}},"320670271":{"lat":50.2006315,"lon":19.725074,"ts":"2015-01-06T12:52:19Z","tz":1,"tags":{"climbing:bolted":"yes","climbing:length":"20","climbing:quality":"solid","climbing:rock":"limestone","climbing:routes":"14","climbing:sport":"yes","climbing:trad":"yes","height":"22","name":"Bukowy Filar","natural":"bare_rock","rock":"limestone","source":"knowledge","sport":"climbing"}},"320670272":{"lat":50.1980712,"lon":19.7192277,"ts":"2024-07-01T08:50:19Z","tz":1,"tags":{"climbing:bolted":"yes","climbing:length":"15","climbing:quality":"solid","climbing:rock":"limestone","climbing:routes":"3","climbing:sport":"yes","height":"18","name":"Chochoły","natural":"bare_rock","rock":"limestone","source":"knowledge","sport":"climbing"}},"320670273":{"lat":50.1983834,"lon":19.7189136,"ts":"2024-07-01T08:50:19Z","tz":1,"tags":{"climbing:bolted":"yes","climbing:grade:polish:max":"VI.1","climbing:grade:polish:min":"III","climbing:length":"12","climbing:quality":"solid","climbing:rock":"limestone","climbing:routes":"8","climbing:sport":"yes","climbing:trad":"yes","height":"14","name":"Fujarki","natural":"bare_rock","rock":"limestone","source":"knowledge","sport":"climbing"}},"320670274":{"lat":50.1981732,"lon":19.7191088,"ts":"2018-04-23T03:55:21Z","tz":1,"tags":{"climbing:bolted":"yes","climbing:grade:polish:max":"VI.5","climbing:grade:polish:min":"V","climbing:length":"16","climbing:quality":"solid","climbing:rock":"limestone","climbing:routes":"14","climbing:sport":"yes","climbing:trad":"yes","height":"18","name":"Graficzna Baszta","natural":"bare_rock","rock":"limestone","source":"knowledge","sport":"climbing"}},"320670280":{"lat":50.1995022,"lon":19.7344507,"ts":"2015-03-31T19:16:25Z","tz":1,"tags":{"climbing:bolted":"yes","climbing:length":"18","climbing:quality":"solid","climbing:rock":"limestone","climbing:sport":"yes","climbing:trad":"yes","height":"20","name":"Leśna Turnia","natural":"bare_rock","rock":"limestone","source":"knowledge","sport":"climbing"}},"320670282":{"lat":50.2004756,"lon":19.7251484,"ts":"2015-04-19T08:36:59Z","tz":1,"tags":{"climbing:bolted":"yes","climbing:length":"10","climbing:quality":"solid","climbing:rock":"limestone","climbing:sport":"yes","climbing:trad":"yes","height":"10","name":"Muminek","natural":"bare_rock","rock":"limestone","source":"knowledge","sport":"climbing"}},"320670284":{"lat":50.1987818,"lon":19.7188363,"ts":"2024-07-01T08:50:19Z","tz":1,"tags":{"climbing:grade:polish:max":"VI.3","climbing:grade:polish:min":"III","climbing:length":"10","climbing:quality":"fragile","climbing:rock":"limestone","climbing:routes":"8","climbing:trad":"yes","height":"12","name":"Mur Ogrodników","natural":"bare_rock","rock":"limestone","source":"knowledge","sport":"climbing"}},"320670287":{"lat":50.1982986,"lon":19.7189226,"ts":"2018-04-23T03:55:21Z","tz":1,"tags":{"climbing:bolted":"yes","climbing:grade:polish:max":"V+","climbing:grade:polish:min":"IV","climbing:length":"8","climbing:quality":"solid","climbing:rock":"limestone","climbing:routes":"3","climbing:sport":"yes","climbing:trad":"yes","height":"10","name":"Omszała Turniczka","natural":"bare_rock","rock":"limestone","source":"knowledge","sport":"climbing"}},"320670299":{"lat":50.2005173,"lon":19.7248855,"ts":"2015-01-06T12:52:21Z","tz":1,"tags":{"climbing:bolted":"yes","climbing:length":"18","climbing:quality":"solid","climbing:rock":"limestone","climbing:sport":"yes","climbing:trad":"yes","height":"20","name":"Ptasia Turnia","natural":"bare_rock","rock":"limestone","source":"knowledge","sport":"climbing"}},"320670301":{"lat":50.2005545,"lon":19.7249428,"ts":"2015-01-06T12:52:21Z","tz":1,"tags":{"climbing:bolted":"yes","climbing:length":"12","climbing:quality":"solid","climbing:rock":"limestone","climbing:sport":"yes","height":"12","name":"Ruda","natural":"bare_rock","rock":"limestone","source":"knowledge","sport":"climbing"}},"320670303":{"lat":50.1765596,"lon":19.728648,"ts":"2015-01-06T12:52:21Z","tz":1,"tags":{"height":"16","leisure":"climbing","name":"Sarnia","natural":"cliff","rock":"limestone","source":"knowledge","sport":"climbing"}},"320670305":{"lat":50.1765912,"lon":19.7286633,"ts":"2024-07-01T10:51:00Z","tz":1,"tags":{"climbing:bolted":"yes","climbing:length":"16","climbing:quality":"solid","climbing:rock":"limestone","climbing:sport":"yes","height":"18","name":"Sarnia","natural":"bare_rock","rock":"limestone","source":"knowledge","sport":"climbing"}},"320670309":{"lat":50.1979731,"lon":19.7194125,"ts":"2024-07-01T08:50:19Z","tz":1,"tags":{"climbing:bolted":"yes","climbing:grade:polish:max":"VI","climbing:grade:polish:min":"IV","climbing:length":"18","climbing:quality":"solid","climbing:rock":"limestone","climbing:routes":"10","climbing:sport":"yes","climbing:trad":"yes","height":"22","name":"Skała Krzyżowa","natural":"bare_rock","rock":"limestone","source":"knowledge","sport":"climbing"}},"320670311":{"lat":50.2006121,"lon":19.7248691,"ts":"2015-04-19T08:36:59Z","tz":1,"tags":{"climbing:bolted":"yes","climbing:length":"16","climbing:quality":"solid","climbing:rock":"limestone","climbing:sport":"yes","climbing:trad":"yes","height":"18","name":"Sokolik","natural":"bare_rock","rock":"limestone","source":"knowledge","sport":"climbing"}},"320670315":{"lat":50.1777685,"lon":19.7171696,"ts":"2015-01-06T12:52:22Z","tz":1,"tags":{"height":"30","leisure":"climbing","name":"Szare Płyty","natural":"cliff","rock":"limestone","source":"knowledge","sport":"climbing"}},"320670316":{"lat":50.2044343,"lon":19.7286155,"ts":"2024-07-01T08:30:22Z","tz":1,"tags":{"climbing:bolted":"yes","climbing:length":"14","climbing:quality":"solid","climbing:rock":"limestone","climbing:sport":"yes","climbing:trad":"yes","height":"16","leisure":"climbing","name":"Szeroki Komin","natural":"bare_rock","rock":"limestone","source":"knowledge","sport":"climbing"}},"320670317":{"lat":50.2044024,"lon":19.7285773,"ts":"2024-07-01T08:30:22Z","tz":1,"tags":{"height":"14","leisure":"climbing","name":"Szeroki Komin","natural":"cliff","rock":"limestone","source":"knowledge","sport":"climbing"}},"320670319":{"lat":50.2044327,"lon":19.7286509,"ts":"2015-01-06T21:47:13Z","tz":1,"tags":{"height":"16","leisure":"climbing","name":"Szeroki Komin","natural":"cliff","rock":"limestone","source":"knowledge","sport":"climbing"}},"320670324":{"lat":50.2005911,"lon":19.7254223,"ts":"2015-04-19T08:37:00Z","tz":1,"tags":{"climbing:bolted":"yes","climbing:length":"16","climbing:quality":"solid","climbing:rock":"limestone","climbing:sport":"yes","climbing:trad":"yes","height":"18","name":"Wielka Witkowa","natural":"bare_rock","rock":"limestone","source":"knowledge","sport":"climbing"}},"320670325":{"lat":50.2005421,"lon":19.725271,"ts":"2015-04-19T08:37:00Z","tz":1,"tags":{"climbing:bolted":"yes","climbing:length":"16","climbing:quality":"solid","climbing:rock":"limestone","climbing:sport":"yes","climbing:trad":"yes","height":"18","name":"Wielka Witkowa","natural":"bare_rock","rock":"limestone","source":"knowledge","sport":"climbing"}},"320670327":{"lat":50.2007554,"lon":19.725998,"ts":"2024-07-01T08:50:19Z","tz":1,"tags":{"climbing:bolted":"yes","climbing:grade:polish:max":"VI.1+","climbing:grade:polish:min":"IV","climbing:length":"12","climbing:quality":"solid","climbing:rock":"limestone","climbing:routes":"3","climbing:sport":"yes","climbing:trad":"yes","height":"15","name":"Witkowy Filar","natural":"bare_rock","rock":"limestone","source":"knowledge","sport":"climbing"}},"320670364":{"lat":50.1988879,"lon":19.7252015,"ts":"2024-07-01T08:50:19Z","tz":1,"tags":{"climbing:bolted":"yes","climbing:length":"20","climbing:quality":"solid","climbing:rock":"limestone","climbing:routes":"50","climbing:sport":"yes","climbing:trad":"yes","height":"25","name":"Łysa","natural":"bare_rock","rock":"limestone","source":"knowledge","sport":"climbing"}},"320670366":{"lat":50.1989511,"lon":19.7255283,"ts":"2015-04-21T17:33:19Z","tz":1,"tags":{"climbing:bolted":"yes","climbing:grade:polish:max":"VI.5","climbing:grade:polish:min":"IV","climbing:length":"14","climbing:quality":"solid","climbing:rock":"limestone","climbing:routes":"8","climbing:sport":"yes","climbing:trad":"yes","height":"16","name":"Łyse Baszty","natural":"bare_rock","rock":"limestone","source":"knowledge","sport":"climbing"}},"320670368":{"lat":50.1988837,"lon":19.7259004,"ts":"2015-01-06T12:52:26Z","tz":1,"tags":{"climbing:bolted":"yes","climbing:grade:polish:max":"VI.4+","climbing:grade:polish:min":"IV","climbing:length":"10","climbing:quality":"solid","climbing:rock":"limestone","climbing:routes":"5","climbing:sport":"yes","climbing:trad":"yes","height":"12","name":"Łyse Zęby","natural":"bare_rock","rock":"limestone","source":"knowledge","sport":"climbing"}},"320670370":{"lat":50.1987785,"lon":19.7258544,"ts":"2024-07-01T08:50:19Z","tz":1,"tags":{"climbing:bolted":"yes","climbing:length":"8","climbing:quality":"solid","climbing:rock":"limestone","climbing:routes":"1","climbing:sport":"yes","height":"10","name":"Łysy Ząb 2","natural":"bare_rock","rock":"limestone","source":"knowledge","sport":"climbing"}},"320670371":{"lat":50.1987312,"lon":19.7257913,"ts":"2015-04-21T18:58:40Z","tz":1,"tags":{"climbing:bolted":"yes","climbing:grade:polish:max":"VI.4","climbing:grade:polish:min":"V+","climbing:length":"8","climbing:quality":"solid","climbing:rock":"limestone","climbing:routes":"4","climbing:sport":"yes","height":"10","name":"Łysy Ząb 3","natural":"bare_rock","rock":"limestone","source":"knowledge","sport":"climbing"}},"320670373":{"lat":50.1986569,"lon":19.7256972,"ts":"2015-04-14T20:38:16Z","tz":1,"tags":{"climbing:bolted":"yes","climbing:length":"12","climbing:quality":"solid","climbing:rock":"limestone","climbing:routes":"5","climbing:sport":"yes","climbing:trad":"yes","height":"15","name":"Łysy Ząb 4","natural":"bare_rock","rock":"limestone","source":"knowledge","sport":"climbing"}},"326198501":{"lat":50.108262,"lon":19.715095,"ts":"2015-02-23T15:29:42Z","tz":1,"tags":{"name":"Szyszak","natural":"bare_rock","rock":"limestone","sport":"climbing"}},"332595362":{"lat":50.1999251,"lon":19.7697327,"ts":"2020-03-02T22:05:12Z","tz":1,"tags":{"height":"12","leisure":"climbing","name":"Aniołek","natural":"cliff","rock":"limestone","source":"knowledge","sport":"climbing"}},"332595363":{"lat":50.2025949,"lon":19.7635911,"ts":"2015-03-13T21:25:32Z","tz":1,"tags":{"height":"10","leisure":"climbing","name":"Czarna Rysa","natural":"cliff","rock":"limestone","source":"knowledge","sport":"climbing"}},"332595364":{"lat":50.2026757,"lon":19.7641754,"ts":"2020-12-27T16:10:01Z","tz":1,"tags":{"height":"25","leisure":"climbing","name":"Direttissima","natural":"cliff","rock":"limestone","source":"knowledge","sport":"climbing"}},"332595365":{"lat":50.2001405,"lon":19.7696073,"ts":"2015-03-13T21:25:33Z","tz":1,"tags":{"height":"18","leisure":"climbing","name":"Duży Mur","natural":"cliff","rock":"limestone","source":"knowledge","sport":"climbing"}},"332595366":{"lat":50.1998293,"lon":19.7689084,"ts":"2015-03-13T21:25:33Z","tz":1,"tags":{"height":"12","leisure":"climbing","name":"Duży Mur","natural":"cliff","rock":"limestone","source":"knowledge","sport":"climbing"}},"332595367":{"lat":50.2003435,"lon":19.7702848,"ts":"2020-03-03T21:18:44Z","tz":1,"tags":{"height":"18","leisure":"climbing","name":"Duży Mur","natural":"cliff","rock":"limestone","source":"knowledge","sport":"climbing"}},"332595368":{"lat":50.2026187,"lon":19.7639246,"ts":"2015-03-13T21:25:33Z","tz":1,"tags":{"height":"25","leisure":"climbing","name":"Duży Okap","natural":"cliff","rock":"limestone","source":"knowledge","sport":"climbing"}},"332595369":{"lat":50.2029765,"lon":19.764304,"ts":"2015-03-13T21:25:33Z","tz":1,"tags":{"height":"18","leisure":"climbing","name":"Dziurki","natural":"cliff","rock":"limestone","source":"knowledge","sport":"climbing"}},"332595370":{"lat":50.2032368,"lon":19.7643714,"ts":"2015-03-13T21:25:34Z","tz":1,"tags":{"height":"18","leisure":"climbing","name":"Gołębnik","natural":"cliff","rock":"limestone","source":"knowledge","sport":"climbing"}},"332595371":{"lat":50.2033157,"lon":19.764268,"ts":"2015-03-13T21:25:34Z","tz":1,"tags":{"climbing:bolted":"yes","climbing:quality":"fragile","climbing:rock":"limestone","climbing:sport":"yes","height":"18","name":"Gołębnik","natural":"bare_rock","rock":"limestone","source":"knowledge","sport":"climbing"}},"332595372":{"lat":50.2033496,"lon":19.764386,"ts":"2015-03-13T21:25:34Z","tz":1,"tags":{"height":"15","leisure":"climbing","name":"Gołębnik","natural":"cliff","rock":"limestone","source":"knowledge","sport":"climbing"}},"332595374":{"lat":50.2013317,"lon":19.770295,"ts":"2015-03-13T21:25:34Z","tz":1,"tags":{"height":"15","leisure":"climbing","name":"Kapucyn","natural":"cliff","rock":"limestone","source":"knowledge","sport":"climbing"}},"332595376":{"lat":50.2031096,"lon":19.7645006,"ts":"2015-03-13T21:25:35Z","tz":1,"tags":{"height":"18","leisure":"climbing","name":"Kupała","natural":"cliff","rock":"limestone","source":"knowledge","sport":"climbing"}},"332595377":{"lat":50.2029076,"lon":19.7643185,"ts":"2015-03-13T21:25:35Z","tz":1,"tags":{"height":"25","leisure":"climbing","name":"Malinowy Filar","natural":"cliff","rock":"limestone","source":"knowledge","sport":"climbing"}},"332595378":{"lat":50.2007682,"lon":19.770365,"ts":"2024-07-01T10:16:16Z","tz":1,"tags":{"climbing:bolted":"yes","climbing:quality":"solid","climbing:rock":"limestone","climbing:sport":"yes","climbing:trad":"yes","height":"12","name":"Mały Mur","natural":"bare_rock","rock":"limestone","source":"knowledge","sport":"climbing"}},"332595379":{"lat":50.2010619,"lon":19.7701625,"ts":"2015-03-13T21:25:35Z","tz":1,"tags":{"height":"12","leisure":"climbing","name":"Mały Mur","natural":"cliff","rock":"limestone","source":"knowledge","sport":"climbing"}},"332595380":{"lat":50.2007707,"lon":19.7702428,"ts":"2015-03-13T21:25:35Z","tz":1,"tags":{"height":"10","leisure":"climbing","name":"Mały Mur","natural":"cliff","rock":"limestone","source":"knowledge","sport":"climbing"}},"332595381":{"lat":50.2006247,"lon":19.7704207,"ts":"2015-03-13T21:25:35Z","tz":1,"tags":{"height":"12","leisure":"climbing","name":"Mały Mur","natural":"cliff","rock":"limestone","source":"knowledge","sport":"climbing"}},"332595382":{"lat":50.2025891,"lon":19.7637284,"ts":"2020-12-27T16:10:01Z","tz":1,"tags":{"height":"12","leisure":"climbing","name":"Mały Okap","natural":"cliff","rock":"limestone","source":"knowledge","sport":"climbing"}},"332595383":{"lat":50.1973809,"lon":19.7831824,"ts":"2015-03-13T21:25:36Z","tz":1,"tags":{"height":"12","leisure":"climbing","name":"Mniszek","natural":"cliff","rock":"limestone","source":"knowledge","sport":"climbing"}},"332595385":{"lat":50.1998123,"lon":19.7691674,"ts":"2015-03-13T21:25:36Z","tz":1,"tags":{"height":"20","leisure":"climbing","name":"Ogródek Altruisty","natural":"cliff","rock":"limestone","source":"knowledge","sport":"climbing"}},"332595386":{"lat":50.2011635,"lon":19.7702643,"ts":"2015-03-13T21:25:36Z","tz":1,"tags":{"climbing:bolted":"yes","climbing:quality":"solid","climbing:rock":"limestone","climbing:sport":"yes","climbing:trad":"yes","height":"15","name":"Ostry Kamień","natural":"bare_rock","rock":"limestone","source":"knowledge","sport":"climbing"}},"332595387":{"lat":50.2025156,"lon":19.7707599,"ts":"2015-03-13T21:25:37Z","tz":1,"tags":{"climbing:quality":"solid","climbing:rock":"limestone","climbing:trad":"yes","height":"10","name":"Palec","natural":"bare_rock","rock":"limestone","source":"knowledge","sport":"climbing"}},"332595388":{"lat":50.1998931,"lon":19.7694304,"ts":"2015-03-13T21:25:37Z","tz":1,"tags":{"height":"18","leisure":"climbing","name":"Patelnia","natural":"cliff","rock":"limestone","source":"knowledge","sport":"climbing"}},"332595389":{"lat":50.2027865,"lon":19.7642894,"ts":"2015-03-13T21:25:37Z","tz":1,"tags":{"height":"25","leisure":"climbing","name":"Pielgrzymka","natural":"cliff","rock":"limestone","source":"knowledge","sport":"climbing"}},"332595390":{"lat":50.1999077,"lon":19.7700876,"ts":"2015-03-13T21:25:37Z","tz":1,"tags":{"height":"12","leisure":"climbing","name":"Pokutnik","natural":"cliff","rock":"limestone","source":"knowledge","sport":"climbing"}},"332595391":{"lat":50.1999141,"lon":19.7700876,"ts":"2015-03-13T21:25:37Z","tz":1,"tags":{"climbing:bolted":"yes","climbing:quality":"solid","climbing:rock":"limestone","climbing:sport":"yes","climbing:trad":"yes","height":"12","name":"Pokutnik","natural":"bare_rock","rock":"limestone","source":"knowledge","sport":"climbing"}},"332595392":{"lat":50.2032133,"lon":19.7715307,"ts":"2024-07-01T10:16:16Z","tz":1,"tags":{"climbing:bolted":"yes","climbing:quality":"solid","climbing:rock":"limestone","climbing:sport":"yes","height":"9","name":"Polna Skałka","natural":"bare_rock","rock":"limestone","source":"knowledge","sport":"climbing"}},"332595393":{"lat":50.1976993,"lon":19.7832269,"ts":"2015-03-13T21:25:38Z","tz":1,"tags":{"height":"16","leisure":"climbing","name":"Psi Filar","natural":"cliff","rock":"limestone","source":"knowledge","sport":"climbing"}},"332595395":{"lat":50.1978996,"lon":19.7834291,"ts":"2015-03-13T21:25:38Z","tz":1,"tags":{"height":"18","leisure":"climbing","name":"Psi Płot","natural":"cliff","rock":"limestone","source":"knowledge","sport":"climbing"}},"332595396":{"lat":50.1975232,"lon":19.7831994,"ts":"2020-03-04T11:46:44Z","tz":1,"tags":{"height":"16","leisure":"climbing","name":"Psia Ścianka","natural":"cliff","rock":"limestone","source":"knowledge","sport":"climbing"}},"332595397":{"lat":50.1979324,"lon":19.7834644,"ts":"2020-03-04T11:46:44Z","tz":1,"tags":{"climbing:bolted":"yes","climbing:quality":"solid","climbing:rock":"limestone","climbing:sport":"yes","climbing:trad":"yes","height":"18","name":"Psiklatka","natural":"bare_rock","rock":"limestone","source":"knowledge","sport":"climbing"}},"332595398":{"lat":50.1975585,"lon":19.783245,"ts":"2015-03-13T21:25:39Z","tz":1,"tags":{"climbing:bolted":"yes","climbing:quality":"solid","climbing:rock":"limestone","climbing:sport":"yes","climbing:trad":"yes","height":"16","name":"Psiklatka","natural":"bare_rock","rock":"limestone","source":"knowledge","sport":"climbing"}},"332595399":{"lat":50.1976993,"lon":19.7832317,"ts":"2015-03-13T21:25:39Z","tz":1,"tags":{"climbing:bolted":"yes","climbing:quality":"solid","climbing:rock":"limestone","climbing:sport":"yes","climbing:trad":"yes","height":"18","name":"Psiklatka","natural":"bare_rock","rock":"limestone","source":"knowledge","sport":"climbing"}},"332595401":{"lat":50.1998547,"lon":19.7696944,"ts":"2020-03-02T22:05:12Z","tz":1,"tags":{"climbing:bolted":"yes","climbing:quality":"solid","climbing:rock":"limestone","climbing:sport":"yes","climbing:trad":"yes","height":"14","name":"Rekin","natural":"bare_rock","rock":"limestone","source":"knowledge","sport":"climbing"}},"332595403":{"lat":50.1998387,"lon":19.7697078,"ts":"2020-03-02T22:05:12Z","tz":1,"tags":{"height":"14","leisure":"climbing","name":"Rekin","natural":"cliff","rock":"limestone","source":"knowledge","sport":"climbing"}},"332595405":{"lat":50.1999735,"lon":19.7700409,"ts":"2015-03-13T21:25:40Z","tz":1,"tags":{"height":"12","leisure":"climbing","name":"Ukwiał","natural":"cliff","rock":"limestone","source":"knowledge","sport":"climbing"}},"332595406":{"lat":50.2000759,"lon":19.7697193,"ts":"2024-07-01T10:16:16Z","tz":1,"tags":{"climbing:bolted":"yes","climbing:quality":"solid","climbing:rock":"limestone","climbing:sport":"yes","climbing:trad":"yes","height":"20","name":"Wzgórze 502","natural":"bare_rock","rock":"limestone","source":"knowledge","sport":"climbing","url":"https://www.youtube.com/watch?v=-frRwbJCm3w&t=0s"}},"332595412":{"lat":50.2028491,"lon":19.7640169,"ts":"2020-12-27T16:10:01Z","tz":1,"tags":{"climbing:bolted":"yes","climbing:quality":"solid","climbing:rock":"limestone","climbing:sport":"yes","climbing:trad":"yes","height":"26","name":"Łysa (Fiala)","natural":"bare_rock","rock":"limestone","source":"knowledge","sport":"climbing"}},"332645791":{"lat":50.189284,"lon":19.7688298,"ts":"2019-01-21T17:46:52Z","tz":1,"tags":{"climbing:bolted":"yes","climbing:grade:polish:max":"VI.4+","climbing:grade:polish:min":"V","climbing:length":"20","climbing:quality":"solid","climbing:rock":"limestone","climbing:routes":"13","climbing:sport":"yes","height":"20","name":"Dwie Wieże","natural":"bare_rock","rock":"limestone","source":"knowledge","sport":"climbing","url":"http://topo.wspinka.org/grupa-wielkiej-turni/dwie-wieze"}},"332645792":{"lat":50.189323,"lon":19.7688699,"ts":"2015-03-14T10:06:37Z","tz":1,"tags":{"height":"18","leisure":"climbing","name":"Dwie Wieże","natural":"cliff","rock":"limestone","source":"knowledge","sport":"climbing"}},"332645793":{"lat":50.1892795,"lon":19.7688102,"ts":"2019-01-21T17:46:52Z","tz":1,"tags":{"height":"20","leisure":"climbing","name":"Dwie Wieże","natural":"cliff","rock":"limestone","source":"knowledge","sport":"climbing"}},"332645794":{"lat":50.1891485,"lon":19.7684012,"ts":"2019-02-03T09:50:47Z","tz":1,"tags":{"climbing:bolted":"yes","climbing:grade:polish:max":"VI+","climbing:grade:polish:min":"V","climbing:length":"15","climbing:quality":"solid","climbing:rock":"limestone","climbing:routes":"4","climbing:sport":"yes","height":"18","name":"Fraszka","natural":"bare_rock","rock":"limestone","source":"knowledge","sport":"climbing","url":"http://topo.wspinka.org/grupa-wielkiej-turni/fraszka"}},"332645795":{"lat":50.1891282,"lon":19.7684196,"ts":"2019-02-03T09:50:48Z","tz":1,"tags":{"height":"15","leisure":"climbing","name":"Fraszka","natural":"cliff","rock":"limestone","source":"knowledge","sport":"climbing"}},"332645796":{"lat":50.1890174,"lon":19.7683439,"ts":"2015-03-14T10:06:38Z","tz":1,"tags":{"height":"15","leisure":"climbing","name":"Jebel","natural":"cliff","rock":"limestone","source":"knowledge","sport":"climbing"}},"332645797":{"lat":50.1890145,"lon":19.7683635,"ts":"2019-02-03T09:50:48Z","tz":1,"tags":{"climbing:bolted":"yes","climbing:grade:polish:max":"VI.2","climbing:grade:polish:min":"V","climbing:length":"15","climbing:quality":"solid","climbing:rock":"limestone","climbing:routes":"5","climbing:sport":"yes","height":"16","name":"Jebel","natural":"bare_rock","rock":"limestone","source":"knowledge","sport":"climbing","url":"http://topo.wspinka.org/grupa-wielkiej-turni/jebel"}},"332645798":{"lat":50.1894183,"lon":19.7700108,"ts":"2015-03-14T10:06:39Z","tz":1,"tags":{"height":"12","leisure":"climbing","name":"Mała Turnia","natural":"cliff","rock":"limestone","source":"knowledge","sport":"climbing"}},"332645799":{"lat":50.1894183,"lon":19.7700108,"ts":"2015-03-14T10:06:39Z","tz":1,"tags":{"climbing:bolted":"yes","climbing:grade:polish:max":"VI.4+","climbing:grade:polish:min":"V","climbing:length":"12","climbing:quality":"solid","climbing:rock":"limestone","climbing:routes":"9","climbing:sport":"yes","climbing:trad":"yes","height":"12","name":"Mała Turnia","natural":"bare_rock","rock":"limestone","source":"knowledge","sport":"climbing","url":"http://topo.wspinka.org/grupa-wielkiej-turni/mala-turnia"}},"332645801":{"lat":50.1893247,"lon":19.768289,"ts":"2019-02-03T09:50:48Z","tz":1,"tags":{"height":"10","leisure":"climbing","name":"Misiaczek","natural":"cliff","rock":"limestone","source":"knowledge","sport":"climbing"}},"332645803":{"lat":50.1893232,"lon":19.7684159,"ts":"2019-02-03T09:50:48Z","tz":1,"tags":{"climbing:bolted":"yes","climbing:grade:polish:max":"VI+","climbing:grade:polish:min":"III","climbing:length":"10","climbing:quality":"solid","climbing:rock":"limestone","climbing:routes":"6","climbing:sport":"yes","climbing:trad":"yes","height":"10","name":"Misiaczek","natural":"bare_rock","rock":"limestone","source":"knowledge","sport":"climbing","url":"http://topo.wspinka.org/grupa-wielkiej-turni/misiaczek"}},"332645806":{"lat":50.1894398,"lon":19.7686269,"ts":"2015-03-14T10:06:40Z","tz":1,"tags":{"height":"23","leisure":"climbing","name":"Mur Skwirczyńskiego","natural":"cliff","rock":"limestone","source":"knowledge","sport":"climbing"}},"332645807":{"lat":50.1894097,"lon":19.7686205,"ts":"2015-03-14T10:06:40Z","tz":1,"tags":{"climbing:bolted":"yes","climbing:grade:polish:max":"VI.1+","climbing:grade:polish:min":"III","climbing:length":"23","climbing:quality":"solid","climbing:rock":"limestone","climbing:routes":"21","climbing:sport":"yes","height":"25","name":"Mur Skwirczyńskiego","natural":"bare_rock","rock":"limestone","source":"knowledge","sport":"climbing","url":"http://topo.wspinka.org/grupa-wielkiej-turni/mur-skwirczynskiego"}},"332645808":{"lat":50.1894154,"lon":19.7695934,"ts":"2020-04-06T01:24:29Z","tz":1,"tags":{"height":"45","leisure":"climbing","name":"Wielka Turnia","natural":"cliff","rock":"limestone","source":"knowledge","sport":"climbing"}},"332645809":{"lat":50.1894154,"lon":19.7695934,"ts":"2020-04-06T01:24:29Z","tz":1,"tags":{"climbing:bolted":"yes","climbing:grade:polish:max":"VI.5+","climbing:grade:polish:min":"IV","climbing:length":"43","climbing:multipitch":"yes","climbing:quality":"solid","climbing:rock":"limestone","climbing:routes":"55","climbing:sport":"yes","height":"45","name":"Wielka Turnia","natural":"bare_rock","rock":"limestone","source":"knowledge","sport":"climbing","url":"http://topo.wspinka.org/grupa-wielkiej-turni/wielka-turnia"}},"332645810":{"lat":50.1884208,"lon":19.768808,"ts":"2019-01-21T17:46:53Z","tz":1,"tags":{"climbing:bolted":"yes","climbing:grade:polish:max":"VI.4+","climbing:grade:polish:min":"IV","climbing:length":"12","climbing:quality":"solid","climbing:rock":"limestone","climbing:routes":"21","climbing:sport":"yes","climbing:trad":"yes","height":"14","name":"Zaklęty Bastion","natural":"bare_rock","rock":"limestone","source":"knowledge","sport":"climbing","url":"http://topo.wspinka.org/grupa-wielkiej-turni/zaklety-bastion"}},"332645811":{"lat":50.1884208,"lon":19.7687473,"ts":"2015-03-14T10:06:41Z","tz":1,"tags":{"height":"12","leisure":"climbing","name":"Zaklęty Bastion","natural":"cliff","rock":"limestone","source":"knowledge","sport":"climbing"}},"332645812":{"lat":50.1893921,"lon":19.7690944,"ts":"2019-01-21T17:46:53Z","tz":1,"tags":{"climbing:bolted":"yes","climbing:grade:polish:max":"VI.1+","climbing:grade:polish:min":"IV","climbing:length":"50","climbing:multipitch":"yes","climbing:quality":"solid","climbing:rock":"limestone","climbing:routes":"12","climbing:sport":"yes","height":"50","name":"Średnik","natural":"bare_rock","rock":"limestone","source":"knowledge","sport":"climbing","url":"http://topo.wspinka.org/grupa-wielkiej-turni/srednik"}},"332645818":{"lat":50.1894326,"lon":19.769154,"ts":"2019-01-21T17:46:54Z","tz":1,"tags":{"height":"50","leisure":"climbing","name":"Średnik","natural":"cliff","rock":"limestone","source":"knowledge","sport":"climbing"}},"332724861":{"lat":50.1919549,"lon":19.7795004,"ts":"2024-01-16T12:23:58Z","tz":1,"tags":{"climbing:bolted":"yes","climbing:grade:polish:max":"VI.2","climbing:grade:polish:min":"IV+","climbing:length":"15","climbing:quality":"solid","climbing:rock":"limestone","climbing:routes":"5","climbing:sport":"yes","climbing:trad":"yes","height":"15","name":"Górne Tomaszówki","natural":"bare_rock","rock":"limestone","source":"knowledge","sport":"climbing"}},"332724866":{"lat":50.1920176,"lon":19.7795512,"ts":"2024-01-16T12:23:58Z","tz":1,"tags":{"height":"14","leisure":"climbing","name":"Górne Tomaszówki","natural":"cliff","rock":"limestone","source":"knowledge","sport":"climbing"}},"333384273":{"lat":50.2321048,"lon":19.6989371,"ts":"2015-04-13T18:53:49Z","tz":1,"tags":{"climbing:bolted":"yes","climbing:quality":"fragile","climbing:rock":"limestone","climbing:sport":"yes","height":"12","name":"Skotnicowa Skała","natural":"bare_rock","rock":"limestone","source":"knowledge","sport":"climbing"}},"334200077":{"lat":50.2066029,"lon":19.7259646,"ts":"2015-03-22T16:53:56Z","tz":1,"tags":{"height":"12","leisure":"climbing","name":"Dziewczynka","natural":"cliff","rock":"limestone","source":"knowledge","sport":"climbing"}},"334476501":{"lat":50.2058264,"lon":19.7275684,"ts":"2015-03-24T11:22:20Z","tz":1,"tags":{"climbing:bolted":"yes","climbing:length":"8","climbing:quality":"solid","climbing:rock":"limestone","climbing:routes":"2","climbing:sport":"yes","height":"10","name":"Płot","natural":"bare_rock","rock":"limestone","source":"knowledge","sport":"climbing"}},"334476502":{"lat":50.2058191,"lon":19.7275689,"ts":"2015-03-24T11:22:20Z","tz":1,"tags":{"height":"8","leisure":"climbing","name":"Płot","natural":"cliff","rock":"limestone","source":"knowledge","sport":"climbing"}},"335182762":{"lat":50.203202,"lon":19.7715226,"ts":"2024-07-01T10:16:16Z","tz":1,"tags":{"height":"9","leisure":"climbing","name":"Polna Skałka","natural":"cliff","rock":"limestone","source":"knowledge","sport":"climbing"}},"337236172":{"lat":50.1776702,"lon":19.7169362,"ts":"2015-04-07T19:22:18Z","tz":1,"tags":{"height":"45","leisure":"climbing","name":"Brodło","natural":"cliff","rock":"limestone","source":"knowledge","sport":"climbing"}},"337236173":{"lat":50.1775249,"lon":19.7168378,"ts":"2015-04-07T19:22:18Z","tz":1,"tags":{"height":"35","leisure":"climbing","name":"Brodło","natural":"cliff","rock":"limestone","source":"knowledge","sport":"climbing"}},"337236174":{"lat":50.1774944,"lon":19.7170237,"ts":"2015-04-07T19:22:18Z","tz":1,"tags":{"height":"25","leisure":"climbing","name":"Brodło","natural":"cliff","rock":"limestone","source":"knowledge","sport":"climbing"}},"338368327":{"lat":50.2320901,"lon":19.6989371,"ts":"2015-04-13T18:53:45Z","tz":1,"tags":{"height":"10","leisure":"climbing","name":"Skotnicowa","natural":"cliff","rock":"limestone","source":"knowledge","sport":"climbing"}},"338536652":{"lat":50.2008603,"lon":19.7258127,"ts":"2015-04-14T20:38:13Z","tz":1,"tags":{"height":"12","leisure":"climbing","name":"Witkowy Filar","natural":"cliff","rock":"limestone","source":"knowledge","sport":"climbing"}},"338536655":{"lat":50.1988614,"lon":19.7252184,"ts":"2015-04-21T17:33:18Z","tz":1,"tags":{"height":"20","leisure":"climbing","name":"Łysa","natural":"cliff","rock":"limestone","source":"knowledge","sport":"climbing"}},"338536659":{"lat":50.19894,"lon":19.7255493,"ts":"2015-04-21T17:33:19Z","tz":1,"tags":{"height":"14","leisure":"climbing","name":"Łyse Baszty","natural":"cliff","rock":"limestone","source":"knowledge","sport":"climbing"}},"338536663":{"lat":50.1989124,"lon":19.7253359,"ts":"2015-04-14T20:38:14Z","tz":1,"tags":{"height":"16","leisure":"climbing","name":"Łyse Plecy","natural":"cliff","rock":"limestone","source":"knowledge","sport":"climbing"}},"338536665":{"lat":50.1989461,"lon":19.7251197,"ts":"2019-10-12T15:10:43Z","tz":1,"tags":{"height":"15","name":"Łyse Plecy","natural":"cliff","rock":"limestone","source":"knowledge","sport":"climbing"}},"338536666":{"lat":50.1988172,"lon":19.725834,"ts":"2019-10-12T15:10:43Z","tz":1,"tags":{"height":"8","name":"Łysy Ząb 2","natural":"cliff","rock":"limestone","source":"knowledge","sport":"climbing"}},"338536667":{"lat":50.1988604,"lon":19.7258848,"ts":"2015-04-14T20:38:14Z","tz":1,"tags":{"height":"8","leisure":"climbing","name":"Łysy Ząb 1","natural":"cliff","rock":"limestone","source":"knowledge","sport":"climbing"}},"338536668":{"lat":50.1987312,"lon":19.7257913,"ts":"2019-10-12T15:10:43Z","tz":1,"tags":{"height":"10","name":"Łysy Ząb 3","natural":"cliff","rock":"limestone","source":"knowledge","sport":"climbing"}},"338536669":{"lat":50.1986618,"lon":19.7256901,"ts":"2019-10-12T15:10:43Z","tz":1,"tags":{"height":"12","name":"Łysy Ząb 4","natural":"cliff","rock":"limestone","source":"knowledge","sport":"climbing"}},"339306716":{"lat":50.2006417,"lon":19.725074,"ts":"2015-04-19T08:36:57Z","tz":1,"tags":{"height":"20","leisure":"climbing","name":"Bukowy Filar","natural":"cliff","rock":"limestone","source":"knowledge","sport":"climbing"}},"339306717":{"lat":50.2004756,"lon":19.7251484,"ts":"2015-04-19T08:36:58Z","tz":1,"tags":{"height":"10","leisure":"climbing","name":"Muminek","natural":"cliff","rock":"limestone","source":"knowledge","sport":"climbing"}},"339306718":{"lat":50.2005173,"lon":19.7248855,"ts":"2015-04-19T08:36:58Z","tz":1,"tags":{"height":"18","leisure":"climbing","name":"Ptasia Turnia","natural":"cliff","rock":"limestone","source":"knowledge","sport":"climbing"}},"339306720":{"lat":50.2005545,"lon":19.724955,"ts":"2015-04-19T08:36:58Z","tz":1,"tags":{"height":"12","leisure":"climbing","name":"Ruda","natural":"cliff","rock":"limestone","source":"knowledge","sport":"climbing"}},"339306723":{"lat":50.2006121,"lon":19.7248691,"ts":"2015-04-19T08:36:58Z","tz":1,"tags":{"height":"16","leisure":"climbing","name":"Sokolik","natural":"cliff","rock":"limestone","source":"knowledge","sport":"climbing"}},"339306726":{"lat":50.2004824,"lon":19.7252401,"ts":"2015-04-19T08:36:58Z","tz":1,"tags":{"height":"10","leisure":"climbing","name":"Wielka Witkowa","natural":"cliff","rock":"limestone","source":"knowledge","sport":"climbing"}},"339306728":{"lat":50.2006054,"lon":19.7252496,"ts":"2015-04-19T08:36:58Z","tz":1,"tags":{"height":"12","leisure":"climbing","name":"Wielka Witkowa","natural":"cliff","rock":"limestone","source":"knowledge","sport":"climbing"}},"339306731":{"lat":50.2005594,"lon":19.725149,"ts":"2015-04-19T08:36:58Z","tz":1,"tags":{"height":"15","leisure":"climbing","name":"Wielka Witkowa","natural":"cliff","rock":"limestone","source":"knowledge","sport":"climbing"}},"339407619":{"lat":50.1979333,"lon":19.7193615,"ts":"2019-10-12T15:10:43Z","tz":1,"tags":{"height":"10","name":"Baraszki","natural":"cliff","rock":"limestone","source":"knowledge","sport":"climbing"}},"339407620":{"lat":50.1978026,"lon":19.7193593,"ts":"2019-10-12T15:10:43Z","tz":1,"tags":{"height":"12","name":"Baraszki","natural":"cliff","rock":"limestone","source":"knowledge","sport":"climbing"}},"339407621":{"lat":50.1980865,"lon":19.7192642,"ts":"2024-07-01T08:50:19Z","tz":1,"tags":{"height":"18","name":"Chochoły","natural":"cliff","rock":"limestone","source":"knowledge","sport":"climbing"}},"339407622":{"lat":50.1983869,"lon":19.7189289,"ts":"2024-07-01T08:50:19Z","tz":1,"tags":{"height":"12","name":"Fujarki","natural":"cliff","rock":"limestone","source":"knowledge","sport":"climbing"}},"339407623":{"lat":50.1981724,"lon":19.7191504,"ts":"2019-10-12T15:10:43Z","tz":1,"tags":{"height":"15","name":"Graficzna Baszta","natural":"cliff","rock":"limestone","source":"knowledge","sport":"climbing"}},"339407624":{"lat":50.1985866,"lon":19.7188826,"ts":"2019-10-12T15:10:43Z","tz":1,"tags":{"height":"12","name":"Mur Ogrodników","natural":"cliff","rock":"limestone","source":"knowledge","sport":"climbing"}},"339407625":{"lat":50.1982934,"lon":19.718941,"ts":"2019-10-12T15:10:43Z","tz":1,"tags":{"height":"10","name":"Omszała Turniczka","natural":"cliff","rock":"limestone","source":"knowledge","sport":"climbing"}},"339407626":{"lat":50.1980231,"lon":19.7194636,"ts":"2024-07-01T08:50:19Z","tz":1,"tags":{"height":"18","name":"Skała Krzyżowa","natural":"cliff","rock":"limestone","source":"knowledge","sport":"climbing"}},"339499973":{"lat":50.1851252,"lon":19.7535732,"ts":"2024-07-01T10:39:51Z","tz":1,"tags":{"climbing:grade:polish:max":"VI+","climbing:grade:polish:min":"IV","climbing:length":"14","climbing:quality":"solid","climbing:rock":"limestone","climbing:routes":"15","climbing:trad":"yes","height":"14","name":"Zbędowa Skała","natural":"bare_rock","rock":"limestone","source":"knowledge","sport":"climbing"}},"339499974":{"lat":50.1880491,"lon":19.7527891,"ts":"2015-04-20T06:23:26Z","tz":1,"tags":{"climbing:bolted":"yes","climbing:grade:polish:max":"VI.1+","climbing:grade:polish:min":"IV","climbing:length":"12","climbing:quality":"solid","climbing:rock":"limestone","climbing:routes":"7","climbing:sport":"yes","climbing:trad":"yes","height":"12","name":"Zbędowy Murek","natural":"bare_rock","rock":"limestone","source":"knowledge","sport":"climbing"}},"339499975":{"lat":50.1879718,"lon":19.7527646,"ts":"2015-04-20T06:23:26Z","tz":1,"tags":{"height":"12","leisure":"climbing","name":"Zbędowy Murek","natural":"cliff","rock":"limestone","source":"knowledge","sport":"climbing"}},"339501757":{"lat":50.185124,"lon":19.7535732,"ts":"2024-07-01T10:39:51Z","tz":1,"tags":{"height":"14","leisure":"climbing","name":"Zbędowa Skała","natural":"cliff","rock":"limestone","source":"knowledge","sport":"climbing"}},"340318626":{"lat":50.2261328,"lon":19.8304129,"ts":"2024-06-15T15:49:06Z","tz":1,"tags":{"climbing:quality":"solid","climbing:rock":"limestone","height":"18","name":"Pochylec 2","natural":"bare_rock","rock":"limestone","source":"knowledge","sport":"climbing"}},"340318627":{"lat":50.226462,"lon":19.8306509,"ts":"2024-07-01T07:51:55Z","tz":1,"tags":{"height":"25","leisure":"climbing","name":"Pochylec","natural":"cliff","rock":"limestone","source":"knowledge","sport":"climbing","wikidata":"Q97162446","wikipedia":"pl:Pochylec"}},"340318628":{"lat":50.2264517,"lon":19.8306181,"ts":"2024-07-01T07:51:55Z","tz":1,"tags":{"climbing:bolted":"yes","climbing:quality":"solid","climbing:rock":"limestone","climbing:sport":"yes","height":"25","name":"Pochylec","natural":"bare_rock","rock":"limestone","source":"knowledge","sport":"climbing","wikidata":"Q97162446","wikipedia":"pl:Pochylec"}},"462391556":{"lat":50.1561653,"lon":19.9199498,"ts":"2016-12-28T18:00:03Z","tz":1,"tags":{"height":"15","leisure":"climbing","name":"Patrol Garliczka","natural":"cliff","rock":"limestone","source":"knowledge","sport":"climbing"}},"462391562":{"lat":50.1561653,"lon":19.919965,"ts":"2016-12-28T18:00:03Z","tz":1,"tags":{"climbing:bolted":"yes","climbing:grade:polish:max":"VI.3","climbing:grade:polish:min":"V+","climbing:length":"15","climbing:quality":"solid","climbing:rock":"limestone","climbing:routes":"8","climbing:sport":"yes","height":"16","name":"Patrol Garliczka","natural":"bare_rock","rock":"limestone","source":"knowledge","sport":"climbing","url":"https://topo.wspinka.org/dolina-naramki-garliczki/patrol-garliczka"}},"462391573":{"lat":50.1577889,"lon":19.9199437,"ts":"2016-12-28T18:00:03Z","tz":1,"tags":{"height":"20","leisure":"climbing","name":"Kapitan Garliczka","natural":"cliff","rock":"limestone","source":"knowledge","sport":"climbing"}},"462391576":{"lat":50.1577686,"lon":19.9199736,"ts":"2019-12-09T08:55:48Z","tz":1,"tags":{"climbing:bolted":"yes","climbing:grade:polish:max":"VI.3+","climbing:grade:polish:min":"V","climbing:length":"20","climbing:quality":"solid","climbing:rock":"limestone","climbing:routes":"13","climbing:sport":"yes","height":"22","name":"Kapitan Garliczka","natural":"bare_rock","rock":"limestone","source":"knowledge","sport":"climbing","url":"https://topo.wspinka.org/dolina-naramki-garliczki/kapitan-garliczka"}},"462391613":{"lat":50.1472779,"lon":19.8941122,"ts":"2016-12-28T18:00:05Z","tz":1,"tags":{"height":"15","leisure":"climbing","name":"Skała w Januszowicach","natural":"cliff","rock":"limestone","source":"knowledge","sport":"climbing"}},"462391616":{"lat":50.1474621,"lon":19.8939362,"ts":"2016-12-28T18:00:05Z","tz":1,"tags":{"height":"12","leisure":"climbing","name":"Skała w Januszowicach","natural":"cliff","rock":"limestone","source":"knowledge","sport":"climbing"}},"462391619":{"lat":50.1473117,"lon":19.8941015,"ts":"2024-07-01T07:53:23Z","tz":1,"tags":{"climbing:bolted":"yes","climbing:grade:polish:max":"VI.4+","climbing:grade:polish:min":"IV","climbing:length":"15","climbing:quality":"solid","climbing:rock":"limestone","climbing:routes":"11","climbing:sport":"yes","climbing:trad":"yes","height":"16","name":"Skała w Januszowicach","natural":"bare_rock","rock":"limestone","source":"knowledge","sport":"climbing","url":"https://topo.wspinka.org/dolina-pradnika/skala-w-januszowicach"}},"464175919":{"lat":50.1052671,"lon":19.6967377,"ts":"2017-01-06T19:36:23Z","tz":1,"tags":{"height":"10","leisure":"climbing","name":"Kubincowa Igła","natural":"cliff","rock":"limestone","source":"knowledge","sport":"climbing"}},"464175920":{"lat":50.1052671,"lon":19.6967242,"ts":"2017-01-06T19:36:23Z","tz":1,"tags":{"climbing:bolted":"yes","climbing:grade:polish:max":"VI.2+","climbing:grade:polish:min":"IV","climbing:length":"10","climbing:quality":"solid","climbing:rock":"limestone","climbing:routes":"3","climbing:sport":"yes","climbing:trad":"yes","height":"10","name":"Kubincowa Igła","natural":"bare_rock","rock":"limestone","source":"knowledge","sport":"climbing","url":"https://topo.wspinka.org/dolina-nielepicka/kubincowa-igla"}},"464175921":{"lat":50.1052154,"lon":19.6966451,"ts":"2017-01-06T19:36:23Z","tz":1,"tags":{"height":"16","leisure":"climbing","name":"Kubincowa Skała","natural":"cliff","rock":"limestone","source":"knowledge","sport":"climbing"}},"464175922":{"lat":50.105148,"lon":19.6964463,"ts":"2019-03-12T19:47:37Z","tz":1,"tags":{"height":"15","leisure":"climbing","name":"Kubincowa Skała","natural":"cliff","rock":"limestone","source":"knowledge","sport":"climbing"}},"464175923":{"lat":50.1051202,"lon":19.6965506,"ts":"2019-03-12T19:47:37Z","tz":1,"tags":{"climbing:bolted":"yes","climbing:grade:polish:max":"VI+","climbing:grade:polish:min":"V","climbing:length":"15","climbing:quality":"solid","climbing:rock":"limestone","climbing:routes":"6","climbing:sport":"yes","climbing:trad":"yes","height":"18","name":"Kubincowa Skała","natural":"bare_rock","rock":"limestone","source":"knowledge","sport":"climbing","url":"https://topo.wspinka.org/dolina-nielepicka/kubincowa-skala"}},"464175924":{"lat":50.105253,"lon":19.6964737,"ts":"2019-03-12T19:47:37Z","tz":1,"tags":{"height":"18","leisure":"climbing","name":"Kubincowa Baszta","natural":"cliff","rock":"limestone","source":"knowledge","sport":"climbing"}},"464175925":{"lat":50.1052721,"lon":19.6964737,"ts":"2019-03-12T19:47:37Z","tz":1,"tags":{"climbing:bolted":"yes","climbing:grade:polish:max":"VI.4+","climbing:grade:polish:min":"III","climbing:length":"18","climbing:quality":"solid","climbing:rock":"limestone","climbing:routes":"17","climbing:sport":"yes","climbing:trad":"yes","height":"20","name":"Kubincowa Baszta","natural":"bare_rock","rock":"limestone","source":"knowledge","sport":"climbing","url":"https://topo.wspinka.org/dolina-nielepicka/kubincowa-baszta"}},"464195063":{"lat":50.1615046,"lon":19.8283966,"ts":"2017-01-06T21:15:47Z","tz":1,"tags":{"height":"18","leisure":"climbing","name":"Zamkowa Skała IV","natural":"cliff","rock":"limestone","source":"knowledge","sport":"climbing"}},"464195064":{"lat":50.1614231,"lon":19.8284401,"ts":"2017-01-06T21:15:47Z","tz":1,"tags":{"height":"14","leisure":"climbing","name":"Zamkowa Skała III","natural":"cliff","rock":"limestone","source":"knowledge","sport":"climbing"}},"464195065":{"lat":50.1613721,"lon":19.8284049,"ts":"2017-01-06T21:15:47Z","tz":1,"tags":{"height":"18","leisure":"climbing","name":"Zamkowa Skała II","natural":"cliff","rock":"limestone","source":"knowledge","sport":"climbing"}},"464195066":{"lat":50.1612104,"lon":19.8284628,"ts":"2017-01-06T21:15:47Z","tz":1,"tags":{"height":"15","leisure":"climbing","name":"Zamkowa Skała I","natural":"cliff","rock":"limestone","source":"knowledge","sport":"climbing"}},"464195067":{"lat":50.1604634,"lon":19.8291817,"ts":"2017-01-06T21:15:47Z","tz":1,"tags":{"height":"16","leisure":"climbing","name":"Zamkowa Strażnica","natural":"cliff","rock":"limestone","source":"knowledge","sport":"climbing"}},"464195068":{"lat":50.1604596,"lon":19.8292455,"ts":"2017-01-06T21:15:48Z","tz":1,"tags":{"climbing:bolted":"yes","climbing:grade:polish:max":"VI.2+","climbing:grade:polish:min":"V","climbing:length":"16","climbing:quality":"solid","climbing:rock":"limestone","climbing:routes":"8","climbing:sport":"yes","climbing:trad":"yes","height":"18","name":"Zamkowa Strażnica","natural":"bare_rock","rock":"limestone","source":"knowledge","sport":"climbing","url":"https://topo.wspinka.org/dolina-kluczwody/zamkowa-straznica"}},"464195069":{"lat":50.1612243,"lon":19.8285506,"ts":"2017-01-06T21:15:48Z","tz":1,"tags":{"climbing:quality":"solid","climbing:rock":"limestone","height":"15","name":"Zamkowa Skała I","natural":"bare_rock","rock":"limestone","source":"knowledge","sport":"climbing"}},"464195070":{"lat":50.1613466,"lon":19.8284443,"ts":"2017-01-06T21:15:48Z","tz":1,"tags":{"climbing:quality":"solid","climbing:rock":"limestone","height":"18","name":"Zamkowa Skała II","natural":"bare_rock","rock":"limestone","source":"knowledge","sport":"climbing"}},"464195071":{"lat":50.161417,"lon":19.82847,"ts":"2017-01-06T21:15:48Z","tz":1,"tags":{"climbing:quality":"solid","climbing:rock":"limestone","height":"18","name":"Zamkowa Skała III","natural":"bare_rock","rock":"limestone","source":"knowledge","sport":"climbing"}},"464195072":{"lat":50.1614996,"lon":19.8284671,"ts":"2017-01-06T21:15:48Z","tz":1,"tags":{"climbing:quality":"solid","climbing:rock":"limestone","height":"20","name":"Zamkowa Skała IV","natural":"bare_rock","rock":"limestone","source":"knowledge","sport":"climbing"}},"553257546":{"lat":50.171904,"lon":19.7418288,"ts":"2018-01-15T12:47:43Z","tz":1,"tags":{"height":"20","leisure":"climbing","name":"Sokolica","natural":"cliff","rock":"limestone","source":"knowledge","sport":"climbing"}},"553257547":{"lat":50.1718881,"lon":19.7420177,"ts":"2018-01-15T12:47:43Z","tz":1,"tags":{"height":"60","leisure":"climbing","name":"Sokolica","natural":"cliff","rock":"limestone","source":"knowledge","sport":"climbing"}},"553257548":{"lat":50.1722096,"lon":19.742232,"ts":"2024-08-15T22:26:34Z","tz":1,"tags":{"climbing:bolted":"yes","climbing:length":"60","climbing:multipitch":"yes","climbing:quality":"solid","climbing:rock":"limestone","climbing:sport":"yes","climbing:trad":"yes","height":"80","name":"Sokolica","natural":"bare_rock","rock":"limestone","source":"knowledge","sport":"climbing","url":"https://topo.wspinka.org/dolina-bedkowska/sokolica"}},"553257553":{"lat":50.1752848,"lon":19.7294851,"ts":"2018-01-15T12:47:44Z","tz":1,"tags":{"height":"24","leisure":"climbing","name":"Skała nad polaną","natural":"cliff","rock":"limestone","source":"knowledge","sport":"climbing"}},"553257555":{"lat":50.1752971,"lon":19.7295217,"ts":"2024-07-01T10:51:00Z","tz":1,"tags":{"climbing:bolted":"yes","climbing:length":"24","climbing:quality":"solid","climbing:rock":"limestone","climbing:routes":"5","climbing:sport":"yes","height":"25","name":"Skała nad polaną","natural":"bare_rock","rock":"limestone","source":"knowledge","sport":"climbing","url":"https://topo.wspinka.org/wawoz-przecowki/skala-nad-polana"}},"553330345":{"lat":50.1906017,"lon":19.7731103,"ts":"2018-01-15T18:50:11Z","tz":1,"tags":{"height":"12","leisure":"climbing","name":"Nawratilowa","natural":"cliff","rock":"limestone","source":"knowledge","sport":"climbing"}},"554612690":{"lat":50.1536996,"lon":19.6949476,"ts":"2018-01-21T08:56:46Z","tz":1,"tags":{"height":"13","leisure":"climbing","name":"Bramka","natural":"cliff","rock":"limestone","source":"knowledge","sport":"climbing"}},"554612691":{"lat":50.1537121,"lon":19.6949658,"ts":"2018-01-21T08:56:46Z","tz":1,"tags":{"climbing:bolted":"yes","climbing:length":"13","climbing:quality":"solid","climbing:rock":"limestone","climbing:routes":"2","climbing:sport":"yes","height":"15","name":"Bramka","natural":"bare_rock","rock":"limestone","source":"knowledge","sport":"climbing"}},"554612693":{"lat":50.1538073,"lon":19.6950852,"ts":"2018-01-21T08:56:46Z","tz":1,"tags":{"height":"12","leisure":"climbing","name":"Trybuna","natural":"cliff","rock":"limestone","source":"knowledge","sport":"climbing"}},"554612694":{"lat":50.1538029,"lon":19.6951051,"ts":"2018-01-21T08:56:47Z","tz":1,"tags":{"climbing:bolted":"yes","climbing:grade:polish:max":"VI.3","climbing:length":"12","climbing:quality":"solid","climbing:rock":"limestone","climbing:routes":"1","climbing:sport":"yes","height":"14","name":"Trybuna","natural":"bare_rock","rock":"limestone","source":"knowledge","sport":"climbing"}},"554612695":{"lat":50.1538642,"lon":19.694871,"ts":"2018-01-21T08:56:47Z","tz":1,"tags":{"climbing:quality":"solid","climbing:rock":"limestone","height":"10","name":"Piłka","natural":"bare_rock","rock":"limestone","source":"knowledge","sport":"climbing"}},"554612696":{"lat":50.1540741,"lon":19.6947157,"ts":"2018-01-21T08:56:47Z","tz":1,"tags":{"height":"14","leisure":"climbing","name":"Murawa","natural":"cliff","rock":"limestone","source":"knowledge","sport":"climbing"}},"554612697":{"lat":50.1540617,"lon":19.6947667,"ts":"2018-01-21T08:56:47Z","tz":1,"tags":{"climbing:bolted":"yes","climbing:grade:polish:max":"VI.2","climbing:grade:polish:min":"VI-","climbing:length":"14","climbing:quality":"solid","climbing:rock":"limestone","climbing:routes":"10","climbing:sport":"yes","height":"14","name":"Murawa","natural":"bare_rock","rock":"limestone","source":"knowledge","sport":"climbing","url":"https://topo.wspinka.org/skaly-nad-boiskiem/murawa"}},"554612698":{"lat":50.1541359,"lon":19.6946906,"ts":"2018-01-21T08:56:48Z","tz":1,"tags":{"height":"15","leisure":"climbing","name":"Jupiter","natural":"cliff","rock":"limestone","source":"knowledge","sport":"climbing"}},"554612699":{"lat":50.1541428,"lon":19.6947108,"ts":"2018-01-21T08:56:48Z","tz":1,"tags":{"climbing:bolted":"yes","climbing:grade:polish:max":"VI.2","climbing:grade:polish:min":"III","climbing:length":"15","climbing:quality":"solid","climbing:rock":"limestone","climbing:routes":"9","climbing:sport":"yes","height":"16","name":"Jupiter","natural":"bare_rock","rock":"limestone","source":"knowledge","sport":"climbing","url":"https://topo.wspinka.org/skaly-nad-boiskiem/jupiter"}},"554711956":{"lat":50.167457,"lon":19.7658299,"ts":"2018-01-21T19:32:38Z","tz":1,"tags":{"height":"12","leisure":"climbing","name":"Sękata Grzęda","natural":"cliff","rock":"limestone","source":"knowledge","sport":"climbing"}},"554711957":{"lat":50.1676377,"lon":19.7660591,"ts":"2024-07-01T11:39:54Z","tz":1,"tags":{"climbing:bolted":"yes","climbing:grade:polish:max":"VI.2","climbing:grade:polish:min":"III","climbing:length":"12","climbing:quality":"solid","climbing:rock":"limestone","climbing:routes":"7","climbing:sport":"yes","height":"18","name":"Sękata Grzęda","natural":"bare_rock","rock":"limestone","source":"knowledge","sport":"climbing","url":"https://topo.wspinka.org/dolina-kobylanska/sekata-grzeda"}},"649275783":{"lat":50.1753886,"lon":19.7430143,"ts":"2024-07-01T10:45:28Z","tz":1,"tags":{"height":"12","leisure":"climbing","name":"Dupeczka","natural":"cliff","rock":"limestone","source":"knowledge","sport":"climbing"}},"649275784":{"lat":50.1753567,"lon":19.7430205,"ts":"2024-07-01T10:45:28Z","tz":1,"tags":{"climbing:bolted":"yes","climbing:quality":"solid","climbing:rock":"limestone","climbing:sport":"yes","height":"14","name":"Dupeczka","natural":"bare_rock","rock":"limestone","source":"knowledge","sport":"climbing"}},"649275785":{"lat":50.1754736,"lon":19.7438143,"ts":"2018-11-26T20:35:09Z","tz":1,"tags":{"height":"15","leisure":"climbing","name":"Babka","natural":"cliff","rock":"limestone","source":"knowledge","sport":"climbing"}},"649275787":{"lat":50.1754736,"lon":19.7438143,"ts":"2018-11-26T20:35:09Z","tz":1,"tags":{"climbing:bolted":"yes","climbing:quality":"solid","climbing:rock":"limestone","climbing:sport":"yes","height":"16","name":"Babka","natural":"bare_rock","rock":"limestone","source":"knowledge","sport":"climbing"}},"649275788":{"lat":50.1761553,"lon":19.743024,"ts":"2020-03-06T20:48:13Z","tz":1,"tags":{"height":"20","leisure":"climbing","name":"Turnia Lipczyńskiej","natural":"cliff","rock":"limestone","source":"knowledge","sport":"climbing"}},"649275789":{"lat":50.1761532,"lon":19.7430651,"ts":"2024-07-01T10:45:28Z","tz":1,"tags":{"climbing:bolted":"yes","climbing:quality":"solid","climbing:rock":"limestone","climbing:sport":"yes","height":"20","name":"Turnia Lipczyńskiej","natural":"bare_rock","rock":"limestone","source":"knowledge","sport":"climbing","url":"https://topo.wspinka.org/grupa-bedkowskiej-baszty/turnia-lipczynskiej"}},"656668564":{"lat":50.1766547,"lon":19.7468495,"ts":"2019-02-01T18:42:23Z","tz":1,"tags":{"height":"16","leisure":"climbing","name":"Hades Dolny","natural":"cliff","rock":"limestone","source":"knowledge","sport":"climbing"}},"656668565":{"lat":50.1766097,"lon":19.7469268,"ts":"2018-12-21T08:10:04Z","tz":1,"tags":{"height":"14","leisure":"climbing","name":"Hades Pośredni","natural":"cliff","rock":"limestone","source":"knowledge","sport":"climbing"}},"656668566":{"lat":50.1765728,"lon":19.7469659,"ts":"2018-12-21T08:10:05Z","tz":1,"tags":{"height":"8","leisure":"climbing","name":"Hades Mały","natural":"cliff","rock":"limestone","source":"knowledge","sport":"climbing"}},"656668567":{"lat":50.1765664,"lon":19.7470568,"ts":"2019-02-01T18:42:23Z","tz":1,"tags":{"height":"15","leisure":"climbing","name":"Hades Górny","natural":"cliff","rock":"limestone","source":"knowledge","sport":"climbing"}},"656668568":{"lat":50.1765972,"lon":19.7470117,"ts":"2019-02-01T18:42:23Z","tz":1,"tags":{"climbing:bolted":"yes","climbing:grade:polish:max":"VI.4+","climbing:grade:polish:min":"V","climbing:length":"16","climbing:quality":"solid","climbing:rock":"limestone","climbing:routes":"29","climbing:sport":"yes","height":"20","name":"Hades","natural":"bare_rock","rock":"limestone","source":"knowledge","sport":"climbing","url":"https://topo.wspinka.org/dolina-bedkowska/hades"}},"656668569":{"lat":50.1770896,"lon":19.7480361,"ts":"2018-12-21T08:10:05Z","tz":1,"tags":{"height":"12","leisure":"climbing","name":"Czarcia Grań","natural":"cliff","rock":"limestone","source":"knowledge","sport":"climbing"}},"656668570":{"lat":50.1771033,"lon":19.748313,"ts":"2018-12-21T08:10:05Z","tz":1,"tags":{"climbing:quality":"solid","climbing:rock":"limestone","climbing:trad":"yes","height":"18","name":"Czarcia Grań","natural":"bare_rock","rock":"limestone","source":"knowledge","sport":"climbing"}},"656668571":{"lat":50.1773738,"lon":19.7478873,"ts":"2024-07-01T10:42:39Z","tz":1,"tags":{"height":"14","leisure":"climbing","name":"Niższe Czarcie Wrota","natural":"cliff","rock":"limestone","source":"knowledge","sport":"climbing"}},"656668572":{"lat":50.1773075,"lon":19.748045,"ts":"2021-01-08T17:59:42Z","tz":1,"tags":{"height":"25","leisure":"climbing","name":"Wyższe Czarcie Wrota","natural":"cliff","rock":"limestone","source":"knowledge","sport":"climbing"}},"656668573":{"lat":50.1773714,"lon":19.7478861,"ts":"2021-02-05T17:57:46Z","tz":1,"tags":{"climbing:bolted":"yes","climbing:grade:polish:max":"VI.3+","climbing:grade:polish:min":"III","climbing:length":"14","climbing:quality":"solid","climbing:rock":"limestone","climbing:routes":"7","climbing:sport":"yes","climbing:trad":"yes","height":"15","name":"Czarcie Wrota","natural":"bare_rock","rock":"limestone","source":"knowledge","sport":"climbing"}},"656668574":{"lat":50.1773046,"lon":19.7481169,"ts":"2021-01-08T17:59:42Z","tz":1,"tags":{"climbing:bolted":"yes","climbing:grade:polish:max":"VI.4","climbing:grade:polish:min":"VI.1","climbing:length":"25","climbing:quality":"solid","climbing:rock":"limestone","climbing:routes":"8","climbing:sport":"yes","height":"28","name":"Czarcie Wrota","natural":"bare_rock","rock":"limestone","source":"knowledge","sport":"climbing"}},"656668575":{"lat":50.1775648,"lon":19.7486841,"ts":"2018-12-21T08:10:06Z","tz":1,"tags":{"height":"10","leisure":"climbing","name":"Czarci Korytarz","natural":"cliff","rock":"limestone","source":"knowledge","sport":"climbing"}},"656668576":{"lat":50.1774635,"lon":19.7484814,"ts":"2024-07-01T10:42:39Z","tz":1,"tags":{"height":"12","leisure":"climbing","name":"Ząb","natural":"cliff","rock":"limestone","source":"knowledge","sport":"climbing"}},"656668577":{"lat":50.1775818,"lon":19.7486211,"ts":"2018-12-21T08:10:07Z","tz":1,"tags":{"height":"10","leisure":"climbing","name":"Despekt","natural":"cliff","rock":"limestone","source":"knowledge","sport":"climbing"}},"656668578":{"lat":50.1774635,"lon":19.7484814,"ts":"2024-07-01T10:42:39Z","tz":1,"tags":{"climbing:quality":"solid","climbing:rock":"limestone","climbing:sport":"yes","climbing:trad":"yes","height":"14","name":"Czarci Korytarz","natural":"bare_rock","rock":"limestone","source":"knowledge","sport":"climbing"}},"656668579":{"lat":50.1776075,"lon":19.7485774,"ts":"2024-07-01T10:42:39Z","tz":1,"tags":{"climbing:quality":"solid","climbing:rock":"limestone","climbing:sport":"yes","climbing:trad":"yes","height":"12","name":"Czarci Korytarz","natural":"bare_rock","rock":"limestone","source":"knowledge","sport":"climbing"}},"656668580":{"lat":50.1774512,"lon":19.7486883,"ts":"2024-07-01T10:42:39Z","tz":1,"tags":{"climbing:quality":"fragile","climbing:rock":"limestone","climbing:trad":"yes","height":"12","name":"Czarci Korytarz","natural":"bare_rock","rock":"limestone","source":"knowledge","sport":"climbing"}},"656668581":{"lat":50.1787045,"lon":19.7514457,"ts":"2018-12-21T08:10:07Z","tz":1,"tags":{"height":"16","leisure":"climbing","name":"Forteca","natural":"cliff","rock":"limestone","source":"knowledge","sport":"climbing"}},"656668582":{"lat":50.1787045,"lon":19.7514623,"ts":"2018-12-21T08:10:07Z","tz":1,"tags":{"climbing:bolted":"yes","climbing:grade:polish:max":"VI.3","climbing:grade:polish:min":"V","climbing:length":"16","climbing:quality":"solid","climbing:rock":"limestone","climbing:routes":"9","climbing:sport":"yes","climbing:trad":"yes","height":"17","name":"Forteca","natural":"bare_rock","rock":"limestone","source":"knowledge","sport":"climbing"}},"656668583":{"lat":50.1782316,"lon":19.7456543,"ts":"2018-12-21T08:10:08Z","tz":1,"tags":{"height":"18","leisure":"climbing","name":"Skała z Bluszczem","natural":"cliff","rock":"limestone","source":"knowledge","sport":"climbing"}},"656668584":{"lat":50.178219,"lon":19.7455619,"ts":"2018-12-21T08:10:08Z","tz":1,"tags":{"climbing:bolted":"yes","climbing:grade:polish:max":"VI.4","climbing:grade:polish:min":"VI+","climbing:length":"18","climbing:quality":"solid","climbing:rock":"limestone","climbing:routes":"9","climbing:sport":"yes","climbing:trad":"yes","height":"20","name":"Skała z Bluszczem","natural":"bare_rock","rock":"limestone","source":"knowledge","sport":"climbing","url":"https://topo.wspinka.org/dolina-bedkowska/skala-z-bluszczem"}},"656668585":{"lat":50.1753566,"lon":19.7452636,"ts":"2018-12-21T08:10:08Z","tz":1,"tags":{"height":"14","leisure":"climbing","name":"Okiennik Będkowski","natural":"cliff","rock":"limestone","source":"knowledge","sport":"climbing"}},"656668586":{"lat":50.1753025,"lon":19.7451471,"ts":"2024-07-01T10:46:45Z","tz":1,"tags":{"climbing:bolted":"yes","climbing:grade:polish:max":"VI.1+","climbing:grade:polish:min":"V+","climbing:length":"14","climbing:quality":"solid","climbing:rock":"limestone","climbing:routes":"3","climbing:sport":"yes","height":"16","name":"Okiennik Będkowski","natural":"bare_rock","rock":"limestone","source":"knowledge","sport":"climbing"}},"656668587":{"lat":50.1742519,"lon":19.743847,"ts":"2018-12-21T08:10:08Z","tz":1,"tags":{"height":"18","leisure":"climbing","name":"Prawe Cmentarzysko","natural":"cliff","rock":"limestone","source":"knowledge","sport":"climbing"}},"656668588":{"lat":50.1745102,"lon":19.7442106,"ts":"2018-12-21T08:10:09Z","tz":1,"tags":{"height":"25","leisure":"climbing","name":"Cyrk Cmentarzyska","natural":"cliff","rock":"limestone","source":"knowledge","sport":"climbing"}},"656668589":{"lat":50.1747058,"lon":19.7445473,"ts":"2018-12-21T08:10:09Z","tz":1,"tags":{"height":"30","leisure":"climbing","name":"Lewe Cmentarzysko","natural":"cliff","rock":"limestone","source":"knowledge","sport":"climbing"}},"656668590":{"lat":50.1744547,"lon":19.7442754,"ts":"2018-12-21T08:10:09Z","tz":1,"tags":{"climbing:bolted":"yes","climbing:quality":"solid","climbing:rock":"limestone","climbing:sport":"yes","climbing:trad":"yes","height":"36","name":"Cmentarzysko","natural":"bare_rock","rock":"limestone","source":"knowledge","sport":"climbing"}},"656668591":{"lat":50.1748075,"lon":19.7440615,"ts":"2018-12-21T08:10:09Z","tz":1,"tags":{"height":"18","leisure":"climbing","name":"Iglica","natural":"cliff","rock":"limestone","source":"knowledge","sport":"climbing"}},"656668592":{"lat":50.1748075,"lon":19.7440951,"ts":"2018-12-21T08:10:09Z","tz":1,"tags":{"climbing:grade:polish:max":"VI+","climbing:grade:polish:min":"IV","climbing:length":"18","climbing:quality":"fragile","climbing:rock":"limestone","climbing:routes":"5","climbing:trad":"yes","height":"18","name":"Iglica","natural":"bare_rock","rock":"limestone","source":"knowledge","sport":"climbing"}},"661000105":{"lat":50.1658998,"lon":19.7432136,"ts":"2019-01-06T19:53:48Z","tz":1,"tags":{"height":"12","leisure":"climbing","name":"Zjazdowa Turnia","natural":"cliff","rock":"limestone","source":"knowledge","sport":"climbing"}},"661000106":{"lat":50.1660513,"lon":19.7431078,"ts":"2019-01-06T19:53:48Z","tz":1,"tags":{"height":"15","leisure":"climbing","name":"Zjazdowa Turnia","natural":"cliff","rock":"limestone","source":"knowledge","sport":"climbing"}},"661000107":{"lat":50.1659935,"lon":19.7431672,"ts":"2019-01-06T19:53:48Z","tz":1,"tags":{"climbing:grade:polish:max":"VI.3","climbing:grade:polish:min":"II","climbing:length":"15","climbing:quality":"solid","climbing:rock":"limestone","climbing:routes":"15","climbing:trad":"yes","height":"16","name":"Zjazdowa Turnia","natural":"bare_rock","rock":"limestone","source":"knowledge","sport":"climbing"}},"661000108":{"lat":50.1662987,"lon":19.7430745,"ts":"2019-01-06T19:53:48Z","tz":1,"tags":{"height":"15","leisure":"climbing","name":"Rotunda","natural":"cliff","rock":"limestone","source":"knowledge","sport":"climbing"}},"661000109":{"lat":50.1664114,"lon":19.7430567,"ts":"2021-09-19T18:00:31Z","tz":1,"tags":{"climbing:grade:polish:max":"VI.4","climbing:grade:polish:min":"IV","climbing:length":"15","climbing:quality":"solid","climbing:rock":"limestone","climbing:routes":"8","climbing:sport":"yes","climbing:trad":"yes","height":"18","name":"Rotunda","natural":"bare_rock","rock":"limestone","source":"knowledge","sport":"climbing"}},"661000111":{"lat":50.1666748,"lon":19.7425704,"ts":"2024-08-15T22:26:34Z","tz":1,"tags":{"climbing:bolted":"yes","climbing:grade:polish:max":"VI.5+","climbing:grade:polish:min":"V","climbing:length":"25","climbing:quality":"solid","climbing:rock":"limestone","climbing:routes":"15","climbing:sport":"yes","climbing:trad":"yes","height":"26","name":"Pytajnik","natural":"bare_rock","rock":"limestone","source":"knowledge","sport":"climbing"}},"661000112":{"lat":50.1666964,"lon":19.7422995,"ts":"2024-07-01T11:11:05Z","tz":1,"tags":{"height":"14","leisure":"climbing","name":"Odpowiednik","natural":"cliff","rock":"limestone","source":"knowledge","sport":"climbing"}},"661000114":{"lat":50.1667245,"lon":19.7423851,"ts":"2024-07-01T11:11:05Z","tz":1,"tags":{"climbing:bolted":"yes","climbing:grade:polish:max":"VI.2+","climbing:grade:polish:min":"VI","climbing:length":"14","climbing:quality":"solid","climbing:rock":"limestone","climbing:routes":"4","climbing:sport":"yes","climbing:trad":"yes","height":"15","name":"Odpowiednik","natural":"bare_rock","rock":"limestone","source":"knowledge","sport":"climbing"}},"661000115":{"lat":50.1668118,"lon":19.7422664,"ts":"2019-01-06T19:53:50Z","tz":1,"tags":{"height":"14","leisure":"climbing","name":"Zapytajnik","natural":"cliff","rock":"limestone","source":"knowledge","sport":"climbing"}},"661000116":{"lat":50.1668388,"lon":19.7424066,"ts":"2019-01-06T19:53:50Z","tz":1,"tags":{"climbing:bolted":"yes","climbing:grade:polish:max":"VI","climbing:grade:polish:min":"III","climbing:length":"14","climbing:quality":"solid","climbing:rock":"limestone","climbing:routes":"4","climbing:sport":"yes","climbing:trad":"yes","height":"15","name":"Zapytajnik","natural":"bare_rock","rock":"limestone","source":"knowledge","sport":"climbing"}},"661000121":{"lat":50.1697614,"lon":19.7418897,"ts":"2024-08-15T22:26:34Z","tz":1,"tags":{"height":"12","leisure":"climbing","name":"Grań Za Wysoką","natural":"cliff","rock":"limestone","source":"knowledge","sport":"climbing"}},"661000122":{"lat":50.1697626,"lon":19.7420183,"ts":"2024-08-15T22:26:34Z","tz":1,"tags":{"climbing:grade:polish:max":"VI.1+","climbing:grade:polish:min":"IV","climbing:length":"12","climbing:quality":"solid","climbing:rock":"limestone","climbing:routes":"12","climbing:trad":"yes","height":"15","name":"Grań Za Wysoką","natural":"bare_rock","rock":"limestone","source":"knowledge","sport":"climbing"}},"661000123":{"lat":50.1697447,"lon":19.7413039,"ts":"2019-01-06T19:53:51Z","tz":1,"tags":{"climbing:quality":"solid","climbing:rock":"limestone","natural":"bare_rock","rock":"limestone","source":"knowledge","sport":"climbing"}},"661000124":{"lat":50.169444,"lon":19.7423627,"ts":"2019-01-06T19:53:51Z","tz":1,"tags":{"height":"10","leisure":"climbing","name":"Wysoka Grań","natural":"cliff","rock":"limestone","source":"knowledge","sport":"climbing"}},"661000125":{"lat":50.1694943,"lon":19.7420988,"ts":"2019-01-06T19:53:51Z","tz":1,"tags":{"height":"14","leisure":"climbing","name":"Wysoka Grań","natural":"cliff","rock":"limestone","source":"knowledge","sport":"climbing"}},"661000126":{"lat":50.1694935,"lon":19.742283,"ts":"2019-01-06T19:53:52Z","tz":1,"tags":{"climbing:bolted":"yes","climbing:grade:polish:max":"VI.1+","climbing:grade:polish:min":"IV","climbing:length":"14","climbing:quality":"solid","climbing:rock":"limestone","climbing:routes":"13","climbing:sport":"yes","climbing:trad":"yes","height":"18","name":"Wysoka Grań","natural":"bare_rock","rock":"limestone","source":"knowledge","sport":"climbing"}},"661000127":{"lat":50.1690124,"lon":19.7427204,"ts":"2022-07-10T18:24:50Z","tz":1,"tags":{"height":"14","leisure":"climbing","name":"Ściana Nad Ogrodem","natural":"cliff","rock":"limestone","source":"knowledge","sport":"climbing"}},"661000128":{"lat":50.1692027,"lon":19.7423259,"ts":"2024-08-15T22:26:34Z","tz":1,"tags":{"height":"25","leisure":"climbing","name":"Wysoka","natural":"cliff","rock":"limestone","source":"knowledge","sport":"climbing"}},"661000129":{"lat":50.1691792,"lon":19.7426681,"ts":"2024-08-15T22:26:34Z","tz":1,"tags":{"climbing:bolted":"yes","climbing:grade:polish:max":"VI.4","climbing:grade:polish:min":"III","climbing:length":"25","climbing:quality":"solid","climbing:rock":"limestone","climbing:routes":"39","climbing:sport":"yes","climbing:trad":"yes","height":"35","name":"Wysoka","natural":"bare_rock","rock":"limestone","source":"knowledge","sport":"climbing"}},"661000130":{"lat":50.1690109,"lon":19.7423011,"ts":"2024-08-15T22:26:34Z","tz":1,"tags":{"height":"12","leisure":"climbing","name":"Sarkofag","natural":"cliff","rock":"limestone","source":"knowledge","sport":"climbing"}},"661000131":{"lat":50.1690422,"lon":19.742289,"ts":"2019-01-06T19:53:52Z","tz":1,"tags":{"climbing:bolted":"yes","climbing:grade:polish:max":"VI.3","climbing:grade:polish:min":"III","climbing:length":"12","climbing:quality":"solid","climbing:rock":"limestone","climbing:routes":"8","climbing:sport":"yes","climbing:trad":"yes","height":"14","name":"Sarkofag","natural":"bare_rock","rock":"limestone","source":"knowledge","sport":"climbing"}},"661000132":{"lat":50.1684203,"lon":19.7431471,"ts":"2022-07-10T18:24:50Z","tz":1,"tags":{"height":"12","leisure":"climbing","name":"Bunkier","natural":"cliff","rock":"limestone","source":"knowledge","sport":"climbing"}},"661000134":{"lat":50.1684286,"lon":19.7431471,"ts":"2019-01-06T19:53:53Z","tz":1,"tags":{"climbing:bolted":"yes","climbing:grade:polish:max":"VI.2+","climbing:grade:polish:min":"V","climbing:length":"12","climbing:quality":"solid","climbing:rock":"limestone","climbing:routes":"5","climbing:sport":"yes","climbing:trad":"yes","height":"14","name":"Bunkier","natural":"bare_rock","rock":"limestone","source":"knowledge","sport":"climbing"}},"661000140":{"lat":50.1681983,"lon":19.7429459,"ts":"2022-07-10T18:24:50Z","tz":1,"tags":{"height":"12","leisure":"climbing","name":"Futerko","natural":"cliff","rock":"limestone","source":"knowledge","sport":"climbing"}},"661000141":{"lat":50.1680967,"lon":19.7429168,"ts":"2024-08-15T22:26:34Z","tz":1,"tags":{"climbing:bolted":"yes","climbing:grade:polish:max":"VI.1+","climbing:grade:polish:min":"V","climbing:length":"12","climbing:quality":"solid","climbing:rock":"limestone","climbing:routes":"7","climbing:sport":"yes","height":"15","name":"Futerko","natural":"bare_rock","rock":"limestone","source":"knowledge","sport":"climbing","url":"https://topo.wspinka.org/dolina-bedkowska/futerko"}},"661870055":{"lat":50.1788353,"lon":19.7517885,"ts":"2019-01-09T21:11:15Z","tz":1,"tags":{"height":"25","leisure":"climbing","name":"Gęsiarnia","natural":"cliff","rock":"limestone","source":"knowledge","sport":"climbing"}},"661870056":{"lat":50.178989,"lon":19.7521868,"ts":"2019-01-09T21:11:15Z","tz":1,"tags":{"height":"16","leisure":"climbing","name":"Gęsiarnia","natural":"cliff","rock":"limestone","source":"knowledge","sport":"climbing"}},"661870057":{"lat":50.1791187,"lon":19.7523209,"ts":"2019-01-09T21:11:15Z","tz":1,"tags":{"height":"18","leisure":"climbing","name":"Gęsiarnia","natural":"cliff","rock":"limestone","source":"knowledge","sport":"climbing"}},"661870058":{"lat":50.1785759,"lon":19.7514217,"ts":"2019-01-09T21:11:15Z","tz":1,"tags":{"climbing:quality":"solid","climbing:rock":"limestone","natural":"bare_rock","rock":"limestone","source":"knowledge","sport":"climbing"}},"661870059":{"lat":50.1789259,"lon":19.7520936,"ts":"2019-01-09T21:11:16Z","tz":1,"tags":{"climbing:bolted":"yes","climbing:grade:polish:max":"VI.2+","climbing:grade:polish:min":"IV","climbing:length":"25","climbing:quality":"solid","climbing:rock":"limestone","climbing:routes":"15","climbing:sport":"yes","climbing:trad":"yes","height":"25","name":"Gęsiarnia","natural":"bare_rock","rock":"limestone","source":"knowledge","sport":"climbing"}},"661870061":{"lat":50.1575166,"lon":19.7404418,"ts":"2021-09-19T18:00:31Z","tz":1,"tags":{"height":"12","leisure":"climbing","name":"Rybne Skały","natural":"cliff","rock":"limestone","source":"knowledge","sport":"climbing"}},"661870062":{"lat":50.1575483,"lon":19.7406098,"ts":"2021-09-19T18:00:31Z","tz":1,"tags":{"climbing:bolted":"yes","climbing:grade:polish:max":"VI.6+","climbing:grade:polish:min":"III","climbing:length":"12","climbing:quality":"solid","climbing:rock":"limestone","climbing:routes":"14","climbing:sport":"yes","climbing:trad":"yes","height":"14","name":"Rybne Skały","natural":"bare_rock","rock":"limestone","source":"knowledge","sport":"climbing"}},"661870063":{"lat":50.1584599,"lon":19.7407774,"ts":"2019-01-09T21:11:16Z","tz":1,"tags":{"climbing:quality":"solid","climbing:rock":"limestone","height":"12","natural":"bare_rock","rock":"limestone","source":"knowledge","sport":"climbing"}},"661870064":{"lat":50.1586156,"lon":19.740201,"ts":"2019-01-09T21:11:17Z","tz":1,"tags":{"height":"18","leisure":"climbing","name":"Wężowe Skały","natural":"cliff","rock":"limestone","source":"knowledge","sport":"climbing"}},"661870065":{"lat":50.1586232,"lon":19.740201,"ts":"2019-01-21T03:17:48Z","tz":1,"tags":{"climbing:bolted":"yes","climbing:grade:polish:max":"VI.2","climbing:grade:polish:min":"III","climbing:length":"18","climbing:quality":"solid","climbing:rock":"limestone","climbing:routes":"26","climbing:sport":"yes","climbing:trad":"yes","height":"20","name":"Wężowe Skały","natural":"bare_rock","rock":"limestone","source":"knowledge","sport":"climbing"}},"661870066":{"lat":50.1585113,"lon":19.7404184,"ts":"2019-01-09T21:11:17Z","tz":1,"tags":{"height":"18","leisure":"climbing","name":"Wężowe Skały","natural":"cliff","rock":"limestone","source":"knowledge","sport":"climbing"}},"661870067":{"lat":50.1585113,"lon":19.7404803,"ts":"2019-01-09T21:11:17Z","tz":1,"tags":{"climbing:bolted":"yes","climbing:grade:polish:max":"VI.2","climbing:grade:polish:min":"III","climbing:length":"18","climbing:quality":"solid","climbing:rock":"limestone","climbing:routes":"27","climbing:sport":"yes","climbing:trad":"yes","height":"20","name":"Wężowe Skały","natural":"bare_rock","rock":"limestone","source":"knowledge","sport":"climbing"}},"661870075":{"lat":50.159253,"lon":19.7419503,"ts":"2024-07-01T11:23:45Z","tz":1,"tags":{"height":"18","leisure":"climbing","name":"Migdałkowa","natural":"cliff","rock":"limestone","source":"knowledge","sport":"climbing"}},"661870076":{"lat":50.159253,"lon":19.7419503,"ts":"2024-07-01T11:23:45Z","tz":1,"tags":{"climbing:bolted":"yes","climbing:grade:polish:max":"VI.4+","climbing:grade:polish:min":"V","climbing:length":"18","climbing:quality":"solid","climbing:rock":"limestone","climbing:routes":"20","climbing:sport":"yes","climbing:trad":"yes","height":"18","name":"Migdałkowa","natural":"bare_rock","rock":"limestone","source":"knowledge","sport":"climbing"}},"661870077":{"lat":50.1602791,"lon":19.7431161,"ts":"2019-01-09T21:11:18Z","tz":1,"tags":{"climbing:quality":"solid","climbing:rock":"limestone","height":"6","natural":"bare_rock","rock":"limestone","source":"knowledge","sport":"climbing"}},"661870078":{"lat":50.1605986,"lon":19.7432148,"ts":"2019-01-09T21:11:19Z","tz":1,"tags":{"climbing:quality":"solid","climbing:rock":"limestone","height":"8","natural":"bare_rock","rock":"limestone","source":"knowledge","sport":"climbing"}},"661870079":{"lat":50.1609031,"lon":19.7430784,"ts":"2021-09-19T18:00:31Z","tz":1,"tags":{"height":"12","leisure":"climbing","name":"Reduta","natural":"cliff","rock":"limestone","source":"knowledge","sport":"climbing"}},"661870080":{"lat":50.1609031,"lon":19.743107,"ts":"2024-07-01T11:23:45Z","tz":1,"tags":{"climbing:bolted":"yes","climbing:grade:polish:max":"VI.4","climbing:grade:polish:min":"VI.1","climbing:length":"12","climbing:quality":"solid","climbing:rock":"limestone","climbing:routes":"4","climbing:sport":"yes","height":"12","name":"Reduta","natural":"bare_rock","rock":"limestone","source":"knowledge","sport":"climbing"}},"661870081":{"lat":50.1622937,"lon":19.7437852,"ts":"2021-09-19T18:00:31Z","tz":1,"tags":{"height":"20","leisure":"climbing","name":"Turnia Nad Szańcem","natural":"cliff","rock":"limestone","source":"knowledge","sport":"climbing"}},"661870082":{"lat":50.1623485,"lon":19.7438826,"ts":"2019-01-09T21:11:19Z","tz":1,"tags":{"climbing:bolted":"yes","climbing:grade:polish:max":"VI.4+","climbing:grade:polish:min":"IV","climbing:length":"20","climbing:quality":"solid","climbing:rock":"limestone","climbing:routes":"16","climbing:sport":"yes","height":"21","name":"Turnia Nad Szańcem","natural":"bare_rock","rock":"limestone","source":"knowledge","sport":"climbing"}},"661870085":{"lat":50.1617249,"lon":19.7436616,"ts":"2019-01-09T21:11:20Z","tz":1,"tags":{"height":"10","leisure":"climbing","name":"Sucha Baszta","natural":"cliff","rock":"limestone","source":"knowledge","sport":"climbing"}},"661870086":{"lat":50.1617181,"lon":19.7436877,"ts":"2019-01-09T21:11:20Z","tz":1,"tags":{"climbing:bolted":"yes","climbing:grade:polish:max":"VI.4+","climbing:grade:polish:min":"VI.1","climbing:length":"10","climbing:quality":"solid","climbing:rock":"limestone","climbing:routes":"3","climbing:sport":"yes","height":"11","name":"Sucha Baszta","natural":"bare_rock","rock":"limestone","source":"knowledge","sport":"climbing"}},"661870087":{"lat":50.1636031,"lon":19.7441714,"ts":"2019-01-09T21:11:20Z","tz":1,"tags":{"height":"14","leisure":"climbing","name":"Barykada","natural":"cliff","rock":"limestone","source":"knowledge","sport":"climbing"}},"661870088":{"lat":50.1635513,"lon":19.7442297,"ts":"2019-01-09T21:11:20Z","tz":1,"tags":{"climbing:bolted":"yes","climbing:grade:polish:max":"VI.4+","climbing:grade:polish:min":"III","climbing:length":"14","climbing:quality":"solid","climbing:rock":"limestone","climbing:routes":"9","climbing:sport":"yes","climbing:trad":"yes","height":"15","name":"Barykada","natural":"bare_rock","rock":"limestone","source":"knowledge","sport":"climbing"}},"661870089":{"lat":50.1648725,"lon":19.7424542,"ts":"2021-09-19T18:00:31Z","tz":1,"tags":{"height":"14","leisure":"climbing","name":"Luneta","natural":"cliff","rock":"limestone","source":"knowledge","sport":"climbing"}},"661870090":{"lat":50.1648725,"lon":19.742478,"ts":"2024-07-01T11:23:45Z","tz":1,"tags":{"climbing:bolted":"yes","climbing:grade:polish:max":"VI.4","climbing:grade:polish:min":"VI+","climbing:length":"14","climbing:quality":"solid","climbing:rock":"limestone","climbing:routes":"5","climbing:sport":"yes","height":"15","name":"Luneta","natural":"bare_rock","rock":"limestone","source":"knowledge","sport":"climbing"}},"661870091":{"lat":50.165282,"lon":19.7426212,"ts":"2019-01-09T21:11:21Z","tz":1,"tags":{"height":"20","leisure":"climbing","name":"Skała LXX","natural":"cliff","rock":"limestone","source":"knowledge","sport":"climbing"}},"661870092":{"lat":50.1652961,"lon":19.7427528,"ts":"2024-07-01T11:11:05Z","tz":1,"tags":{"climbing:bolted":"yes","climbing:grade:polish:max":"VI.2+","climbing:grade:polish:min":"IV","climbing:length":"20","climbing:quality":"fragile","climbing:rock":"limestone","climbing:routes":"8","climbing:sport":"yes","climbing:trad":"yes","height":"21","name":"Skała LXX","natural":"bare_rock","rock":"limestone","source":"knowledge","sport":"climbing"}},"661870093":{"lat":50.1656726,"lon":19.7423841,"ts":"2019-01-09T21:11:21Z","tz":1,"tags":{"height":"12","leisure":"climbing","name":"Narożniak","natural":"cliff","rock":"limestone","source":"knowledge","sport":"climbing"}},"661870094":{"lat":50.16562,"lon":19.7424554,"ts":"2019-01-09T21:11:21Z","tz":1,"tags":{"climbing:bolted":"yes","climbing:grade:polish:max":"VI.1+","climbing:grade:polish:min":"VI.1","climbing:length":"12","climbing:quality":"solid","climbing:rock":"limestone","climbing:routes":"2","climbing:sport":"yes","height":"15","name":"Narożniak","natural":"bare_rock","rock":"limestone","source":"knowledge","sport":"climbing"}},"661870097":{"lat":50.1672426,"lon":19.7460313,"ts":"2021-09-19T18:00:31Z","tz":1,"tags":{"height":"12","leisure":"climbing","name":"Lisia Baszta","natural":"cliff","rock":"limestone","source":"knowledge","sport":"climbing"}},"661870098":{"lat":50.1672426,"lon":19.7460313,"ts":"2019-01-09T21:11:22Z","tz":1,"tags":{"climbing:bolted":"yes","climbing:grade:polish:max":"VI","climbing:grade:polish:min":"V","climbing:length":"12","climbing:quality":"solid","climbing:rock":"limestone","climbing:routes":"2","climbing:sport":"yes","height":"12","name":"Lisia Baszta","natural":"bare_rock","rock":"limestone","source":"knowledge","sport":"climbing"}},"665127627":{"lat":50.1893631,"lon":19.7692992,"ts":"2020-04-06T01:24:29Z","tz":1,"tags":{"height":"20","leisure":"climbing","name":"Kurtyna","natural":"cliff","rock":"limestone","source":"knowledge","sport":"climbing"}},"665127628":{"lat":50.189355,"lon":19.7692882,"ts":"2020-04-06T01:24:29Z","tz":1,"tags":{"climbing:bolted":"yes","climbing:grade:polish:max":"VI.2+","climbing:grade:polish:min":"VI+","climbing:length":"20","climbing:quality":"solid","climbing:rock":"limestone","climbing:routes":"8","climbing:sport":"yes","height":"20","name":"Kurtyna","natural":"bare_rock","rock":"limestone","source":"knowledge","sport":"climbing","url":"https://topo.wspinka.org/grupa-wielkiej-turni/kurtyna"}},"667730832":{"lat":50.1763122,"lon":19.74714,"ts":"2019-02-01T18:42:22Z","tz":1,"tags":{"climbing:quality":"solid","climbing:rock":"limestone","height":"10","natural":"bare_rock","rock":"limestone","source":"knowledge","sport":"climbing"}},"667730833":{"lat":50.1763749,"lon":19.7466968,"ts":"2019-02-01T18:42:22Z","tz":1,"tags":{"height":"11","leisure":"climbing","name":"Czarcie Igły","natural":"cliff","rock":"limestone","source":"knowledge","sport":"climbing"}},"667730834":{"lat":50.1764259,"lon":19.7467651,"ts":"2019-02-01T18:42:22Z","tz":1,"tags":{"climbing:grade:polish:max":"V","climbing:grade:polish:min":"V","climbing:length":"11","climbing:quality":"solid","climbing:rock":"limestone","climbing:routes":"1","climbing:trad":"yes","height":"12","name":"Czarcie Igły","natural":"bare_rock","rock":"limestone","source":"knowledge","sport":"climbing"}},"667730836":{"lat":50.1766275,"lon":19.7467685,"ts":"2019-02-01T18:42:23Z","tz":1,"tags":{"height":"16","leisure":"climbing","name":"Zadni Hades","natural":"cliff","rock":"limestone","source":"knowledge","sport":"climbing"}},"667832209":{"lat":50.1919757,"lon":19.7782244,"ts":"2024-01-16T12:23:58Z","tz":1,"tags":{"height":"13","leisure":"climbing","name":"Dolne Tomaszówki","natural":"cliff","rock":"limestone","source":"knowledge","sport":"climbing"}},"667832210":{"lat":50.1919788,"lon":19.7782898,"ts":"2024-01-16T12:23:58Z","tz":1,"tags":{"climbing:bolted":"yes","climbing:grade:polish:max":"VI.3","climbing:grade:polish:min":"III+","climbing:length":"14","climbing:quality":"solid","climbing:rock":"limestone","climbing:routes":"7","climbing:sport":"yes","climbing:trad":"yes","height":"14","name":"Dolne Tomaszówki","natural":"bare_rock","rock":"limestone","source":"knowledge","sport":"climbing"}},"667832211":{"lat":50.1922766,"lon":19.7795524,"ts":"2019-02-02T08:50:09Z","tz":1,"tags":{"climbing:quality":"solid","climbing:rock":"limestone","height":"4","natural":"stone","rock":"limestone","source":"knowledge","sport":"climbing"}},"667832212":{"lat":50.1919195,"lon":19.779682,"ts":"2019-02-02T08:50:09Z","tz":1,"tags":{"climbing:quality":"solid","climbing:rock":"limestone","height":"8","natural":"bare_rock","rock":"limestone","source":"knowledge","sport":"climbing"}},"667832213":{"lat":50.1920392,"lon":19.7792416,"ts":"2019-02-02T08:50:09Z","tz":1,"tags":{"climbing:quality":"solid","climbing:rock":"limestone","height":"12","name":"Skała na Tomaszówkach","natural":"bare_rock","rock":"limestone","source":"knowledge","sport":"climbing"}},"675173054":{"lat":50.1559541,"lon":19.7562096,"ts":"2019-03-07T13:39:36Z","tz":1,"tags":{"height":"12","leisure":"climbing","name":"Żabi Koń","natural":"cliff","rock":"limestone","source":"knowledge","sport":"climbing"}},"675173058":{"lat":50.1561443,"lon":19.7564424,"ts":"2019-03-07T13:39:36Z","tz":1,"tags":{"height":"14","leisure":"climbing","name":"Żabia Lalka","natural":"cliff","rock":"limestone","source":"knowledge","sport":"climbing"}},"675173059":{"lat":50.1561413,"lon":19.7564565,"ts":"2019-03-07T13:39:36Z","tz":1,"tags":{"climbing:bolted":"yes","climbing:quality":"solid","climbing:rock":"limestone","climbing:sport":"yes","height":"15","name":"Żabia Lalka","natural":"bare_rock","rock":"limestone","source":"knowledge","sport":"climbing"}},"675173060":{"lat":50.1558495,"lon":19.7562895,"ts":"2019-03-07T13:39:37Z","tz":1,"tags":{"height":"14","leisure":"climbing","name":"Żabi Mnich","natural":"cliff","rock":"limestone","source":"knowledge","sport":"climbing"}},"675173061":{"lat":50.1558267,"lon":19.7563159,"ts":"2019-03-07T13:39:37Z","tz":1,"tags":{"climbing:bolted":"yes","climbing:quality":"solid","climbing:rock":"limestone","climbing:sport":"yes","height":"17","name":"Żabi Mnich","natural":"bare_rock","rock":"limestone","source":"knowledge","sport":"climbing"}},"676363645":{"lat":50.1051634,"lon":19.7040077,"ts":"2019-03-12T19:36:12Z","tz":1,"tags":{"climbing:bolted":"yes","climbing:grade:polish:max":"VI.4+","climbing:grade:polish:min":"III","climbing:length":"16","climbing:quality":"solid","climbing:rock":"limestone","climbing:routes":"25","climbing:sport":"yes","height":"16","name":"Złotówka","natural":"bare_rock","rock":"limestone","source":"knowledge","sport":"climbing"}},"676363647":{"lat":50.1051562,"lon":19.7042222,"ts":"2019-03-12T19:36:13Z","tz":1,"tags":{"height":"7","leisure":"climbing","name":"Groszówka","natural":"cliff","rock":"limestone","source":"knowledge","sport":"climbing"}},"676363650":{"lat":50.1051223,"lon":19.7041961,"ts":"2019-03-12T19:36:13Z","tz":1,"tags":{"climbing:bolted":"yes","climbing:grade:polish:max":"VI.3+","climbing:grade:polish:min":"V","climbing:length":"7","climbing:quality":"solid","climbing:rock":"limestone","climbing:routes":"4","climbing:sport":"yes","height":"8","name":"Groszówka","natural":"bare_rock","rock":"limestone","source":"knowledge","sport":"climbing"}},"676363651":{"lat":50.112636,"lon":19.7548208,"ts":"2019-03-12T19:36:13Z","tz":1,"tags":{"height":"18","leisure":"climbing","name":"Łysa Kleszczowska","natural":"cliff","rock":"limestone","source":"knowledge","sport":"climbing"}},"676363652":{"lat":50.1126284,"lon":19.7549003,"ts":"2019-03-12T19:36:13Z","tz":1,"tags":{"climbing:bolted":"yes","climbing:grade:polish:max":"VI.1+","climbing:grade:polish:min":"IV","climbing:length":"18","climbing:quality":"solid","climbing:rock":"limestone","climbing:routes":"12","climbing:sport":"yes","height":"20","name":"Łysa Kleszczowska","natural":"bare_rock","rock":"limestone","source":"knowledge","sport":"climbing"}},"892635505":{"lat":50.1917642,"lon":19.7791965,"ts":"2021-01-06T11:10:45Z","tz":1,"tags":{"climbing:quality":"solid","climbing:rock":"limestone","height":"3","natural":"stone","rock":"limestone","source":"knowledge","sport":"climbing"}},"892635506":{"lat":50.1919032,"lon":19.7784846,"ts":"2024-01-16T12:23:58Z","tz":1,"tags":{"climbing:quality":"fragile","climbing:rock":"limestone","height":"10","name":"Średnie Tomaszówki","natural":"bare_rock","rock":"limestone","source":"knowledge","sport":"climbing"}},"901647580":{"lat":50.2405926,"lon":19.7583525,"ts":"2021-01-29T15:40:12Z","tz":1,"tags":{"height":"10","leisure":"climbing","name":"Snopek","natural":"cliff","rock":"limestone","source":"knowledge","sport":"climbing"}},"901647581":{"lat":50.2405926,"lon":19.7583639,"ts":"2024-06-13T13:45:58Z","tz":1,"tags":{"climbing:quality":"solid","climbing:rock":"limestone","height":"10","name":"Snopek","natural":"bare_rock","rock":"limestone","source":"knowledge","sport":"climbing","url":"https://topo.wspinka.org/babie-doly/snopek"}},"984937644":{"lat":50.1586488,"lon":19.7425177,"ts":"2021-09-19T18:00:31Z","tz":1,"tags":{"height":"10","leisure":"climbing","name":"Rodzynek","natural":"cliff","rock":"limestone","source":"knowledge","sport":"climbing"}},"1033374584":{"lat":50.2042667,"lon":19.7286358,"ts":"2022-02-20T02:43:52Z","tz":1,"tags":{"climbing:bolted":"yes","climbing:length":"16","climbing:quality":"solid","climbing:rock":"limestone","climbing:sport":"yes","climbing:trad":"yes","height":"18","leisure":"climbing","name":"Przełaz","natural":"bare_rock","rock":"limestone","source":"survey","sport":"climbing"}},"1292111221":{"lat":50.240664,"lon":19.7585041,"ts":"2024-06-13T13:45:58Z","tz":1,"tags":{"climbing:quality":"solid","climbing:rock":"limestone","height":"8","natural":"bare_rock","source":"knowledge","sport":"climbing"}},"1292665542":{"lat":50.2261022,"lon":19.8303044,"ts":"2024-06-15T15:49:06Z","tz":1,"tags":{"height":"30","leisure":"climbing","name":"Duz pochzlec","natural":"cliff","rock":"limestone","source":"knowledge","sport":"climbing"}},"1292813079":{"lat":50.2315611,"lon":19.7092313,"ts":"2024-10-25T16:58:17Z","tz":1,"tags":{"climbing:bolted":"yes","climbing:length":"12","climbing:quality":"solid","climbing:rock":"limestone","climbing:routes":"11","climbing:sport":"yes","climbing:trad":"yes","height":"12","natural":"bare_rock","rock":"limestone","source":"knowledge","sport":"climbing"}},"1292813080":{"lat":50.2307401,"lon":19.7085016,"ts":"2024-06-16T09:44:28Z","tz":1,"tags":{"climbing:bolted":"yes","climbing:length":"12","climbing:quality":"solid","climbing:rock":"limestone","climbing:routes":"22","climbing:sport":"yes","climbing:trad":"yes","height":"10","name":"Jednorożec","natural":"bare_rock","rock":"limestone","source":"knowledge","sport":"climbing"}},"1293070721":{"lat":50.1994654,"lon":19.7343937,"ts":"2024-06-17T12:24:36Z","tz":1,"tags":{"height":"20","leisure":"climbing","name":"leśna skała","natural":"cliff","rock":"limestone","source":"knowledge","sport":"climbing"}},"1293070722":{"lat":50.1996641,"lon":19.7345044,"ts":"2024-06-17T12:24:36Z","tz":1,"tags":{"height":"13","leisure":"climbing","name":"leśna skała","natural":"cliff","rock":"limestone","source":"knowledge","sport":"climbing"}},"1293070724":{"lat":50.1996915,"lon":19.7345008,"ts":"2024-06-17T12:24:36Z","tz":1,"tags":{"climbing:bolted":"yes","climbing:length":"8","climbing:quality":"solid","climbing:rock":"limestone","climbing:routes":"8","climbing:sport":"yes","height":"14","name":"leśna skała","natural":"bare_rock","rock":"limestone","source":"knowledge","sport":"climbing"}},"1293633666":{"lat":50.1887021,"lon":19.7527493,"ts":"2024-06-19T11:30:52Z","tz":1,"tags":{"climbing:quality":"solid","climbing:rock":"limestone","height":"10","natural":"bare_rock","rock":"limestone","source":"knowledge","sport":"climbing"}},"1293635665":{"lat":50.183146,"lon":19.7469799,"ts":"2024-06-19T11:46:44Z","tz":1,"tags":{"height":"11","leisure":"climbing","name":"Kołkowa Turnia","natural":"cliff","rock":"limestone","source":"knowledge","sport":"climbing"}},"1293635666":{"lat":50.1831698,"lon":19.7469981,"ts":"2024-06-19T11:46:44Z","tz":1,"tags":{"climbing:bolted":"yes","climbing:quality":"solid","climbing:rock":"limestone","climbing:routes":"9","climbing:sport":"yes","climbing:trad":"yes","height":"12","name":"Kołkowa Turnia","natural":"bare_rock","rock":"limestone","source":"knowledge","sport":"climbing"}},"1293637138":{"lat":50.1808785,"lon":19.753249,"ts":"2024-06-19T11:57:04Z","tz":1,"tags":{"climbing:quality":"solid","climbing:rock":"limestone","name":"skała nad źródłem","natural":"bare_rock","rock":"limestone","source":"knowledge","sport":"climbing"}},"1293637139":{"lat":50.1809003,"lon":19.7537568,"ts":"2024-06-19T11:57:04Z","tz":1,"tags":{"leisure":"climbing","name":"skała nad źródłem","natural":"cliff","rock":"limestone","source":"knowledge","sport":"climbing"}},"1293637140":{"lat":50.1808651,"lon":19.7538548,"ts":"2024-06-19T11:57:04Z","tz":1,"tags":{"climbing:bolted":"yes","climbing:quality":"solid","climbing:rock":"limestone","climbing:sport":"yes","climbing:trad":"yes","height":"15","name":"Skały nad Źródłem - Jazzowa","natural":"bare_rock","rock":"limestone","source":"knowledge","sport":"climbing"}},"1293680266":{"lat":50.1525586,"lon":19.7386002,"ts":"2024-06-19T15:09:46Z","tz":1,"tags":{"leisure":"climbing","name":"Wietrznik","natural":"cliff","rock":"limestone","source":"knowledge","sport":"climbing"}},"1293680267":{"lat":50.1523179,"lon":19.7387619,"ts":"2024-06-19T15:09:46Z","tz":1,"tags":{"climbing:quality":"solid","climbing:rock":"limestone","natural":"bare_rock","rock":"limestone","source":"knowledge","sport":"climbing"}},"1293680268":{"lat":50.1524847,"lon":19.7385134,"ts":"2024-06-19T15:09:46Z","tz":1,"tags":{"climbing:quality":"solid","climbing:rock":"limestone","climbing:routes":"8","climbing:trad":"yes","height":"14","name":"Wietrznik","natural":"bare_rock","rock":"limestone","source":"knowledge","sport":"climbing"}},"1294728196":{"lat":50.1588798,"lon":19.7586818,"ts":"2024-06-21T12:13:01Z","tz":1,"tags":{"leisure":"climbing","name":"Piersiówka","natural":"cliff","rock":"limestone","source":"knowledge","sport":"climbing"}},"1294728197":{"lat":50.1589247,"lon":19.7586746,"ts":"2024-06-21T12:13:01Z","tz":1,"tags":{"climbing:bolted":"yes","climbing:quality":"solid","climbing:rock":"limestone","climbing:routes":"5","climbing:sport":"yes","climbing:trad":"no","height":"14","name":"Piersiówka","natural":"bare_rock","rock":"limestone","source":"knowledge","sport":"climbing"}},"1294730152":{"lat":50.1584874,"lon":19.7606463,"ts":"2024-06-21T12:22:43Z","tz":1,"tags":{"height":"14","leisure":"climbing","name":"Czarna Ścianka","natural":"cliff","rock":"limestone","source":"knowledge","sport":"climbing"}},"1294730153":{"lat":50.1585022,"lon":19.7606221,"ts":"2024-07-01T15:20:51Z","tz":1,"tags":{"climbing:quality":"solid","climbing:rock":"limestone","height":"14","name":"Czarna Ścianka","natural":"bare_rock","rock":"limestone","source":"knowledge","sport":"climbing"}},"1294730154":{"lat":50.1585589,"lon":19.7601524,"ts":"2024-07-02T07:19:57Z","tz":1,"tags":{"height":"10","leisure":"climbing","name":"Prawie K2","natural":"cliff","rock":"limestone","source":"knowledge","sport":"climbing"}},"1294730155":{"lat":50.1585798,"lon":19.7601716,"ts":"2024-07-02T07:19:57Z","tz":1,"tags":{"climbing:quality":"solid","climbing:rock":"limestone","climbing:routes":"3","climbing:sport":"yes","height":"12","name":"Prawie K2","natural":"bare_rock","rock":"limestone","source":"knowledge","sport":"climbing"}},"1294736889":{"lat":50.1540312,"lon":19.7710791,"ts":"2024-06-21T13:00:01Z","tz":1,"tags":{"climbing:bolted":"yes","climbing:quality":"solid","climbing:rock":"limestone","climbing:sport":"yes","height":"10","name":"Trybuna A","natural":"bare_rock","rock":"limestone","source":"knowledge","sport":"climbing"}},"1294737078":{"lat":50.1536475,"lon":19.7718492,"ts":"2024-07-02T07:38:26Z","tz":1,"tags":{"climbing:bolted":"yes","climbing:quality":"solid","climbing:rock":"limestone","climbing:sport":"yes","height":"12","name":"Skały karniowickie","natural":"bare_rock","rock":"limestone","source":"knowledge","sport":"climbing"}},"1294742356":{"lat":50.1766535,"lon":19.8027146,"ts":"2024-06-21T13:34:13Z","tz":1,"tags":{"height":"15","leisure":"climbing","name":"Polnik","natural":"cliff","rock":"limestone","source":"knowledge","sport":"climbing"}},"1294742357":{"lat":50.1765896,"lon":19.8025839,"ts":"2024-08-07T12:06:15Z","tz":1,"tags":{"climbing:bolted":"yes","climbing:quality":"solid","climbing:rock":"limestone","climbing:sport":"yes","climbing:trad":"yes","height":"16","name":"Polnik","natural":"bare_rock","rock":"limestone","source":"knowledge","sport":"climbing"}},"1294742358":{"lat":50.1808853,"lon":19.8047756,"ts":"2024-06-21T13:34:13Z","tz":1,"tags":{"climbing:bolted":"yes","climbing:quality":"solid","climbing:rock":"limestone","climbing:routes":"11","climbing:sport":"yes","climbing:trad":"yes","height":"10","name":"Dziurawiec","natural":"bare_rock","rock":"limestone","source":"knowledge","sport":"climbing"}},"1294792145":{"lat":50.1732012,"lon":19.806333,"ts":"2024-06-21T17:46:59Z","tz":1,"tags":{"height":"16","leisure":"climbing","name":"Dzikie Turnie","natural":"cliff","rock":"limestone","source":"knowledge","sport":"climbing"}},"1294792146":{"lat":50.1732077,"lon":19.8063686,"ts":"2024-06-21T17:46:59Z","tz":1,"tags":{"climbing:bolted":"yes","climbing:quality":"solid","climbing:rock":"limestone","climbing:sport":"yes","climbing:trad":"yes","height":"16","name":"Dzikie Turnie","natural":"bare_rock","rock":"limestone","source":"knowledge","sport":"climbing"}},"1294927779":{"lat":50.1643209,"lon":19.8187868,"ts":"2024-06-22T09:46:26Z","tz":1,"tags":{"height":"14","leisure":"climbing","name":"Mączne skały","natural":"cliff","rock":"limestone","source":"knowledge","sport":"climbing"}},"1294927780":{"lat":50.1643826,"lon":19.818832,"ts":"2024-06-22T09:46:26Z","tz":1,"tags":{"climbing:bolted":"yes","climbing:quality":"solid","climbing:rock":"limestone","climbing:routes":"9","climbing:sport":"yes","climbing:trad":"yes","height":"14","name":"Mączne Skały","natural":"bare_rock","rock":"limestone","source":"knowledge","sport":"climbing"}},"1294932410":{"lat":50.1554045,"lon":19.8228642,"ts":"2024-06-22T10:09:49Z","tz":1,"tags":{"climbing:quality":"solid","climbing:rock":"limestone","climbing:sport":"yes","climbing:trad":"yes","height":"15","name":"Rogata Turniczka","natural":"bare_rock","rock":"limestone","source":"knowledge","sport":"climbing"}},"1294932411":{"lat":50.1553926,"lon":19.8224352,"ts":"2024-06-22T10:09:49Z","tz":1,"tags":{"climbing:quality":"solid","climbing:rock":"limestone","climbing:routes":"10","climbing:sport":"yes","climbing:trad":"yes","height":"15","name":"Rogata Turniczka","natural":"bare_rock","rock":"limestone","source":"knowledge","sport":"climbing"}},"1294934001":{"lat":50.1532675,"lon":19.8182728,"ts":"2024-06-22T10:17:49Z","tz":1,"tags":{"height":"25","leisure":"climbing","name":"Leśna Baszta","natural":"cliff","rock":"limestone","source":"knowledge","sport":"climbing"}},"1294934002":{"lat":50.1532188,"lon":19.818444,"ts":"2024-06-22T10:17:49Z","tz":1,"tags":{"climbing:bolted":"yes","climbing:quality":"solid","climbing:rock":"limestone","climbing:routes":"23","climbing:sport":"yes","climbing:trad":"yes","height":"25","name":"Leśna Baszta","natural":"bare_rock","rock":"limestone","source":"knowledge","sport":"climbing"}},"1294936359":{"lat":50.1534369,"lon":19.8170184,"ts":"2024-06-22T10:33:13Z","tz":1,"tags":{"climbing:quality":"solid","climbing:rock":"limestone","height":"20","name":"Turnia Potockiego","natural":"bare_rock","rock":"limestone","source":"knowledge","sport":"climbing"}},"1294939911":{"lat":50.1050522,"lon":19.7018686,"ts":"2024-07-02T08:36:32Z","tz":1,"tags":{"climbing:bolted":"yes","climbing:quality":"solid","climbing:rock":"limestone","climbing:sport":"yes","height":"10","name":"Kapliczka","natural":"bare_rock","rock":"limestone","source":"knowledge","sport":"climbing"}},"1294941339":{"lat":50.1052429,"lon":19.7073732,"ts":"2024-06-22T11:12:47Z","tz":1,"tags":{"height":"10","leisure":"climbing","name":"Dymniok Biały","natural":"cliff","rock":"limestone","source":"knowledge","sport":"climbing"}},"1294941340":{"lat":50.1052488,"lon":19.7073732,"ts":"2024-06-22T11:12:47Z","tz":1,"tags":{"climbing:bolted":"yes","climbing:quality":"solid","climbing:rock":"limestone","climbing:sport":"yes","height":"10","name":"Dymniok Biały","natural":"bare_rock","rock":"limestone","source":"knowledge","sport":"climbing"}},"1294941341":{"lat":50.1053563,"lon":19.7071944,"ts":"2024-06-22T11:12:47Z","tz":1,"tags":{"height":"10","leisure":"climbing","name":"Dymniok Szary","natural":"cliff","rock":"limestone","source":"knowledge","sport":"climbing"}},"1294941342":{"lat":50.1053838,"lon":19.7072615,"ts":"2024-06-22T11:12:47Z","tz":1,"tags":{"climbing:bolted":"yes","climbing:quality":"solid","climbing:rock":"limestone","climbing:routes":"10","climbing:sport":"yes","height":"10","name":"Dymniok Szary","natural":"bare_rock","rock":"limestone","source":"knowledge","sport":"climbing"}},"1298032863":{"lat":50.2259363,"lon":19.830836,"ts":"2024-07-01T07:51:55Z","tz":1,"tags":{"climbing:quality":"solid","climbing:rock":"limestone","natural":"bare_rock","source":"knowledge","sport":"climbing"}},"1298032864":{"lat":50.2261177,"lon":19.8306974,"ts":"2024-07-01T07:51:55Z","tz":1,"tags":{"climbing:quality":"solid","climbing:rock":"limestone","natural":"bare_rock","rock":"limestone","source":"knowledge","sport":"climbing"}},"1298032865":{"lat":50.2263433,"lon":19.8307267,"ts":"2024-07-01T07:51:55Z","tz":1,"tags":{"climbing:quality":"solid","climbing:rock":"limestone","natural":"bare_rock","rock":"limestone","source":"knowledge","sport":"climbing"}},"1298039149":{"lat":50.2046315,"lon":19.7280754,"ts":"2024-07-01T08:30:22Z","tz":1,"tags":{"height":"14","leisure":"climbing","name":"Płytka Benduskiego","natural":"cliff","rock":"limestone","source":"knowledge","sport":"climbing"}},"1298039150":{"lat":50.204541,"lon":19.7277902,"ts":"2024-07-01T08:30:22Z","tz":1,"tags":{"height":"14","leisure":"climbing","name":"Eternit i Soczewka","natural":"cliff","rock":"limestone","source":"knowledge","sport":"climbing"}},"1298039151":{"lat":50.2049009,"lon":19.7283001,"ts":"2024-07-01T08:30:22Z","tz":1,"tags":{"height":"18","leisure":"climbing","name":"Filarek Bularza","natural":"cliff","rock":"limestone","source":"knowledge","sport":"climbing"}},"1298039152":{"lat":50.2046821,"lon":19.7278726,"ts":"2024-07-01T08:30:22Z","tz":1,"tags":{"height":"10","leisure":"climbing","name":"Połać skwira","natural":"cliff","rock":"limestone","source":"knowledge","sport":"climbing"}},"1298039153":{"lat":50.2047988,"lon":19.728025,"ts":"2024-07-01T08:30:22Z","tz":1,"tags":{"climbing:bolted":"yes","climbing:quality":"solid","climbing:rock":"limestone","climbing:sport":"yes","climbing:trad":"yes","height":"20","name":"Słoneczne skały","natural":"bare_rock","rock":"limestone","source":"knowledge","sport":"climbing"}},"1298041911":{"lat":50.1994402,"lon":19.714099,"ts":"2024-07-01T08:50:19Z","tz":1,"tags":{"climbing:quality":"solid","climbing:rock":"limestone","name":"Smocze skały","natural":"bare_rock","rock":"limestone","source":"knowledge","sport":"climbing"}},"1298041912":{"lat":50.1994104,"lon":19.7139624,"ts":"2024-07-01T08:50:19Z","tz":1,"tags":{"climbing:quality":"solid","climbing:rock":"limestone","natural":"bare_rock","rock":"limestone","source":"knowledge","sport":"climbing"}},"1298041913":{"lat":50.1993282,"lon":19.71409,"ts":"2024-07-01T08:50:19Z","tz":1,"tags":{"height":"14","leisure":"climbing","name":"Smocze skały","natural":"cliff","rock":"limestone","source":"knowledge","sport":"climbing"}},"1298041914":{"lat":50.1993508,"lon":19.7140909,"ts":"2024-07-01T08:50:19Z","tz":1,"tags":{"climbing:bolted":"yes","climbing:quality":"solid","climbing:rock":"limestone","climbing:sport":"yes","climbing:trad":"yes","height":"14","name":"Smocze skały","natural":"bare_rock","rock":"limestone","source":"knowledge","sport":"climbing"}},"1298041915":{"lat":50.1982704,"lon":19.7235739,"ts":"2024-07-01T08:50:19Z","tz":1,"tags":{"leisure":"climbing","name":"Papierzak","natural":"cliff","rock":"limestone","source":"knowledge","sport":"climbing"}},"1298041916":{"lat":50.1982974,"lon":19.7235626,"ts":"2024-07-01T08:50:19Z","tz":1,"tags":{"climbing:bolted":"yes","climbing:quality":"solid","climbing:rock":"limestone","climbing:sport":"yes","height":"10","name":"Papierzak","natural":"bare_rock","rock":"limestone","source":"knowledge","sport":"climbing"}},"1298041917":{"lat":50.2055638,"lon":19.7280662,"ts":"2024-07-01T08:50:19Z","tz":1,"tags":{"climbing:quality":"solid","climbing:rock":"limestone","natural":"bare_rock","rock":"limestone","source":"knowledge","sport":"climbing"}},"1298041918":{"lat":50.2058068,"lon":19.7285386,"ts":"2024-07-01T08:50:19Z","tz":1,"tags":{"climbing:quality":"solid","climbing:rock":"limestone","natural":"bare_rock","rock":"limestone","source":"knowledge","sport":"climbing"}},"1298041919":{"lat":50.2057178,"lon":19.7275921,"ts":"2024-07-01T08:50:19Z","tz":1,"tags":{"climbing:quality":"solid","climbing:rock":"limestone","natural":"bare_rock","source":"knowledge","sport":"climbing"}},"1298041920":{"lat":50.2056242,"lon":19.727787,"ts":"2024-07-01T08:50:19Z","tz":1,"tags":{"climbing:quality":"solid","climbing:rock":"limestone","natural":"bare_rock","source":"knowledge","sport":"climbing"}},"1298041921":{"lat":50.2052324,"lon":19.7280197,"ts":"2024-07-01T08:50:19Z","tz":1,"tags":{"climbing:quality":"solid","climbing:rock":"limestone","natural":"bare_rock","rock":"limestone","source":"knowledge","sport":"climbing"}},"1298044667":{"lat":50.1963847,"lon":19.7225984,"ts":"2024-07-01T09:02:44Z","tz":1,"tags":{"climbing:quality":"solid","climbing:rock":"limestone","natural":"bare_rock","rock":"limestone","source":"knowledge","sport":"climbing"}},"1298044668":{"lat":50.1963304,"lon":19.7223759,"ts":"2024-07-01T09:02:44Z","tz":1,"tags":{"climbing:quality":"solid","climbing:rock":"limestone","natural":"bare_rock","rock":"limestone","source":"knowledge","sport":"climbing"}},"1298044669":{"lat":50.1963092,"lon":19.7216261,"ts":"2024-07-01T09:02:44Z","tz":1,"tags":{"climbing:quality":"solid","climbing:rock":"limestone","natural":"bare_rock","source":"knowledge","sport":"climbing"}},"1298044670":{"lat":50.196302,"lon":19.7217725,"ts":"2024-07-01T09:02:44Z","tz":1,"tags":{"climbing:quality":"solid","climbing:rock":"limestone","natural":"bare_rock","rock":"limestone","source":"knowledge","sport":"climbing"}},"1298044671":{"lat":50.195294,"lon":19.7213114,"ts":"2024-07-01T09:02:44Z","tz":1,"tags":{"height":"10","leisure":"climbing","name":"Bukowe skały","natural":"cliff","rock":"limestone","source":"knowledge","sport":"climbing"}},"1298044672":{"lat":50.1951434,"lon":19.721438,"ts":"2024-07-01T09:02:44Z","tz":1,"tags":{"climbing:quality":"solid","climbing:rock":"limestone","natural":"bare_rock","rock":"limestone","source":"knowledge","sport":"climbing"}},"1298044673":{"lat":50.1949075,"lon":19.720845,"ts":"2024-07-01T09:02:44Z","tz":1,"tags":{"climbing:quality":"solid","climbing:rock":"limestone","natural":"bare_rock","rock":"limestone","source":"knowledge","sport":"climbing"}},"1298044674":{"lat":50.195313,"lon":19.7212722,"ts":"2024-07-01T09:02:44Z","tz":1,"tags":{"climbing:bolted":"yes","climbing:quality":"solid","climbing:rock":"limestone","climbing:sport":"yes","name":"Bukowe skały","natural":"bare_rock","rock":"limestone","source":"knowledge","sport":"climbing"}},"1298045554":{"lat":50.1970608,"lon":19.7309027,"ts":"2024-07-01T09:11:30Z","tz":1,"tags":{"height":"10","leisure":"climbing","name":"Parasol","natural":"cliff","rock":"limestone","source":"knowledge","sport":"climbing"}},"1298045555":{"lat":50.1973707,"lon":19.7312722,"ts":"2024-07-01T09:11:30Z","tz":1,"tags":{"climbing:quality":"solid","climbing:rock":"limestone","natural":"bare_rock","rock":"limestone","source":"knowledge","sport":"climbing"}},"1298045556":{"lat":50.1974376,"lon":19.7311014,"ts":"2024-07-01T09:11:30Z","tz":1,"tags":{"climbing:quality":"solid","climbing:rock":"limestone","natural":"bare_rock","rock":"limestone","source":"knowledge","sport":"climbing"}},"1298045557":{"lat":50.1970608,"lon":19.7309027,"ts":"2024-07-01T09:11:30Z","tz":1,"tags":{"climbing:quality":"solid","climbing:rock":"limestone","climbing:sport":"yes","climbing:trad":"yes","height":"10","name":"Parasol","natural":"bare_rock","source":"knowledge","sport":"climbing"}},"1298045558":{"lat":50.1970187,"lon":19.7310468,"ts":"2024-07-01T09:11:30Z","tz":1,"tags":{"climbing:quality":"solid","climbing:rock":"limestone","climbing:sport":"yes","name":"Grupa Parasola","natural":"bare_rock","rock":"limestone","source":"knowledge","sport":"climbing"}},"1298045559":{"lat":50.1972084,"lon":19.7314342,"ts":"2024-07-01T09:11:30Z","tz":1,"tags":{"climbing:bolted":"yes","climbing:quality":"solid","climbing:rock":"limestone","climbing:sport":"yes","climbing:trad":"yes","height":"12","name":"Grupa Parasola","natural":"bare_rock","rock":"limestone","source":"knowledge","sport":"climbing"}},"1298051371":{"lat":50.1524721,"lon":19.6996499,"ts":"2024-07-01T09:41:38Z","tz":1,"tags":{"climbing:quality":"solid","climbing:rock":"limestone","natural":"bare_rock","rock":"limestone","source":"knowledge","sport":"climbing"}},"1298051372":{"lat":50.1532286,"lon":19.7011466,"ts":"2024-07-01T09:41:38Z","tz":1,"tags":{"climbing:quality":"solid","climbing:rock":"limestone","natural":"bare_rock","rock":"limestone","source":"knowledge","sport":"climbing"}},"1298051373":{"lat":50.1533128,"lon":19.7019378,"ts":"2024-07-01T09:41:38Z","tz":1,"tags":{"climbing:quality":"solid","climbing:rock":"limestone","natural":"bare_rock","rock":"limestone","source":"knowledge","sport":"climbing"}},"1298051374":{"lat":50.1532271,"lon":19.7004508,"ts":"2024-07-01T09:41:38Z","tz":1,"tags":{"height":"20","leisure":"climbing","name":"Pozornica","natural":"cliff","rock":"limestone","source":"knowledge","sport":"climbing"}},"1298051375":{"lat":50.1532367,"lon":19.7001193,"ts":"2024-07-01T09:41:38Z","tz":1,"tags":{"height":"16","leisure":"climbing","name":"Pozornica","natural":"cliff","rock":"limestone","source":"knowledge","sport":"climbing"}},"1298051376":{"lat":50.1532561,"lon":19.7005596,"ts":"2024-07-01T09:41:38Z","tz":1,"tags":{"climbing:bolted":"yes","climbing:quality":"solid","climbing:rock":"limestone","climbing:sport":"yes","height":"20","name":"Pozornica","natural":"bare_rock","rock":"limestone","source":"knowledge","sport":"climbing"}},"1298051377":{"lat":50.1535625,"lon":19.6997418,"ts":"2024-07-01T09:41:38Z","tz":1,"tags":{"height":"14","leisure":"climbing","name":"Pozornica nad wodą","natural":"cliff","rock":"limestone","source":"knowledge","sport":"climbing"}},"1298051378":{"lat":50.1533194,"lon":19.699777,"ts":"2024-07-01T09:41:38Z","tz":1,"tags":{"climbing:bolted":"yes","climbing:quality":"solid","climbing:rock":"limestone","climbing:sport":"yes","height":"15","name":"Pozornica nad wodą","natural":"bare_rock","rock":"limestone","source":"knowledge","sport":"climbing"}},"1298053404":{"lat":50.1888397,"lon":19.7121863,"ts":"2024-07-01T09:56:45Z","tz":1,"tags":{"height":"10","leisure":"climbing","name":"Torba","natural":"cliff","rock":"limestone","source":"knowledge","sport":"climbing"}},"1298053405":{"lat":50.1888467,"lon":19.7121313,"ts":"2024-07-01T09:56:45Z","tz":1,"tags":{"climbing:bolted":"yes","climbing:quality":"solid","climbing:rock":"limestone","climbing:sport":"yes","height":"10","name":"Torba","natural":"bare_rock","rock":"limestone","source":"knowledge","sport":"climbing"}},"1298053406":{"lat":50.1891242,"lon":19.7114085,"ts":"2024-07-01T09:56:45Z","tz":1,"tags":{"height":"18","leisure":"climbing","name":"Kręta Baszta","natural":"cliff","rock":"limestone","source":"knowledge","sport":"climbing"}},"1298053408":{"lat":50.1891725,"lon":19.7116037,"ts":"2024-07-01T09:56:45Z","tz":1,"tags":{"height":"14","leisure":"climbing","name":"Kręta","natural":"cliff","rock":"limestone","source":"knowledge","sport":"climbing"}},"1298053409":{"lat":50.1891571,"lon":19.7116107,"ts":"2024-07-01T09:56:45Z","tz":1,"tags":{"climbing:bolted":"yes","climbing:quality":"solid","climbing:rock":"limestone","climbing:sport":"yes","height":"14","name":"Kręta","natural":"bare_rock","rock":"limestone","source":"knowledge","sport":"climbing"}},"1298053410":{"lat":50.1889166,"lon":19.7119163,"ts":"2024-07-01T09:56:45Z","tz":1,"tags":{"height":"6","leisure":"climbing","name":"Pręgierz","natural":"cliff","rock":"limestone","source":"knowledge","sport":"climbing"}},"1298053411":{"lat":50.188922,"lon":19.7119055,"ts":"2024-07-01T09:56:45Z","tz":1,"tags":{"climbing:quality":"solid","climbing:rock":"limestone","climbing:sport":"yes","height":"6","name":"Pręgierz","natural":"bare_rock","rock":"limestone","source":"knowledge","sport":"climbing"}},"1298053412":{"lat":50.1886829,"lon":19.7120089,"ts":"2024-07-01T09:56:45Z","tz":1,"tags":{"climbing:quality":"solid","climbing:rock":"limestone","natural":"bare_rock","rock":"limestone","source":"knowledge","sport":"climbing"}},"1298055432":{"lat":50.1780115,"lon":19.7172394,"ts":"2024-07-01T10:09:02Z","tz":1,"tags":{"height":"14","leisure":"climbing","name":"Białe Ściany","natural":"cliff","rock":"limestone","source":"knowledge","sport":"climbing"}},"1298055990":{"lat":50.2085685,"lon":19.7588522,"ts":"2024-07-01T10:12:53Z","tz":1,"tags":{"climbing:quality":"solid","climbing:rock":"limestone","natural":"bare_rock","rock":"limestone","source":"knowledge","sport":"climbing"}},"1298058592":{"lat":50.1943803,"lon":19.7705188,"ts":"2024-07-01T10:36:40Z","tz":1,"tags":{"height":"15","leisure":"climbing","name":"Turnia Skwira","natural":"cliff","rock":"limestone","source":"knowledge","sport":"climbing"}},"1298058593":{"lat":50.1948208,"lon":19.7697469,"ts":"2024-07-01T10:36:40Z","tz":1,"tags":{"height":"12","leisure":"climbing","name":"Paśnik","natural":"cliff","rock":"limestone","source":"knowledge","sport":"climbing"}},"1298058594":{"lat":50.1947854,"lon":19.7705076,"ts":"2024-07-01T10:36:40Z","tz":1,"tags":{"climbing:quality":"solid","climbing:rock":"limestone","climbing:sport":"no","natural":"bare_rock","rock":"limestone","source":"knowledge","sport":"climbing"}},"1298058595":{"lat":50.1949699,"lon":19.7691504,"ts":"2024-07-01T10:36:40Z","tz":1,"tags":{"climbing:quality":"solid","climbing:rock":"limestone","natural":"bare_rock","rock":"limestone","source":"knowledge","sport":"climbing"}},"1298058596":{"lat":50.1944218,"lon":19.7699193,"ts":"2024-07-01T10:36:40Z","tz":1,"tags":{"climbing:bolted":"yes","climbing:quality":"solid","climbing:rock":"limestone","climbing:sport":"yes","height":"16","name":"Turnia Skwira","natural":"bare_rock","rock":"limestone","source":"knowledge","sport":"climbing"}},"1298063945":{"lat":50.1674586,"lon":19.7454976,"ts":"2024-07-01T11:11:05Z","tz":1,"tags":{"height":"12","leisure":"climbing","name":"Sernik","natural":"cliff","rock":"limestone","source":"knowledge","sport":"climbing"}},"1298063946":{"lat":50.1674202,"lon":19.7454082,"ts":"2024-07-01T11:11:05Z","tz":1,"tags":{"climbing:bolted":"yes","climbing:quality":"solid","climbing:rock":"limestone","climbing:sport":"yes","height":"12","name":"Sernik","natural":"bare_rock","rock":"limestone","source":"knowledge","sport":"climbing"}},"1298063947":{"lat":50.1664979,"lon":19.7425748,"ts":"2024-07-01T11:11:05Z","tz":1,"tags":{"climbing:quality":"solid","climbing:rock":"limestone","natural":"bare_rock","rock":"limestone","source":"knowledge","sport":"climbing"}},"1298063948":{"lat":50.1665716,"lon":19.7424996,"ts":"2024-07-01T11:11:05Z","tz":1,"tags":{"height":"25","leisure":"climbing","name":"Pytajniki","natural":"cliff","rock":"limestone","source":"knowledge","sport":"climbing"}},"1298063949":{"lat":50.1669946,"lon":19.7424717,"ts":"2024-07-01T11:11:05Z","tz":1,"tags":{"height":"16","leisure":"climbing","name":"Rogata Grań","natural":"cliff","rock":"limestone","source":"knowledge","sport":"climbing"}},"1298063950":{"lat":50.1670171,"lon":19.7424875,"ts":"2024-07-01T11:11:05Z","tz":1,"tags":{"climbing:bolted":"yes","climbing:quality":"solid","climbing:rock":"limestone","climbing:sport":"yes","climbing:trad":"yes","height":"16","name":"Rogata Grań","natural":"bare_rock","rock":"limestone","source":"knowledge","sport":"climbing"}},"1298063951":{"lat":50.1673557,"lon":19.7422108,"ts":"2024-07-01T11:11:05Z","tz":1,"tags":{"height":"18","leisure":"climbing","name":"Lajknonik","natural":"cliff","rock":"limestone","source":"knowledge","sport":"climbing"}},"1298063952":{"lat":50.1673629,"lon":19.7423208,"ts":"2024-07-01T11:11:05Z","tz":1,"tags":{"climbing:quality":"solid","climbing:rock":"limestone","climbing:sport":"yes","climbing:trad":"yes","height":"18","name":"Lajknonik","natural":"bare_rock","rock":"limestone","source":"knowledge","sport":"climbing"}},"1298065957":{"lat":50.1588601,"lon":19.7422318,"ts":"2024-07-01T11:23:45Z","tz":1,"tags":{"leisure":"climbing","name":"Rodzynek","natural":"cliff","rock":"limestone","source":"knowledge","sport":"climbing"}},"1298065958":{"lat":50.1587102,"lon":19.7421108,"ts":"2024-07-01T11:23:45Z","tz":1,"tags":{"climbing:bolted":"yes","climbing:quality":"solid","climbing:rock":"limestone","climbing:sport":"yes","height":"12","name":"Rodzynek","natural":"bare_rock","rock":"limestone","source":"knowledge","sport":"climbing"}},"1298066740":{"lat":50.1687848,"lon":19.760241,"ts":"2024-07-01T11:30:08Z","tz":1,"tags":{"leisure":"climbing","name":"Samotna skała","natural":"cliff","rock":"limestone","source":"knowledge","sport":"climbing"}},"1298066741":{"lat":50.1688594,"lon":19.760194,"ts":"2024-07-01T11:30:08Z","tz":1,"tags":{"height":"10","leisure":"climbing","name":"Samotna skała","natural":"cliff","rock":"limestone","source":"knowledge","sport":"climbing"}},"1298066742":{"lat":50.1689607,"lon":19.7601438,"ts":"2024-07-01T11:30:08Z","tz":1,"tags":{"leisure":"climbing","natural":"cliff","rock":"limestone","source":"knowledge","sport":"climbing"}},"1298066743":{"lat":50.1688893,"lon":19.7602421,"ts":"2024-07-01T11:30:08Z","tz":1,"tags":{"climbing:bolted":"yes","climbing:quality":"solid","climbing:rock":"limestone","climbing:sport":"yes","height":"10","name":"Samotna skała","natural":"bare_rock","rock":"limestone","source":"knowledge","sport":"climbing"}},"1298066744":{"lat":50.1746859,"lon":19.7601931,"ts":"2024-07-01T11:30:08Z","tz":1,"tags":{"climbing:quality":"solid","climbing:rock":"limestone","natural":"bare_rock","rock":"limestone","source":"knowledge","sport":"climbing"}},"1298070812":{"lat":50.1638233,"lon":19.7654847,"ts":"2024-07-01T11:53:51Z","tz":1,"tags":{"height":"10","leisure":"climbing","name":"Obelisk","natural":"cliff","rock":"limestone","source":"knowledge","sport":"climbing"}},"1298070813":{"lat":50.1638337,"lon":19.7654922,"ts":"2024-08-05T08:35:14Z","tz":1,"tags":{"climbing:bolted":"yes","climbing:quality":"solid","climbing:rock":"limestone","climbing:sport":"yes","height":"12","name":"Obelisk","natural":"bare_rock","rock":"limestone","source":"knowledge","sport":"climbing"}},"1298070814":{"lat":50.1648201,"lon":19.7650001,"ts":"2024-07-01T11:53:51Z","tz":1,"tags":{"height":"12","leisure":"climbing","name":"Bliźnięta","natural":"cliff","rock":"limestone","source":"knowledge","sport":"climbing"}},"1298070815":{"lat":50.1648665,"lon":19.7650553,"ts":"2024-07-01T11:53:51Z","tz":1,"tags":{"climbing:bolted":"yes","climbing:quality":"solid","climbing:rock":"limestone","climbing:sport":"yes","climbing:trad":"yes","height":"12","name":"Bliźnięta","natural":"bare_rock","rock":"limestone","source":"knowledge","sport":"climbing"}},"1298070816":{"lat":50.16511,"lon":19.7650374,"ts":"2024-07-01T11:53:51Z","tz":1,"tags":{"height":"14","leisure":"climbing","name":"Chorobliwa Grań","natural":"cliff","rock":"limestone","source":"knowledge","sport":"climbing"}},"1298070817":{"lat":50.1651283,"lon":19.7651229,"ts":"2024-07-01T11:53:51Z","tz":1,"tags":{"climbing:bolted":"yes","climbing:quality":"solid","climbing:rock":"limestone","climbing:sport":"yes","climbing:trad":"yes","height":"14","name":"Chorobliwa Grań","natural":"bare_rock","rock":"limestone","source":"knowledge","sport":"climbing"}},"1298079659":{"lat":50.1620498,"lon":19.7655519,"ts":"2024-09-06T11:19:49Z","tz":1,"tags":{"height":"20","leisure":"climbing","name":"Zadnia Wronia baszta","natural":"cliff","rock":"limestone","source":"knowledge","sport":"climbing"}},"1298079661":{"lat":50.1619994,"lon":19.765506,"ts":"2024-09-06T11:19:49Z","tz":1,"tags":{"climbing:bolted":"yes","climbing:quality":"solid","climbing:rock":"limestone","climbing:sport":"yes","climbing:trad":"yes","name":"Zadnia Wronia baszta","source":"knowledge","sport":"climbing"}},"1298079663":{"lat":50.163351,"lon":19.7658853,"ts":"2024-07-01T12:36:07Z","tz":1,"tags":{"leisure":"climbing","name":"Podcięta Turnia","natural":"cliff","rock":"limestone","source":"knowledge","sport":"climbing"}},"1298079664":{"lat":50.1633552,"lon":19.7657635,"ts":"2024-07-01T12:36:07Z","tz":1,"tags":{"climbing:bolted":"yes","climbing:quality":"solid","climbing:rock":"limestone","climbing:sport":"yes","climbing:trad":"yes","height":"18","name":"Podcięta Turnia","natural":"bare_rock","rock":"limestone","source":"knowledge","sport":"climbing"}},"1298079665":{"lat":50.1634598,"lon":19.765477,"ts":"2024-07-01T12:36:07Z","tz":1,"tags":{"height":"18","leisure":"climbing","name":"Omszała Turnia","natural":"cliff","rock":"limestone","source":"knowledge","sport":"climbing"}},"1298079666":{"lat":50.1634733,"lon":19.7655343,"ts":"2024-07-01T12:36:07Z","tz":1,"tags":{"climbing:bolted":"yes","climbing:quality":"solid","climbing:rock":"limestone","climbing:sport":"yes","climbing:trad":"yes","height":"18","name":"Omszała Turnia","natural":"bare_rock","rock":"limestone","source":"knowledge","sport":"climbing"}},"1298125451":{"lat":50.1585456,"lon":19.7657176,"ts":"2024-07-01T14:49:34Z","tz":1,"tags":{"climbing:quality":"solid","climbing:rock":"limestone","natural":"bare_rock","source":"knowledge","sport":"climbing"}},"1298125452":{"lat":50.1592702,"lon":19.765494,"ts":"2024-07-01T14:49:34Z","tz":1,"tags":{"climbing:quality":"solid","climbing:rock":"limestone","natural":"bare_rock","source":"knowledge","sport":"climbing"}},"1298125453":{"lat":50.1593137,"lon":19.7651125,"ts":"2024-07-01T14:49:34Z","tz":1,"tags":{"height":"12","leisure":"climbing","name":"Tarasowata Turnia","natural":"cliff","rock":"limestone","source":"knowledge","sport":"climbing"}},"1298125454":{"lat":50.1593941,"lon":19.7651048,"ts":"2024-07-01T14:49:34Z","tz":1,"tags":{"climbing:bolted":"yes","climbing:quality":"solid","climbing:rock":"limestone","climbing:sport":"yes","climbing:trad":"yes","height":"12","name":"Tarasowata Turnia","natural":"bare_rock","rock":"limestone","source":"knowledge","sport":"climbing"}},"1298125455":{"lat":50.159299,"lon":19.7645027,"ts":"2024-07-01T14:49:34Z","tz":1,"tags":{"height":"12","leisure":"climbing","name":"Turnia Marcinkowskiego","natural":"cliff","rock":"limestone","source":"knowledge","sport":"climbing"}},"1298125457":{"lat":50.1609444,"lon":19.7643243,"ts":"2024-07-01T14:49:34Z","tz":1,"tags":{"height":"18","leisure":"climbing","name":"Pieninki","natural":"cliff","rock":"limestone","source":"knowledge","sport":"climbing"}},"1298125458":{"lat":50.160931,"lon":19.7640854,"ts":"2024-07-01T14:49:34Z","tz":1,"tags":{"height":"18","leisure":"climbing","name":"Pieninki","natural":"cliff","rock":"limestone","source":"knowledge","sport":"climbing"}},"1298125459":{"lat":50.1609644,"lon":19.7641681,"ts":"2024-08-05T08:39:56Z","tz":1,"tags":{"climbing:bolted":"yes","climbing:quality":"solid","climbing:rock":"limestone","climbing:sport":"yes","climbing:trad":"yes","height":"18","name":"Pieninki","natural":"bare_rock","rock":"limestone","source":"knowledge","sport":"climbing"}},"1298125460":{"lat":50.1613259,"lon":19.7643769,"ts":"2024-07-01T14:49:34Z","tz":1,"tags":{"height":"20","leisure":"climbing","name":"Skalny Mur","natural":"cliff","rock":"limestone","source":"knowledge","sport":"climbing"}},"1298125461":{"lat":50.1612481,"lon":19.7644185,"ts":"2024-08-05T08:39:56Z","tz":1,"tags":{"climbing:bolted":"yes","climbing:quality":"solid","climbing:rock":"limestone","climbing:sport":"yes","climbing:trad":"yes","height":"20","name":"Skalny Mur","natural":"bare_rock","rock":"limestone","source":"knowledge","sport":"climbing"}},"1298131996":{"lat":50.1573726,"lon":19.7592811,"ts":"2024-07-01T15:20:51Z","tz":1,"tags":{"climbing:quality":"solid","climbing:rock":"limestone","natural":"bare_rock","rock":"limestone","source":"knowledge","sport":"climbing"}},"1298131997":{"lat":50.1577702,"lon":19.7598654,"ts":"2024-07-01T15:20:51Z","tz":1,"tags":{"height":"16","leisure":"climbing","name":"Dwoista Turnia","natural":"cliff","rock":"limestone","source":"knowledge","sport":"climbing"}},"1298131998":{"lat":50.1577702,"lon":19.7599077,"ts":"2024-07-01T15:20:51Z","tz":1,"tags":{"climbing:bolted":"yes","climbing:mixed":"no","climbing:quality":"solid","climbing:rock":"limestone","climbing:sport":"yes","climbing:trad":"yes","height":"14","name":"Dwoista Turnia","natural":"bare_rock","rock":"limestone","source":"knowledge","sport":"climbing"}},"1298333996":{"lat":50.1553435,"lon":19.7561843,"ts":"2024-07-02T07:17:52Z","tz":1,"tags":{"height":"10","leisure":"climbing","name":"Dziób Kobylański","natural":"cliff","rock":"limestone","source":"knowledge","sport":"climbing"}},"1298333997":{"lat":50.155275,"lon":19.756313,"ts":"2024-07-02T07:17:52Z","tz":1,"tags":{"height":"16","leisure":"climbing","name":"Mnich","natural":"cliff","rock":"limestone","source":"knowledge","sport":"climbing"}},"1298333998":{"lat":50.1552777,"lon":19.7562565,"ts":"2024-07-02T07:17:52Z","tz":1,"tags":{"climbing:bolted":"yes","climbing:quality":"solid","climbing:rock":"limestone","climbing:sport":"yes","height":"16","name":"Mnich","natural":"bare_rock","rock":"limestone","source":"knowledge","sport":"climbing"}},"1298333999":{"lat":50.155529,"lon":19.7560786,"ts":"2024-07-02T07:17:52Z","tz":1,"tags":{"height":"12","leisure":"climbing","name":"Filarki obok kapliczki","natural":"cliff","rock":"limestone","source":"knowledge","sport":"climbing"}},"1298334000":{"lat":50.155529,"lon":19.7562316,"ts":"2024-07-02T07:17:52Z","tz":1,"tags":{"climbing:bolted":"yes","climbing:quality":"solid","climbing:rock":"limestone","climbing:sport":"yes","height":"13","name":"Filarki obok kapliczki","natural":"bare_rock","rock":"limestone","source":"knowledge","sport":"climbing"}},"1298334001":{"lat":50.1556715,"lon":19.7561081,"ts":"2024-07-02T07:17:52Z","tz":1,"tags":{"height":"12","leisure":"climbing","name":"Filarki obok kapliczki","natural":"cliff","rock":"limestone","source":"knowledge","sport":"climbing"}},"1298334002":{"lat":50.1557025,"lon":19.7561478,"ts":"2024-07-02T07:17:52Z","tz":1,"tags":{"climbing:bolted":"yes","climbing:quality":"solid","climbing:rock":"limestone","climbing:sport":"yes","height":"12","name":"Filarki obok kapliczki","natural":"bare_rock","rock":"limestone","source":"knowledge","sport":"climbing"}},"1298336954":{"lat":50.1539672,"lon":19.7710768,"ts":"2024-07-02T07:38:26Z","tz":1,"tags":{"height":"10","leisure":"climbing","name":"Trybuna A","natural":"cliff","rock":"limestone","source":"knowledge","sport":"climbing"}},"1298336955":{"lat":50.1536213,"lon":19.7717769,"ts":"2024-07-02T07:38:26Z","tz":1,"tags":{"height":"12","leisure":"climbing","name":"Bramka i Boisko","natural":"cliff","rock":"limestone","source":"knowledge","sport":"climbing"}},"1298341349":{"lat":50.1706931,"lon":19.8100634,"ts":"2024-07-02T08:08:18Z","tz":1,"tags":{"height":"6","leisure":"climbing","name":"Rogatka","natural":"cliff","rock":"limestone","source":"knowledge","sport":"climbing"}},"1298341350":{"lat":50.1707807,"lon":19.8102386,"ts":"2024-07-02T08:08:18Z","tz":1,"tags":{"climbing:bolted":"yes","climbing:quality":"solid","climbing:rock":"limestone","climbing:sport":"yes","height":"6","name":"Rogatka","natural":"bare_rock","rock":"limestone","source":"knowledge","sport":"climbing"}},"1298341351":{"lat":50.1707947,"lon":19.8063229,"ts":"2024-07-02T08:08:18Z","tz":1,"tags":{"climbing:quality":"solid","climbing:rock":"limestone","climbing:trad":"yes","height":"10","name":"Basior","natural":"bare_rock","rock":"limestone","source":"knowledge","sport":"climbing"}},"1298341352":{"lat":50.1705915,"lon":19.8057201,"ts":"2024-07-02T08:08:18Z","tz":1,"tags":{"height":"12","leisure":"climbing","name":"Wierzchowska Grań","natural":"cliff","rock":"limestone","source":"knowledge","sport":"climbing"}},"1298341353":{"lat":50.1705915,"lon":19.8057647,"ts":"2024-07-02T08:08:18Z","tz":1,"tags":{"climbing:bolted":"yes","climbing:quality":"solid","climbing:rock":"limestone","climbing:trad":"yes","height":"12","name":"Wierzchowska Grań","natural":"bare_rock","rock":"limestone","source":"knowledge","sport":"climbing"}},"1298341354":{"lat":50.1704299,"lon":19.8057516,"ts":"2024-07-02T08:08:18Z","tz":1,"tags":{"leisure":"climbing","name":"Mamutowa Skała","natural":"cliff","rock":"limestone","source":"knowledge","sport":"climbing"}},"1298341355":{"lat":50.1708092,"lon":19.8055195,"ts":"2024-07-02T08:08:18Z","tz":1,"tags":{"height":"16","leisure":"climbing","name":"Ciosowa Turnia","natural":"cliff","rock":"limestone","source":"knowledge","sport":"climbing"}},"1298341356":{"lat":50.1708043,"lon":19.8056354,"ts":"2024-07-02T08:08:18Z","tz":1,"tags":{"climbing:quality":"solid","climbing:rock":"limestone","climbing:sport":"yes","climbing:trad":"yes","height":"18","name":"Ciosowa Turnia","natural":"bare_rock","rock":"limestone","source":"knowledge","sport":"climbing"}},"1298341357":{"lat":50.1741678,"lon":19.8061598,"ts":"2024-07-02T08:08:18Z","tz":1,"tags":{"climbing:quality":"solid","climbing:rock":"limestone","climbing:trad":"yes","height":"15","name":"Zaroślak","natural":"bare_rock","rock":"limestone","source":"knowledge","sport":"climbing"}},"1298341358":{"lat":50.1743647,"lon":19.8062786,"ts":"2024-07-02T08:08:18Z","tz":1,"tags":{"climbing:quality":"solid","climbing:rock":"limestone","climbing:trad":"yes","height":"16","name":"Poprzeczna Turnia","natural":"bare_rock","rock":"limestone","source":"knowledge","sport":"climbing"}},"1298343824":{"lat":50.1111154,"lon":19.7394898,"ts":"2024-07-02T08:23:04Z","tz":1,"tags":{"height":"10","leisure":"climbing","name":"Kochanka","natural":"cliff","rock":"limestone","source":"knowledge","sport":"climbing"}},"1298343825":{"lat":50.1110527,"lon":19.7393153,"ts":"2024-07-02T08:23:04Z","tz":1,"tags":{"climbing:bolted":"yes","climbing:quality":"solid","climbing:rock":"limestone","climbing:sport":"yes","climbing:trad":"yes","height":"10","name":"Kochanka","natural":"bare_rock","rock":"limestone","source":"knowledge","sport":"climbing"}},"1298343826":{"lat":50.1112399,"lon":19.7393403,"ts":"2024-07-02T08:23:04Z","tz":1,"tags":{"height":"6","leisure":"climbing","name":"Ostryga","natural":"cliff","rock":"limestone","source":"knowledge","sport":"climbing"}},"1298343827":{"lat":50.1112399,"lon":19.7393153,"ts":"2024-07-02T08:23:04Z","tz":1,"tags":{"climbing:quality":"solid","climbing:rock":"limestone","climbing:trad":"yes","height":"6","name":"Ostryga","natural":"bare_rock","rock":"limestone","source":"knowledge","sport":"climbing"}},"1298343828":{"lat":50.1105943,"lon":19.7396365,"ts":"2024-07-02T08:23:04Z","tz":1,"tags":{"height":"16","leisure":"climbing","name":"Walec","natural":"cliff","rock":"limestone","source":"knowledge","sport":"climbing"}},"1298343829":{"lat":50.1105536,"lon":19.7396109,"ts":"2024-07-02T08:23:04Z","tz":1,"tags":{"climbing:bolted":"yes","climbing:quality":"solid","climbing:rock":"limestone","climbing:routes":"21","climbing:sport":"yes","climbing:trad":"yes","height":"16","name":"Walec","natural":"bare_rock","rock":"limestone","source":"knowledge","sport":"climbing"}},"1298344449":{"lat":50.1101075,"lon":19.7224172,"ts":"2024-07-02T08:27:24Z","tz":1,"tags":{"height":"13","leisure":"climbing","name":"Plaskolec","natural":"cliff","rock":"limestone","source":"knowledge","sport":"climbing"}},"1298344450":{"lat":50.1102443,"lon":19.722307,"ts":"2024-07-02T08:27:24Z","tz":1,"tags":{"height":"10","leisure":"climbing","name":"Plaskolec","natural":"cliff","rock":"limestone","source":"knowledge","sport":"climbing"}},"1298344451":{"lat":50.1102315,"lon":19.7222865,"ts":"2024-07-02T08:27:24Z","tz":1,"tags":{"climbing:bolted":"yes","climbing:quality":"solid","climbing:rock":"limestone","climbing:sport":"yes","height":"10","name":"Plaskolec","natural":"bare_rock","rock":"limestone","source":"knowledge","sport":"climbing"}},"1298344452":{"lat":50.1101113,"lon":19.7223468,"ts":"2024-07-02T08:27:24Z","tz":1,"tags":{"climbing:bolted":"yes","climbing:quality":"solid","climbing:rock":"limestone","climbing:sport":"yes","height":"13","name":"Plaskula","natural":"bare_rock","rock":"limestone","source":"knowledge","sport":"climbing"}},"1298345767":{"lat":50.105072,"lon":19.7016291,"ts":"2024-07-02T08:36:32Z","tz":1,"tags":{"leisure":"climbing","name":"Kapliczka","natural":"cliff","rock":"limestone","source":"knowledge","sport":"climbing"}},"1298345768":{"lat":50.105157,"lon":19.701931,"ts":"2024-07-02T08:36:32Z","tz":1,"tags":{"height":"10","leisure":"climbing","name":"Kapliczka","natural":"cliff","rock":"limestone","source":"knowledge","sport":"climbing"}},"1304662404":{"lat":50.1639239,"lon":19.7659072,"ts":"2024-07-30T14:41:32Z","tz":1,"tags":{"leisure":"climbing","name":"Asteriks","natural":"cliff","rock":"limestone","source":"knowledge","sport":"climbing"}},"1304662405":{"lat":50.1639506,"lon":19.7659357,"ts":"2024-07-30T14:41:32Z","tz":1,"tags":{"climbing:bolted":"yes","climbing:quality":"solid","climbing:rock":"limestone","climbing:sport":"yes","height":"10","name":"Asteriks","natural":"bare_rock","rock":"limestone","source":"knowledge","sport":"climbing"}},"1305677282":{"lat":50.1579781,"lon":19.7626882,"ts":"2024-08-05T08:32:35Z","tz":1,"tags":{"height":"8","leisure":"climbing","name":"Żabka","natural":"cliff","rock":"limestone","source":"knowledge","sport":"climbing"}},"1305677283":{"lat":50.1579823,"lon":19.7626793,"ts":"2024-08-05T08:32:35Z","tz":1,"tags":{"climbing:bolted":"no","climbing:quality":"solid","climbing:rock":"limestone","climbing:sport":"yes","climbing:trad":"yes","height":"8","name":"Żabka","natural":"bare_rock","rock":"limestone","source":"knowledge","sport":"climbing"}},"1305677284":{"lat":50.1577535,"lon":19.7628273,"ts":"2024-08-05T08:32:35Z","tz":1,"tags":{"climbing:quality":"solid","climbing:rock":"limestone","natural":"bare_rock","rock":"limestone","source":"knowledge","sport":"climbing"}},"1305677285":{"lat":50.157843,"lon":19.7633335,"ts":"2024-08-05T08:32:35Z","tz":1,"tags":{"height":"13","leisure":"climbing","name":"Mur pod okrętem","natural":"cliff","rock":"limestone","source":"knowledge","sport":"climbing"}},"1305677286":{"lat":50.1578352,"lon":19.7633031,"ts":"2024-08-05T08:32:35Z","tz":1,"tags":{"climbing:bolted":"yes","climbing:quality":"solid","climbing:rock":"limestone","climbing:sport":"yes","climbing:trad":"yes","height":"13","name":"Mur pod okrętem","natural":"bare_rock","rock":"limestone","source":"knowledge","sport":"climbing"}},"1305677287":{"lat":50.1578765,"lon":19.7631585,"ts":"2024-08-05T08:32:35Z","tz":1,"tags":{"height":"16","leisure":"climbing","name":"Okręt","natural":"cliff","rock":"limestone","source":"knowledge","sport":"climbing"}},"1305677288":{"lat":50.1578502,"lon":19.7631295,"ts":"2024-08-05T08:32:35Z","tz":1,"tags":{"climbing:bolted":"yes","climbing:mixed":"no","climbing:quality":"solid","climbing:rock":"limestone","climbing:routes":"7","climbing:sport":"yes","climbing:trad":"yes","height":"16","name":"Okręt","natural":"bare_rock","rock":"limestone","source":"knowledge","sport":"climbing"}},"1305679665":{"lat":50.1620831,"lon":19.7652062,"ts":"2024-08-05T08:44:41Z","tz":1,"tags":{"climbing:quality":"solid","climbing:rock":"limestone","natural":"bare_rock","rock":"limestone","source":"knowledge","sport":"climbing"}},"1305679666":{"lat":50.1620486,"lon":19.765329,"ts":"2024-09-06T11:19:49Z","tz":1,"tags":{"height":"31","leisure":"climbing","name":"Wronia Baszta","natural":"cliff","rock":"limestone","source":"knowledge","sport":"climbing"}},"1305679667":{"lat":50.1620486,"lon":19.765329,"ts":"2024-09-06T11:19:49Z","tz":1,"tags":{"climbing:bolted":"yes","climbing:quality":"solid","climbing:rock":"limestone","climbing:sport":"yes","climbing:trad":"yes","height":"31","name":"Wronia Baszta","natural":"bare_rock","rock":"limestone","source":"knowledge","sport":"climbing"}},"1305680002":{"lat":50.1680394,"lon":19.7662067,"ts":"2024-08-05T08:46:48Z","tz":1,"tags":{"climbing:quality":"solid","climbing:rock":"limestone","natural":"bare_rock","rock":"limestone","source":"knowledge","sport":"climbing"}},"1305884498":{"lat":50.1103878,"lon":19.7250115,"ts":"2024-08-06T07:03:36Z","tz":1,"tags":{"height":"12","leisure":"climbing","name":"Trzy korony","natural":"cliff","rock":"limestone","source":"knowledge","sport":"climbing"}},"1305884499":{"lat":50.1105025,"lon":19.7249141,"ts":"2024-08-06T07:03:36Z","tz":1,"tags":{"height":"12","leisure":"climbing","name":"Trzy korony","natural":"cliff","rock":"limestone","source":"knowledge","sport":"climbing"}},"1305884500":{"lat":50.1104053,"lon":19.7247067,"ts":"2024-08-06T07:03:36Z","tz":1,"tags":{"height":"14","leisure":"climbing","name":"Trzy korony","natural":"cliff","rock":"limestone","source":"knowledge","sport":"climbing"}},"1305884501":{"lat":50.110387,"lon":19.7248386,"ts":"2024-08-06T07:03:36Z","tz":1,"tags":{"climbing:bolted":"yes","climbing:quality":"solid","climbing:rock":"limestone","climbing:sport":"yes","climbing:trad":"yes","height":"15","name":"Trzy korony","natural":"bare_rock","rock":"limestone","source":"knowledge","sport":"climbing"}},"1305888296":{"lat":50.2413882,"lon":19.7606895,"ts":"2024-08-06T07:33:15Z","tz":1,"tags":{"height":"11","leisure":"climbing","name":"Krosna","natural":"cliff","rock":"limestone","source":"knowledge","sport":"climbing"}},"1305888297":{"lat":50.241394,"lon":19.7607846,"ts":"2024-08-06T07:33:15Z","tz":1,"tags":{"climbing:bolted":"yes","climbing:quality":"solid","climbing:rock":"limestone","climbing:sport":"yes","climbing:trad":"yes","height":"12","name":"Krosna","natural":"bare_rock","rock":"limestone","source":"knowledge","sport":"climbing"}},"1305888299":{"lat":50.2422099,"lon":19.7624609,"ts":"2024-08-06T07:33:15Z","tz":1,"tags":{"height":"13","leisure":"climbing","name":"Rzeszoto","natural":"cliff","rock":"limestone","source":"knowledge","sport":"climbing"}},"1305888300":{"lat":50.2421935,"lon":19.7624834,"ts":"2024-08-06T07:33:15Z","tz":1,"tags":{"climbing:bolted":"yes","climbing:quality":"solid","climbing:rock":"limestone","climbing:sport":"yes","climbing:trad":"no","height":"14","name":"Rzeszoto","natural":"bare_rock","rock":"limestone","source":"knowledge","sport":"climbing"}},"1306150590":{"lat":50.174161,"lon":19.8060867,"ts":"2024-08-07T12:04:46Z","tz":1,"tags":{"height":"15","leisure":"climbing","name":"Zaroślak","natural":"cliff","rock":"limestone","source":"knowledge","sport":"climbing"}},"1306150591":{"lat":50.1743631,"lon":19.8061836,"ts":"2024-08-07T12:04:46Z","tz":1,"tags":{"height":"15","leisure":"climbing","name":"Poprzeczna Turnia","natural":"cliff","rock":"limestone","source":"knowledge","sport":"climbing"}},"1312771043":{"lat":50.2281963,"lon":19.9162854,"ts":"2024-09-02T09:06:11Z","tz":1,"tags":{"height":"15","leisure":"climbing","name":"Sołtysowa skała","natural":"cliff","rock":"limestone","source":"knowledge","sport":"climbing"}},"1312771044":{"lat":50.2281406,"lon":19.9163753,"ts":"2024-09-02T09:06:11Z","tz":1,"tags":{"climbing:bolted":"yes","climbing:quality":"solid","climbing:rock":"limestone","climbing:sport":"yes","height":"16","name":"Sołtysowa skała","natural":"bare_rock","rock":"limestone","source":"knowledge","sport":"climbing"}},"1324642200":{"lat":50.1861454,"lon":19.8017842,"ts":"2024-10-17T09:40:22Z","tz":1,"tags":{"climbing:quality":"solid","climbing:rock":"limestone","natural":"stone","rock":"limestone","source":"knowledge","sport":"climbing"}},"1324642201":{"lat":50.1853802,"lon":19.8014442,"ts":"2024-10-17T09:40:22Z","tz":1,"tags":{"climbing:quality":"solid","climbing:rock":"limestone","natural":"bare_rock","rock":"limestone","source":"knowledge","sport":"climbing"}},"1324642202":{"lat":50.1854103,"lon":19.8012948,"ts":"2024-10-17T09:40:22Z","tz":1,"tags":{"climbing:quality":"solid","climbing:rock":"limestone","natural":"bare_rock","rock":"limestone","source":"knowledge","sport":"climbing"}},"1324642208":{"lat":50.1856119,"lon":19.8013926,"ts":"2024-10-17T09:40:22Z","tz":1,"tags":{"climbing:quality":"solid","climbing:rock":"limestone","natural":"stone","rock":"limestone","source":"knowledge","sport":"climbing"}},"1324642209":{"lat":50.1857736,"lon":19.8008319,"ts":"2024-10-17T09:40:22Z","tz":1,"tags":{"climbing:quality":"solid","climbing:rock":"limestone","natural":"bare_rock","rock":"limestone","source":"knowledge","sport":"climbing"}},"1324642210":{"lat":50.1860909,"lon":19.8012718,"ts":"2024-11-06T17:30:12Z","tz":1,"tags":{"height":"14","leisure":"climbing","name":"Żytnia Strasznica","natural":"cliff","rock":"limestone","source":"knowledge","sport":"climbing"}},"1324642211":{"lat":50.1860202,"lon":19.8011386,"ts":"2024-10-30T12:42:24Z","tz":1,"tags":{"climbing:bolted":"yes","climbing:quality":"solid","climbing:rock":"limestone","climbing:sport":"yes","climbing:trad":"yes","height":"15","name":"Żytnie Skały","natural":"bare_rock","rock":"limestone","source":"knowledge","sport":"climbing"}},"1324642212":{"lat":50.1860999,"lon":19.8016627,"ts":"2024-11-06T17:30:12Z","tz":1,"tags":{"height":"14","leisure":"climbing","name":"Żytnia Skała","natural":"cliff","rock":"limestone","source":"knowledge","sport":"climbing"}},"1324642213":{"lat":50.1860805,"lon":19.8016439,"ts":"2024-10-30T12:42:24Z","tz":1,"tags":{"climbing:bolted":"yes","climbing:quality":"solid","climbing:rock":"limestone","climbing:sport":"yes","climbing:trad":"yes","height":"15","name":"Żytnie Skały","natural":"bare_rock","rock":"limestone","source":"knowledge","sport":"climbing"}},"1328196268":{"lat":50.2309035,"lon":19.7086597,"ts":"2024-10-25T16:58:17Z","tz":1,"tags":{"climbing:bolted":"yes","climbing:length":"11","climbing:quality":"solid","climbing:rock":"limestone","climbing:routes":"12","climbing:sport":"yes","climbing:trad":"yes","height":"10","name":"Łopatka","natural":"bare_rock","rock":"limestone","source":"knowledge;survey","sport":"climbing"}},"1355119519":{"lat":50.1579513,"lon":19.8249784,"ts":"2025-01-29T08:33:07Z","tz":1,"tags":{"climbing:quality":"solid","climbing:rock":"limestone","height":"15","natural":"bare_rock","rock":"limestone","source":"knowledge","sport":"climbing"}},"1355119520":{"lat":50.1560985,"lon":19.8257185,"ts":"2025-01-29T08:33:07Z","tz":1,"tags":{"climbing:quality":"solid","climbing:rock":"limestone","natural":"bare_rock","rock":"limestone","source":"knowledge","sport":"climbing"}},"1355119521":{"lat":50.1555432,"lon":19.8247166,"ts":"2025-01-29T08:33:07Z","tz":1,"tags":{"climbing:quality":"solid","climbing:rock":"limestone","natural":"bare_rock","rock":"limestone","source":"knowledge","sport":"climbing"}},"1355119522":{"lat":50.1554308,"lon":19.823576,"ts":"2025-01-29T08:33:07Z","tz":1,"tags":{"climbing:quality":"solid","climbing:rock":"limestone","natural":"bare_rock","rock":"limestone","source":"knowledge","sport":"climbing"}},"1355119523":{"lat":50.1540495,"lon":19.818854,"ts":"2025-01-29T08:33:07Z","tz":1,"tags":{"climbing:quality":"solid","climbing:rock":"limestone","natural":"bare_rock","rock":"limestone","source":"knowledge","sport":"climbing"}},"1355119524":{"lat":50.1550873,"lon":19.8200227,"ts":"2025-01-29T08:33:07Z","tz":1,"tags":{"height":"12","leisure":"climbing","name":"Przecięta Skałka","natural":"cliff","rock":"limestone","source":"knowledge","sport":"climbing"}},"1355119525":{"lat":50.1550989,"lon":19.8199913,"ts":"2025-01-29T08:33:07Z","tz":1,"tags":{"climbing:bolted":"yes","climbing:quality":"solid","climbing:rock":"limestone","climbing:sport":"yes","climbing:trad":"yes","height":"12","name":"Przecięta Skałka","natural":"bare_rock","rock":"limestone","source":"knowledge","sport":"climbing"}},"1355119526":{"lat":50.1552811,"lon":19.8198083,"ts":"2025-01-29T08:33:07Z","tz":1,"tags":{"climbing:quality":"solid","climbing:rock":"limestone","height":"12","natural":"bare_rock","rock":"limestone","source":"knowledge","sport":"climbing"}},"1765339432":{"lat":50.1808406,"lon":19.7538049,"ts":"2021-08-11T07:43:11Z","tz":1,"tags":{"leisure":"climbing","name":"Jazzowa","sport":"climbing"}},"1765936391":{"lat":50.1808173,"lon":19.7549092,"ts":"2021-08-11T07:43:11Z","tz":1,"tags":{"leisure":"climbing","name":"Mur nad Źródłem","sport":"climbing"}},"1808843800":{"lat":50.2085284,"lon":19.7585704,"ts":"2024-07-01T10:12:53Z","tz":1,"tags":{"climbing:bolted":"yes","climbing:quality":"solid","climbing:rock":"limestone","climbing:sport":"yes","height":"10","name":"Goła","natural":"bare_rock","rock":"limestone","source":"knowledge","sport":"climbing"}},"3324976708":{"lat":50.1082562,"lon":19.7150193,"ts":"2015-02-03T09:59:00Z","tz":1,"tags":{"height":"14","name":"Rowerowa","natural":"rock","sport":"climbing"}},"5975804385":{"lat":50.1536308,"lon":19.7718959,"ts":"2021-02-06T22:57:27Z","tz":1,"tags":{"name":"Karniowicka Skała","natural":"rock","sport":"climbing","wikidata":"Q97373342","wikipedia":"pl:Karniowicka Skała"}},"7272859518":{"lat":50.1048775,"lon":19.8822937,"ts":"2021-02-15T12:24:35Z","tz":1,"tags":{"addr:city":"Kraków","addr:country":"PL","addr:housenumber":"166A;166a","addr:street":"Ojcowska","indoor":"yes","leisure":"sports_centre","name":"Bronx Bouldering","opening_hours":"Mo-Su 10:00-23:00","phone":"+48508384905","sport":"climbing"}},"9743788088":{"lat":50.1813366,"lon":19.7884495,"ts":"2022-05-16T13:59:10Z","tz":1,"tags":{"name":"Mamutek","sport":"climbing"}},"11145789736":{"lat":50.0858797,"lon":19.7296487,"ts":"2023-08-26T09:16:11Z","tz":1,"tags":{"name":"Kanion","sport":"climbing"}},"11998933699":{"lat":50.1537297,"lon":19.7718017,"ts":"2024-06-21T13:00:01Z","tz":1,"tags":{"climbing:bolted":"yes","climbing:quality":"solid","climbing:rock":"limestone","climbing:sport":"yes","height":"12","name":"Skały Karniowickie","natural":"bare_rock","rock":"limestone","source":"knowledge","sport":"climbing"}},"12000447834":{"lat":50.1049939,"lon":19.7019571,"ts":"2024-06-22T11:00:49Z","tz":1,"tags":{"climbing:bolted":"yes","climbing:quality":"solid","climbing:rock":"limestone","climbing:sport":"yes","climbing:trad":"yes","height":"10","name":"Kapliczka","natural":"bare_rock","rock":"limestone","source":"knowledge","sport":"climbing"}},"12025226490":{"lat":50.2259314,"lon":19.8308996,"ts":"2024-07-01T07:51:55Z","tz":1,"tags":{"climbing:quality":"solid","climbing:rock":"limestone","natural":"bare_rock","rock":"limestone","source":"knowledge","sport":"climbing"}},"12025306267":{"lat":50.2009067,"lon":19.7258921,"ts":"2024-07-01T08:50:19Z","tz":1,"tags":{"climbing:bolted":"yes","climbing:quality":"solid","climbing:rock":"limestone","climbing:sport":"yes","height":"12","natural":"bare_rock","rock":"limestone","source":"knowledge","sport":"climbing"}},"12025395145":{"lat":50.1890951,"lon":19.7113395,"ts":"2024-07-01T09:56:45Z","tz":1,"tags":{"climbing:bolted":"yes","climbing:quality":"solid","climbing:rock":"limestone","climbing:sport":"yes","height":"18","name":"Kręta Baszta","natural":"bare_rock","rock":"limestone","source":"knowledge","sport":"climbing"}},"12025550821":{"lat":50.1638406,"lon":19.7655463,"ts":"2024-07-01T11:53:51Z","tz":1,"tags":{"climbing:bolted":"yes","climbing:quality":"solid","climbing:rock":"limestone","climbing:sport":"yes","height":"10","name":"Obelisk","natural":"bare_rock","rock":"limestone","source":"knowledge","sport":"climbing"}},"12026080486":{"lat":50.1592875,"lon":19.764499,"ts":"2024-07-01T14:49:34Z","tz":1,"tags":{"climbing:quality":"solid","climbing:rock":"limestone","climbing:trad":"yes","height":"12","name":"Turnia Marcinkowskiego","natural":"bare_rock","rock":"limestone","source":"knowledge","sport":"climbing"}},"12026080492":{"lat":50.1609118,"lon":19.7641128,"ts":"2024-07-01T14:49:34Z","tz":1,"tags":{"climbing:bolted":"yes","climbing:quality":"solid","climbing:rock":"limestone","climbing:sport":"yes","climbing:trad":"yes","height":"18","name":"Pieninki","natural":"bare_rock","rock":"limestone","source":"knowledge","sport":"climbing"}},"12092935176":{"lat":50.1680571,"lon":19.7662103,"ts":"2024-08-05T08:46:48Z","tz":1,"tags":{"climbing:quality":"solid","climbing:rock":"limestone","natural":"bare_rock","rock":"limestone","source":"knowledge","sport":"climbing"}},"12288033516":{"lat":50.2308817,"lon":19.7085382,"ts":"2024-10-25T12:38:41Z","tz":1,"tags":{"name":"Bulwa","sport":"climbing"}},"12288447372":{"lat":50.2308531,"lon":19.7083352,"ts":"2024-10-25T16:58:17Z","tz":1,"tags":{"name":"Jednorożec","sport":"climbing"}}}