{"52005293":{"location":[50.0404341,19.9153449],"ts":"2024-10-08T07:16:32Z","tz":1,"tags":{"name":"Problemówka","natural":"cliff","sport":"climbing","wikidata":"Q86676601","wikipedia":"pl:Problemówka"}},"166323720":{"location":[50.0380321,19.9570578],"ts":"2021-08-11T07:43:11Z","tz":1,"tags":{"leisure":"climbing","name":"El Pułkownik","sport":"climbing"}},"166328052":{"location":[50.0426228,19.9589177],"ts":"2020-04-05T16:29:09Z","tz":1,"tags":{"name":"Esteci","natural":"cliff","source":"bing","sport":"climbing"}},"169285123":{"location":[50.0434477,19.9578771],"ts":"2015-07-08T15:07:04Z","tz":1,"tags":{"name":"Czarne zacięcie","natural":"cliff","source":"bing","sport":"climbing"}},"169285125":{"location":[50.0431215,19.9584424],"ts":"2014-07-17T19:10:08Z","tz":1,"tags":{"name":"Krzemowa płyta","natural":"cliff","source":"bing","sport":"climbing"}},"169285126":{"location":[50.0427531,19.9588934],"ts":"2020-04-08T13:39:03Z","tz":1,"tags":{"name":"Remarque","natural":"cliff","source":"bing","sport":"climbing"}},"169285127":{"location":[50.0429518,19.9586883],"ts":"2020-04-08T13:39:03Z","tz":1,"tags":{"name":"Złota płyta","natural":"cliff","source":"bing","sport":"climbing"}},"169285128":{"location":[50.0431923,19.9582486],"ts":"2014-07-17T19:10:08Z","tz":1,"tags":{"natural":"cliff","source":"bing","sport":"climbing"}},"169286207":{"location":[50.0400525,19.9151321],"ts":"2024-10-08T07:18:34Z","tz":1,"tags":{"name":"Baba Jaga","natural":"cliff","sport":"climbing","wikidata":"Q72262558","wikipedia":"pl:Baba Jaga (Zakrzówek)"}},"169286208":{"location":[50.0399451,19.9136178],"ts":"2024-10-08T07:18:45Z","tz":1,"tags":{"name":"Freney","natural":"cliff","sport":"climbing","wikidata":"Q86676148","wikipedia":"pl:Freney (Zakrzówek)"}},"169286210":{"location":[50.0405901,19.9158755],"ts":"2024-10-08T07:19:03Z","tz":1,"tags":{"name":"Sadystówka","natural":"cliff","sport":"climbing","wikidata":"Q86676120","wikipedia":"pl:Sadystówka"}},"169286212":{"location":[50.0399652,19.9149449],"ts":"2024-07-04T12:14:45Z","tz":1,"tags":{"name":"Szara płyta","natural":"cliff","sport":"climbing"}},"335392750":{"location":[50.060981,19.9162588],"ts":"2024-12-05T17:38:15Z","tz":1,"tags":{"leisure":"pitch","lit":"no","sport":"climbing"}},"358585961":{"location":[50.0430331,19.9582759],"ts":"2020-04-05T16:29:09Z","tz":1,"tags":{"climbing:bolted":"yes","climbing:length":"28","climbing:quality":"solid","climbing:rock":"limestone","climbing:sport":"yes","height":"30","name":"Krzemionki","natural":"bare_rock","rock":"limestone","source":"knowledge","sport":"climbing"}},"358585962":{"location":[50.0425099,19.9588523],"ts":"2015-07-05T07:08:31Z","tz":1,"tags":{"height":"10","leisure":"climbing","name":"Niski Mur","natural":"cliff","rock":"limestone","source":"knowledge","sport":"climbing"}},"396546626":{"location":[49.8393696,19.8473867],"ts":"2021-03-15T20:22:43Z","tz":1,"tags":{"height":"8 m","name":"Diabelski Kamień","name:de":"Teufelsstein","name:en":"Devil's Rock","name:pl":"Diabelski Kamień","natural":"rock","sport":"climbing"}},"396547081":{"location":[49.8393016,19.8470636],"ts":"2021-03-15T20:22:43Z","tz":1,"tags":{"height":"6 m","name":"Diabelski Mur","name:de":"Teufelsmauer","name:en":"Devil's Wall","natural":"rock","sport":"climbing"}},"601363831":{"location":[50.0130407,19.7895789],"ts":"2019-03-11T19:17:27Z","tz":1,"tags":{"climbing:bolted":"yes","climbing:length":"16","climbing:quality":"fragile","climbing:rock":"limestone","climbing:routes":"7","climbing:sport":"yes","climbing:trad":"yes","height":"25","name":"Fudalowa Skała","natural":"bare_rock","rock":"limestone","source":"knowledge","sport":"climbing"}},"649264894":{"location":[50.0638956,19.8517536],"ts":"2023-08-05T22:00:47Z","tz":1,"tags":{"climbing:quality":"solid","climbing:rock":"limestone","height":"12","name":"Wolska Grzęda","natural":"bare_rock","rock":"limestone","source":"knowledge","sport":"climbing"}},"649264895":{"location":[50.0635748,19.8519128],"ts":"2018-11-26T19:47:31Z","tz":1,"tags":{"height":"12","leisure":"climbing","name":"Wolski Murek","natural":"cliff","rock":"limestone","source":"knowledge","sport":"climbing"}},"649264896":{"location":[50.0635623,19.8519128],"ts":"2018-11-26T19:47:31Z","tz":1,"tags":{"climbing:bolted":"yes","climbing:grade:polish:max":"VI.3","climbing:grade:polish:min":"IV","climbing:length":"12","climbing:quality":"solid","climbing:rock":"limestone","climbing:routes":"25","climbing:sport":"yes","height":"14","name":"Wolski Murek","natural":"bare_rock","rock":"limestone","source":"knowledge","sport":"climbing","url":"https://topo.wspinka.org/las-wolski/wolski-murek"}},"649264899":{"location":[50.0629009,19.8564311],"ts":"2018-11-26T19:47:31Z","tz":1,"tags":{"height":"14","leisure":"climbing","name":"Kawalerskie Skały","natural":"cliff","rock":"limestone","source":"knowledge","sport":"climbing"}},"649264900":{"location":[50.0628918,19.8564311],"ts":"2018-11-26T19:47:31Z","tz":1,"tags":{"climbing:bolted":"yes","climbing:grade:polish:min":"III","climbing:length":"14","climbing:quality":"solid","climbing:rock":"limestone","climbing:routes":"50","climbing:sport":"yes","height":"14","name":"Kawalerskie Skały","natural":"bare_rock","rock":"limestone","source":"knowledge","sport":"climbing","url":"https://topo.wspinka.org/las-wolski/kawalerskie-skaly"}},"649264901":{"location":[50.0630105,19.8559451],"ts":"2018-11-26T19:47:31Z","tz":1,"tags":{"climbing:quality":"solid","climbing:rock":"limestone","natural":"bare_rock","rock":"limestone","source":"knowledge","sport":"climbing"}},"649264902":{"location":[50.0585397,19.8820518],"ts":"2018-11-26T19:47:32Z","tz":1,"tags":{"height":"16","leisure":"climbing","name":"Strzelnica","natural":"cliff","rock":"limestone","source":"knowledge","sport":"climbing"}},"649264903":{"location":[50.0586331,19.8817273],"ts":"2018-11-26T19:47:32Z","tz":1,"tags":{"height":"12","leisure":"climbing","name":"Strzelnica","natural":"cliff","rock":"limestone","source":"knowledge","sport":"climbing"}},"649264904":{"location":[50.0585782,19.8819395],"ts":"2018-11-26T19:47:32Z","tz":1,"tags":{"climbing:bolted":"yes","climbing:grade:polish:max":"VI.2","climbing:grade:polish:min":"II","climbing:length":"16","climbing:quality":"solid","climbing:rock":"limestone","climbing:routes":"20","climbing:sport":"yes","height":"22","name":"Strzelnica","natural":"bare_rock","rock":"limestone","source":"knowledge","sport":"climbing","url":"https://topo.wspinka.org/sikornik/strzelnica"}},"676088709":{"location":[50.0129442,19.7894966],"ts":"2019-03-11T19:17:25Z","tz":1,"tags":{"height":"14","leisure":"climbing","name":"Fudalowa Skała","natural":"cliff","rock":"limestone","source":"knowledge","sport":"climbing"}},"676088712":{"location":[50.0150424,19.7942802],"ts":"2019-03-11T19:17:25Z","tz":1,"tags":{"height":"16","leisure":"climbing","name":"Okrążek","natural":"cliff","rock":"limestone","source":"knowledge","sport":"climbing"}},"676088713":{"location":[50.0150875,19.7942814],"ts":"2019-03-11T19:17:25Z","tz":1,"tags":{"climbing:bolted":"yes","climbing:quality":"solid","climbing:rock":"limestone","climbing:sport":"yes","climbing:trad":"yes","height":"16","name":"Okrążek","natural":"bare_rock","rock":"limestone","source":"knowledge","sport":"climbing"}},"676091865":{"location":[50.021013,19.8041406],"ts":"2022-10-03T21:55:01Z","tz":1,"tags":{"height":"14","leisure":"climbing","name":"Skurwysyn","natural":"cliff","rock":"limestone","source":"knowledge","sport":"climbing","wikidata":"Q30906192","wikipedia":"pl:Skurwysyn"}},"676091868":{"location":[50.0210394,19.804135],"ts":"2022-10-03T21:55:04Z","tz":1,"tags":{"climbing:bolted":"yes","climbing:grade:polish:max":"VI.5+","climbing:grade:polish:min":"V","climbing:length":"16","climbing:quality":"fragile","climbing:rock":"limestone","climbing:routes":"13","climbing:sport":"yes","height":"14","name":"Skurwysyn","natural":"bare_rock","rock":"limestone","source":"knowledge","sport":"climbing","wikidata":"Q30906192","wikipedia":"pl:Skurwysyn"}},"676091872":{"location":[50.0215262,19.8045231],"ts":"2019-03-11T19:37:57Z","tz":1,"tags":{"height":"14","leisure":"climbing","name":"Winnica","natural":"cliff","rock":"limestone","source":"knowledge","sport":"climbing"}},"676091874":{"location":[50.0214804,19.8045165],"ts":"2019-03-11T19:37:57Z","tz":1,"tags":{"climbing:bolted":"yes","climbing:grade:polish:max":"VI.3","climbing:grade:polish:min":"IV","climbing:length":"14","climbing:quality":"solid","climbing:rock":"limestone","climbing:routes":"15","climbing:sport":"yes","height":"18","name":"Winnica","natural":"bare_rock","rock":"limestone","source":"knowledge","sport":"climbing"}},"3228020242":{"location":[49.8540599,19.9803734],"ts":"2014-12-10T15:57:21Z","tz":1,"tags":{"name":"Borzęta - Nowe Skały ","natural":"rock","sport":"climbing"}},"4609660202":{"location":[50.0400414,19.9155755],"ts":"2025-05-12T08:53:40Z","tz":1,"tags":{"building":"no","leisure":"sports_centre","sport":"climbing"}},"4609660203":{"location":[50.039549,19.9161198],"ts":"2017-01-15T13:35:09Z","tz":1,"tags":{"leisure":"sports_centre","sport":"climbing"}},"5918606686":{"location":[50.0492242,19.9703793],"ts":"2022-09-21T13:52:23Z","tz":1,"tags":{"addr:housenumber":"14B","addr:street":"ul. Klimeckiego","internet_access":"wlan","name":"Mood","name:en":"Chemobudowa Trade Center-Krakow SA","opening_hours":"Tu-Th 07:00-23:00; Fr 07:00-00:00; Sa 09:00-00:00; Su 09:00-22:00; Mo 15:00-23:00","phone":"+48780134474","sport":"climbing","website":"https://www.hellomood.pl/"}},"6394936944":{"location":[50.0388916,19.9636511],"ts":"2023-11-03T22:49:15Z","tz":1,"tags":{"fee":"yes","indoor":"yes","leisure":"sports_centre","name":"Centrum Wspinaczkowe Forteca","opening_hours":"Mo-Fr 08:00-23:00; Sa,Su 09:00-22:00","sport":"climbing","website":"https://cwf.pl/"}},"7272867973":{"location":[50.0352302,19.9323229],"ts":"2025-05-12T08:10:01Z","tz":1,"tags":{"addr:city":"Kraków","addr:housenumber":"32","addr:postcode":"30-363","addr:street":"Rydlówka","building":"yes","leisure":"sports_centre","name":"Centrum Wspinaczkowe Forteca","opening_hours":"Mo-Fr 15:00-23:00; Sa, Su 10:00-20:00","phone":"+48 509 300 918","sport":"climbing","website":"https://cwf.pl/"}},"10598491174":{"location":[50.0527746,19.9543253],"ts":"2023-02-01T08:53:31Z","tz":1,"tags":{"leisure":"sports_centre","sport":"climbing"}},"10649750005":{"location":[50.0493272,19.9698774],"ts":"2025-05-12T08:05:09Z","tz":1,"tags":{"addr:city":"Kraków","addr:housenumber":"14B","addr:postcode":"30-706","addr:street":"Stanisława Klimeckiego","building":"yes","fee":"yes","leisure":"sports_centre","name":"Mood","name:en":"Mood","opening_hours":"Mo 15:00-23:00; Tu-Th 07:00-23:00; Fr 07:00-00:00; Sa 09:00-23:00; Su 09:00-22:00","payment:cards":"yes","payment:cash":"yes","payment:contactless":"yes","payment:credit_cards":"yes","sport":"climbing","website":"https://hellomood.pl"}},"10729767105":{"location":[50.0084511,19.8788498],"ts":"2025-05-12T08:36:15Z","tz":1,"tags":{"addr:city":"Kraków","addr:housenumber":"83","addr:postcode":"30-396","addr:street":"Szymona Szymonowica","building":"yes","leisure":"sports_centre","name":"Reni-Sport","opening_hours":"Mo-Fr 13:00-21:00; Sa-Su 10:00-21:00","sport":"climbing","website":"https://renisport.pl/"}},"12047732923":{"location":[50.0140721,19.9279498],"ts":"2025-05-12T09:06:37Z","tz":1,"tags":{"addr:city":"Kraków","addr:housenumber":"105","addr:postcode":"30-418","addr:street":"Zakopiańska","contact:facebook":"https://www.facebook.com/slabbouldering","leisure":"sports_centre","name":"Slab Bouldering","opening_hours":"Mo 11-23, Tue 7-23, Wed-Fri 10-23, Sat 9-23, Su 9-22","sport":"climbing"}}}