{"18851272":{"location":[41.4430966,19.8668944],"ts":"2025-03-17T18:49:03Z","tz":1,"tags":{"climbing":"area","name":"Bovilla Lake","site":"climbing","type":"site"}},"1368464776":{"location":[41.4430966,19.8668944],"ts":"2025-03-17T18:49:03Z","tz":1,"tags":{"climbing":"crag","climbing:bolted":"yes","climbing:rock":"limestone","climbing:sport":"yes","fee":"no","name":"Megazord","natural":"cliff","outdoor":"yes","sport":"climbing"}},"6938279513":{"location":[41.4465366,19.8657489],"ts":"2025-03-17T18:49:03Z","tz":1,"tags":{"climbing":"area","name":"Bovilla Lake","sport":"climbing","type":"site"}},"7890561600":{"location":[41.3228487,19.8297614],"ts":"2024-09-12T14:21:31Z","tz":1,"tags":{"addr:city":"Tirana","addr:housenumber":"15","addr:postcode":"1001-1028","addr:street":"Rruga Ali Visha","leisure":"sports_centre","name":"Rock Tirana Climbing Gym","opening_hours":"Mo-Fr 19:00-22:00","phone":"+355 68 269 7564","sport":"climbing","website":"http://www.rocktirana.com"}},"9689468657":{"location":[41.3996839,19.9036868],"ts":"2022-04-24T11:19:20Z","tz":1,"tags":{"name":"Brar","sport":"climbing"}}}