{"5853497807":{"location":[44.5694363,34.2847754],"ts":"2023-05-02T23:08:00Z","tz":2,"tags":{"leisure":"sports_centre","name":"Сектора A, B","name:uk":"Сектори A, B","sport":"climbing"}},"5853499958":{"location":[44.5694261,34.2866608],"ts":"2023-05-02T23:08:00Z","tz":2,"tags":{"leisure":"sports_centre","name":"Сектор E","name:uk":"Сектор E","sport":"climbing"}},"5853500036":{"location":[44.5690535,34.2854845],"ts":"2023-05-02T23:08:00Z","tz":2,"tags":{"leisure":"sports_centre","name":"Сектора C, D","name:uk":"Сектори C, D","sport":"climbing"}},"5853500323":{"location":[44.570482,34.2870508],"ts":"2023-05-02T23:39:18Z","tz":2,"tags":{"name":"Сектор F","name:uk":"Сектор F","sport":"climbing"}},"5856654485":{"location":[44.5356837,34.1785319],"ts":"2023-05-02T23:39:18Z","tz":2,"tags":{"description":"Маршрут по стене Белан-Кая. Нужна верёвка 60 метров и 15 оттяжек.\nсложность 6а+","name":"Мультипитч AlpCrimea","name:uk":"Мультипітч AlpCrimea","sport":"climbing"}},"10287685305":{"location":[44.4527696,34.1271687],"ts":"2023-05-02T23:08:00Z","tz":2,"tags":{"leisure":"sports_centre","name":"Сектор Ай-Никола","name:uk":"Сектор Ай-Нікола","sport":"climbing"}},"10287685306":{"location":[44.4494115,34.1240477],"ts":"2023-05-02T23:08:00Z","tz":2,"tags":{"leisure":"sports_centre","name":"Сектор Алим","name:uk":"Сектор Алім","sport":"climbing"}},"10287685308":{"location":[44.5187189,34.2290751],"ts":"2023-05-02T23:08:00Z","tz":2,"tags":{"leisure":"sports_centre","name":"Никита","name:uk":"Микита","sport":"climbing"}},"10292923794":{"location":[44.5188572,34.229334],"ts":"2022-12-29T10:12:30Z","tz":2,"tags":{"leisure":"sports_centre","sport":"climbing"}},"10292923821":{"location":[44.5186498,34.2296314],"ts":"2022-12-29T10:12:30Z","tz":2,"tags":{"leisure":"sports_centre","sport":"climbing"}}}