{"254766120":{"lat":28.7747549,"lon":34.4364099,"ts":"2017-05-24T04:45:04Z","tz":2,"tags":{"bicycle":"no","foot":"yes","highway":"path","horse":"no; yes","incline":"up","motor_vehicle":"no","sac_scale":"alpine_hiking","sport":"climbing","surface":"ground; sand","tracktype":"grade5","trail_visibility":"good"}},"254766121":{"lat":28.7763669,"lon":34.4326072,"ts":"2025-01-26T03:48:20Z","tz":2,"tags":{"bicycle":"no","foot":"yes","highway":"path","horse":"no","incline":"up","sac_scale":"alpine_hiking","sport":"climbing","surface":"sand","tracktype":"grade5","trail_visibility":"intermediate"}},"681855695":{"lat":28.8269438,"lon":34.3662702,"ts":"2019-04-05T12:14:17Z","tz":2,"tags":{"access":"no","foot":"yes","highway":"path","incline":"30%","sport":"climbing","surface":"rocky"}},"1354334404":{"lat":28.7721795,"lon":34.4318304,"ts":"2025-01-26T03:48:20Z","tz":2,"tags":{"bicycle":"no","foot":"yes","highway":"path","horse":"no","incline":"up","sac_scale":"alpine_hiking","sport":"climbing","surface":"sand","tracktype":"grade5","trail_visibility":"intermediate"}},"1354334405":{"lat":28.7748979,"lon":34.4308385,"ts":"2025-01-26T03:48:20Z","tz":2,"tags":{"bicycle":"no","foot":"yes","highway":"path","horse":"no","incline":"up","sac_scale":"alpine_hiking","sport":"climbing","surface":"rock","tracktype":"grade5","trail_visibility":"intermediate"}},"1354334406":{"lat":28.7756512,"lon":34.434498,"ts":"2025-01-26T03:48:20Z","tz":2,"tags":{"bicycle":"no","foot":"yes","highway":"path","horse":"no","incline":"up","sac_scale":"alpine_hiking","sport":"climbing","surface":"rock","tracktype":"grade5","trail_visibility":"intermediate"}},"12438741349":{"lat":28.6216604,"lon":34.4274214,"ts":"2024-12-21T15:00:43Z","tz":2,"tags":{"sport":"climbing"}},"12438748929":{"lat":28.6212845,"lon":34.4257616,"ts":"2024-12-21T15:00:36Z","tz":2,"tags":{"sport":"climbing"}}}