{"293498228":{"lat":-35.2715485,"lon":149.1604349,"ts":"2018-02-05T09:49:17Z","tz":10,"tags":{"abseiling":"prohibited","climbing":"prohibited","height":"16","name":"Mt Ainslie Quarry","natural":"cliff"}},"723285114":{"lat":-35.3818543,"lon":149.2475437,"ts":"2025-02-16T06:18:11Z","tz":10,"tags":{"access":"yes","alt_name":"White Rocks","climbing:length:max":"16","climbing:length:min":"10","climbing:mixed":"4","climbing:rock":"limestone","climbing:routes":"12","climbing:trad":"8","fee":"no","name":"Wickerslack Crag","natural":"cliff","outdoor":"yes","sport":"climbing","website":"https://www.thecrag.com/climbing/australia/river-crags/wickerslack-crag"}},"1293542306":{"lat":-35.2146125,"lon":149.1418045,"ts":"2024-07-31T10:11:24Z","tz":10,"tags":{"addr:housenumber":"2","addr:street":"Essington Street","addr:unit":"1","building":"sports_centre","building:levels":"1","climbing:boulder":"yes","climbing:deepwater":"no","climbing:ice":"no","climbing:mixed":"no","climbing:multipitch":"no","climbing:sport":"no","climbing:toprope":"no","climbing:trad":"no","email":"boulder@blochaus.com.au","fee":"yes","leisure":"sports_centre","name":"BlocHaus Bouldering","roof:levels":"1","roof:shape":"gabled","sport":"climbing","website":"https://cbr.blochaus.com.au/"}},"1293759095":{"lat":-35.2108786,"lon":149.1421535,"ts":"2024-07-31T10:11:24Z","tz":10,"tags":{"addr:housenumber":"38-40","addr:street":"Essington Street","building":"sports_centre","building:levels":"2","climbing:boulder":"yes","climbing:deepwater":"no","climbing:ice":"no","climbing:length:max":"8.5","climbing:length:min":"7.5","climbing:mixed":"no","climbing:multipitch":"no","climbing:sport":"yes","climbing:toprope":"yes","climbing:trad":"no","fee":"yes","name":"Canberra Indoor Climbing","opening_hours":"Mo 15:00-22:00; Tu-Fr 12:00-22:00; Sa,Su 10:00-20:00","phone":"+61 2 6262 4863","roof:levels":"1","roof:shape":"gabled","sport":"climbing","website":"https://www.canberrarockclimbing.com.au/"}},"5344097651":{"lat":-35.323109,"lon":149.1652178,"ts":"2024-03-02T12:45:14Z","tz":10,"tags":{"addr:housenumber":"1","addr:street":"Dairy Road","addr:unit":"Unit 2 Building 2","climbing:boulder":"yes","climbing:deepwater":"no","climbing:ice":"no","climbing:mixed":"no","climbing:multipitch":"no","climbing:sport":"no","climbing:toprope":"no","climbing:trad":"no","email":"boulder@blochaus.com.au","fee":"yes","indoor":"yes","leisure":"sports_centre","name":"BlocHaus Bouldering Fyshwick","opening_hours":"Mo-Fr 06:00-22:00; Tu,Th 10:00-22:00; Sa 08:00-22:00; PH 09:00-21:00; Dec 25 off; Jan 01 off","phone":"+61 2 6280 8830","sport":"climbing","website":"https://cbr.blochaus.com.au/"}},"6745116941":{"lat":-35.2110195,"lon":149.1421562,"ts":"2024-07-31T10:11:24Z","tz":10,"tags":{"addr:housenumber":"38-40","addr:street":"Essington Street","climbing:boulder":"yes","climbing:deepwater":"no","climbing:ice":"no","climbing:length:max":"8.5","climbing:length:min":"7.5","climbing:mixed":"no","climbing:multipitch":"no","climbing:sport":"yes","climbing:toprope":"yes","climbing:trad":"no","fee":"yes","indoor":"yes","leisure":"sports_centre","name":"Canberra Indoor Climbing","opening_hours":"Mo 15:00-22:00; Tu-Fr 12:00-22:00; Sa,Su 10:00-20:00","phone":"+61 2 6262 4863","sport":"climbing","website":"https://www.canberrarockclimbing.com.au/"}},"6745139716":{"lat":-35.3931453,"lon":149.1669996,"ts":"2023-11-21T03:27:36Z","tz":10,"tags":{"addr:housenumber":"26","addr:street":"Raws Crescent","climbing:boulder":"yes","climbing:deepwater":"no","climbing:ice":"no","climbing:length:max":"7.5","climbing:length:min":"6.5","climbing:mixed":"no","climbing:multipitch":"no","climbing:sport":"yes","climbing:toprope":"yes","climbing:trad":"no","fee":"yes","indoor":"yes","leisure":"sports_centre","name":"Canberra Indoor Climbing - South Rocks","opening_hours":"Mo 15:00-22:00; Tu-Fr 12:00-22:00; Sa,Su 10:00-20:00","phone":"+61 2 6260 1101","sport":"climbing","website":"https://www.canberrarockclimbing.com.au/"}},"11684587894":{"lat":-35.2144535,"lon":149.1416074,"ts":"2024-07-31T10:11:24Z","tz":10,"tags":{"addr:housenumber":"2","addr:street":"Essington Street","addr:unit":"1","climbing:boulder":"yes","climbing:deepwater":"no","climbing:ice":"no","climbing:mixed":"no","climbing:multipitch":"no","climbing:sport":"no","climbing:toprope":"no","climbing:trad":"no","email":"boulder@blochaus.com.au","fee":"yes","leisure":"sports_centre","name":"BlocHaus Bouldering","sport":"climbing","website":"https://cbr.blochaus.com.au/"}}}