{"1292677882":{"location":[41.0716955,28.9232028],"ts":"2024-06-16T23:09:09Z","tz":2,"tags":{"building":"yes","leisure":"sports_centre","name":"Tırmanma Duvarı","sport":"climbing"}},"8071577211":{"location":[40.9937368,29.0267108],"ts":"2022-11-26T21:42:18Z","tz":2,"tags":{"addr:city":"İstanbul","addr:district":"Kadıköy","addr:housenumber":"54A","addr:neighbourhood":"Rasimpaşa Mahallesi","addr:postcode":"34716","addr:street":"Nüshetefendi","alt_name":"Boulderistanbul","climbing:boulder":"yes","climbing:sport":"no","climbing:toprope":"no","climbing:trad":"no","leisure":"sports_centre","name":"Boulder İstanbul","opening_hours":"12:00 - 22:00","sport":"climbing","website":"https://www.boulderistanbul.com/"}},"9701367817":{"location":[41.0884203,29.005803],"ts":"2024-06-24T20:03:35Z","tz":2,"tags":{"name":"Boulderhane","sport":"climbing","website":"https://boulderhane.net/"}},"13030517540":{"location":[41.1387448,29.03411],"ts":"2025-07-27T22:04:23Z","tz":2,"tags":{"leisure":"sports_centre","sport":"climbing"}},"13030517544":{"location":[41.1387589,29.0341605],"ts":"2025-07-27T22:04:23Z","tz":2,"tags":{"leisure":"sports_centre","sport":"climbing"}},"13030517545":{"location":[41.1387305,29.0342271],"ts":"2025-07-27T22:04:23Z","tz":2,"tags":{"leisure":"sports_centre","sport":"climbing"}}}