{"303212113":{"location":[8.0154375,98.8357927],"ts":"2024-12-04T14:04:42Z","tz":7,"tags":{"name":"หน้าผา ชาวไทโร","name:en":"Tyrolean Wall","natural":"cliff","sport":"climbing"}},"401592549":{"location":[8.0084426,98.8370995],"ts":"2024-12-04T14:04:42Z","tz":7,"tags":{"name":"หน้าผา ของขวัญจากวี","name:en":"Wee's Present Wall","natural":"cliff","sport":"climbing"}},"1141879128":{"location":[8.0114678,98.838386],"ts":"2011-02-08T08:59:43Z","tz":7,"tags":{"name":"Hot Rock Climbing School","sport":"climbing"}},"1228911874":{"location":[8.0316499,98.8399208],"ts":"2023-12-05T18:49:11Z","tz":7,"tags":{"name":"Ao Nang North Wall","natural":"cliff","sport":"climbing"}},"1335881399":{"location":[8.0140912,98.8418427],"ts":"2024-12-05T02:53:46Z","tz":7,"tags":{"climbing:length:max":"35","climbing:length:min":"7","climbing:routes":"16","climbing:sport":"yes","name":"หน้าผา ถ้ำเพชร","name:en":"Diamond Cave","natural":"cliff","sport":"climbing"}},"1335881406":{"location":[8.0161363,98.8353748],"ts":"2025-01-13T16:38:56Z","tz":7,"tags":{"name":"หนาผา ครัวบังดำ","name:en":"Drum's Kitchen Wall","natural":"cliff","sport":"climbing"}},"1335881411":{"location":[8.0165407,98.835335],"ts":"2024-12-04T14:04:42Z","tz":7,"tags":{"climbing:grade:french:max":"7c","climbing:grade:french:min":"5a","climbing:length:max":"20","climbing:length:min":"15","name":"สวนจิ้งเหลนผอม","name:en":"Iquana Park","natural":"cliff","sport":"climbing"}},"1335884435":{"location":[8.0150198,98.8361293],"ts":"2024-12-04T14:04:42Z","tz":7,"tags":{"name":"ผาพญาเสือ","name:en":"Tiger Wall","natural":"cliff","sport":"climbing"}},"1335900958":{"location":[8.0196114,98.8311267],"ts":"2024-12-04T14:04:42Z","tz":7,"tags":{"name":"หน้าผา โลกที่สาญสูญ","name:en":"Lost Wall","natural":"cliff","sport":"climbing"}},"1335900959":{"location":[8.0179848,98.8302622],"ts":"2024-12-04T14:04:42Z","tz":7,"tags":{"name":"หน้าผา ไฟไหม้","name:en":"Fire Wall","natural":"cliff","sport":"climbing"}},"1335900962":{"location":[8.0172958,98.830181],"ts":"2024-12-04T14:04:42Z","tz":7,"tags":{"name":"หน้าผา ร้อนหลอมละลาย","name:en":"Melting Wall","natural":"cliff","sport":"climbing"}},"1335900967":{"location":[8.0194049,98.8309949],"ts":"2024-12-04T14:04:42Z","tz":7,"tags":{"name":"หน้าผา เวิ้งผาแมมมอร","name:en":"Mammoth Cove (Sleeping Indian Wall)","natural":"cliff","sport":"climbing"}},"1336352522":{"location":[8.0207241,98.8316229],"ts":"2024-12-04T14:04:42Z","tz":7,"tags":{"name":"หน้าผา รวงรัง","name:en":"The Nest","natural":"cliff","sport":"climbing"}},"1336352527":{"location":[8.0208691,98.8317282],"ts":"2024-12-04T14:04:42Z","tz":7,"tags":{"name":"อาณาจักรแห่งพงไพร","name:en":"Wild Kingdom","natural":"cliff","sport":"climbing"}},"1336787138":{"location":[8.0169688,98.8345884],"ts":"2024-12-04T14:04:42Z","tz":7,"tags":{"name":"หน้าผา อ่าวต้นไทร","name:en":"Tonsay Beach Wall","natural":"cliff","sport":"climbing"}},"1337073348":{"location":[8.0162914,98.828654],"ts":"2024-12-04T14:04:42Z","tz":7,"tags":{"climbing:grade:french:max":"7c+","climbing:grade:french:min":"6a","climbing:routes":"27","name":"หน้าผา อินทรีทะเล","name:en":"Eagle Wall","natural":"cliff","sport":"climbing"}},"1337073349":{"location":[8.0163919,98.8294733],"ts":"2024-11-23T07:53:19Z","tz":7,"tags":{"climbing:grade:french:max":"6a","climbing:grade:french:min":"5b","climbing:length":"12","climbing:length:max":"15","climbing:length:min":"10","climbing:routes":"5","climbing:sport":"yes","name":"Eagle Claws Rock (Lord of the Fives)","natural":"cliff","sport":"climbing"}},"1337079974":{"location":[8.0164327,98.830414],"ts":"2024-11-23T08:32:04Z","tz":7,"tags":{"climbing:grade:french:max":"7b","climbing:grade:french:min":"6a+","climbing:length":"25","climbing:length:max":"30","climbing:length:min":"20","climbing:routes":"9","climbing:sport":"yes","name":"Cobra Crag (Below Melting Wall)","natural":"cliff","sport":"climbing"}},"1339212727":{"location":[8.0189541,98.836337],"ts":"2024-12-04T14:04:42Z","tz":7,"tags":{"name":"หน้าผา โรงเครื่องร้าง","name:en":"Generator Wall","natural":"cliff","sport":"climbing"}},"1339212731":{"location":[8.0199516,98.8313746],"ts":"2024-12-04T14:04:42Z","tz":7,"tags":{"name":"หน้าผา โลกแห่งวานร","name:en":"Monkey World (left side)","natural":"cliff","sport":"climbing"}},"1339429584":{"location":[8.0234107,98.832575],"ts":"2024-12-04T14:04:42Z","tz":7,"tags":{"name":"อาณาจักรของมาร์เลย์","name:en":"Marley Wall","natural":"cliff","sport":"climbing"}},"1339430886":{"location":[8.008434,98.8362217],"ts":"2024-12-04T14:04:42Z","tz":7,"tags":{"name":"หน้าผา เชิงเทียน","name:en":"Candlestick Wall","natural":"cliff","sport":"climbing"}},"1339430890":{"location":[8.0086332,98.835861],"ts":"2024-12-04T14:04:42Z","tz":7,"tags":{"name":"หน้าผา คทาไทย","name:en":"Thai Wand Wall","natural":"cliff","sport":"climbing"}},"1340077023":{"location":[8.0195851,98.8310276],"ts":"2024-12-04T14:04:42Z","tz":7,"tags":{"name":"หนาผา มอนิเตอร","name:en":"Monitor Wall","natural":"cliff","sport":"climbing"}},"1340077028":{"location":[8.0188489,98.8307449],"ts":"2024-12-04T14:04:42Z","tz":7,"tags":{"name":"หน้าผาแมว","name:en":"Cat Wall","natural":"cliff","sport":"climbing"}},"1340312743":{"location":[8.0171827,98.8386426],"ts":"2024-12-05T15:44:53Z","tz":7,"tags":{"name":"Gibbon Cave","natural":"cliff","sport":"climbing"}},"1350952553":{"location":[8.015822,98.8355791],"ts":"2025-01-13T16:38:56Z","tz":7,"tags":{"name":"หนาผา ครัวบังดำ","name:en":"Drum's Kitchen Wall","natural":"cliff","sport":"climbing"}},"1350972520":{"location":[8.0169149,98.8347104],"ts":"2025-01-13T18:00:06Z","tz":7,"tags":{"name":"หน้าผา อ่าวต้นไทร","name:en":"Tonsay Beach Wall","natural":"cliff","sport":"climbing"}},"2502529232":{"location":[8.0072538,98.842224],"ts":"2018-04-19T13:28:06Z","tz":7,"tags":{"description":"Место для скалолазания","natural":"cliff","sport":"climbing"}},"3419574732":{"location":[8.00495,98.8403848],"ts":"2018-04-19T13:28:06Z","tz":7,"tags":{"description":"Место для скалолазания","natural":"cliff","sport":"climbing"}},"4037518260":{"location":[8.0092143,98.8409094],"ts":"2019-12-07T10:01:30Z","tz":7,"tags":{"climbing:guide":"yes","climbing:parts:rental":"yes","climbing:parts:sales":"no","name":"Tex Rock Climbing","shop":"outdoor","sport":"climbing"}},"5217289578":{"location":[8.0135636,98.8399297],"ts":"2017-11-08T02:19:56Z","tz":7,"tags":{"sport":"climbing"}},"5217289579":{"location":[8.0049697,98.8442213],"ts":"2018-04-19T13:28:06Z","tz":7,"tags":{"description":"Место для скалолазания","natural":"cliff","sport":"climbing"}},"7040174202":{"location":[8.0098424,98.840261],"ts":"2022-08-07T14:02:42Z","tz":7,"tags":{"name":"Shadow Rock Climbing","opening_hours":"PH,Mo-Su 09:00-13:00,14:00-18:00","shop":"outdoor","sport":"climbing"}},"12603635564":{"location":[8.0121778,98.8398091],"ts":"2025-02-20T11:06:41Z","tz":7,"tags":{"check_date":"2025-02-19","leisure":"sports_centre","name":"King Climbers","sport":"climbing"}},"12606340154":{"location":[8.0141397,98.8419312],"ts":"2025-02-21T07:43:42Z","tz":7,"tags":{"check_date":"2025-02-21","leisure":"sports_centre","name":"Diamond Cave","sport":"climbing"}},"12608973186":{"location":[8.0045706,98.8401862],"ts":"2025-02-22T04:31:22Z","tz":7,"tags":{"check_date":"2025-02-22","fee":"no","leisure":"sports_centre","name":"Pra Nang Beach","operator:type":"public","sport":"climbing"}},"12608973187":{"location":[8.0073214,98.8417985],"ts":"2025-02-22T04:31:22Z","tz":7,"tags":{"check_date":"2025-02-22","leisure":"sports_centre","name":"One Two Three Wall","sport":"climbing"}},"12611788018":{"location":[8.0079453,98.8366338],"ts":"2025-02-23T05:30:56Z","tz":7,"tags":{"check_date":"2025-02-22","fee":"no","leisure":"sports_centre","name":"Escher Wall","operator:type":"public","sport":"climbing","wheelchair":"no"}},"12611788019":{"location":[8.0208434,98.8317698],"ts":"2025-02-23T05:30:56Z","tz":7,"tags":{"check_date":"2025-02-23","internet_access":"no","leisure":"sports_centre","name":"Wild Kingdom Wall","operator:type":"public","sport":"climbing","wheelchair":"no"}},"12611788020":{"location":[8.0207173,98.8316921],"ts":"2025-02-23T06:51:50Z","tz":7,"tags":{"check_date":"2025-02-23","fee":"no","internet_access":"no","leisure":"sports_centre","name":"The Nest","operator:type":"public","sport":"climbing","wheelchair":"no"}},"12612415405":{"location":[8.0205897,98.8314343],"ts":"2025-02-23T09:59:15Z","tz":7,"tags":{"check_date":"2025-02-23","leisure":"sports_centre","name":"Monkey World","operator:type":"public","sport":"climbing"}},"12612415406":{"location":[8.0193521,98.8311073],"ts":"2025-02-23T09:59:15Z","tz":7,"tags":{"check_date":"2025-02-23","leisure":"sports_centre","name":"Mammoth Cove","operator:type":"public","sport":"climbing"}},"12612415407":{"location":[8.0182321,98.8304237],"ts":"2025-02-23T09:59:15Z","tz":7,"tags":{"check_date":"2025-02-23","leisure":"sports_centre","name":"Firewall","operator:type":"public","sport":"climbing"}},"12612415408":{"location":[8.0179728,98.8302891],"ts":"2025-02-23T09:59:15Z","tz":7,"tags":{"check_date":"2025-02-23","leisure":"sports_centre","name":"Melting Wall","operator:type":"public","sport":"climbing"}}}