{"177891610":{"lat":49.434246,"lon":7.7817839,"ts":"2023-01-03T16:02:30Z","tz":1,"tags":{"addr:city":"Kaiserslautern","addr:housenumber":"38","addr:postcode":"67663","addr:street":"Kantstraße","building":"yes","climbing:boulder":"yes","fee":"yes","leisure":"sports_centre","name":"RockTown","opening_hours":"Mo-Tu 13:00-23:00; We-Th 09:00-23:00; Fr-Sa 09:00-23:00; Su 09:00-21:00","operator":"RockTown GmbH","sport":"climbing","website":"https://www.rocktown.eu/","wheelchair":"yes"}},"247132534":{"lat":49.4286181,"lon":7.7562089,"ts":"2023-08-24T15:02:41Z","tz":1,"tags":{"climbing:boulder":"yes","climbing:length":"8m","climbing:sport":"yes","fee":"yes","leisure":"sports_centre","name":"Kletterzentrum Barbarossahalle","operator":"Deutscher Alpenverein Sektion Kaiserslautern e.V.","sport":"climbing","website":"https://www.kletterzentrum-kl.de/","wheelchair":"yes"}},"965415596":{"lat":49.4370691,"lon":7.9817259,"ts":"2021-12-27T15:41:21Z","tz":1,"tags":{"name":"Rabenfels","natural":"bare_rock","sport":"climbing","tourism":"attraction"}},"965415598":{"lat":49.4368982,"lon":7.9814486,"ts":"2023-10-13T09:19:46Z","tz":1,"tags":{"access":"no","description":"gesperrt wegen Naturschutz.","natural":"cliff","note":"Die Sperrung ist mit einem Papierschild gemacht, das an einen Baum gefächert wurde. Weis jemand, wie lange hier gesperrt ist?","sport":"climbing"}},"965415599":{"lat":49.4371545,"lon":7.9820081,"ts":"2021-07-18T20:35:57Z","tz":1,"tags":{"natural":"cliff","sport":"climbing"}},"1025561674":{"lat":49.4064488,"lon":8.0101027,"ts":"2022-01-28T16:08:02Z","tz":1,"tags":{"alt_name":"Klettersteinbruch Weidenthal","climbing:rock":"sandstone","leisure":"pitch","name":"Klettergarten Weidenthal","sport":"climbing"}},"1289442390":{"lat":49.4676854,"lon":7.8425327,"ts":"2024-06-04T19:47:24Z","tz":1,"tags":{"leisure":"sports_centre","name":"K1 Waldseilpark Fröhnerhof","sport":"climbing"}}}