{"43501458":{"location":[48.5720525,7.7361894],"ts":"2025-05-27T13:02:38Z","tz":1,"tags":{"building":"yes","climbing":"route;boulder","leisure":"sports_hall","name":"La Pyramide","roof:shape":"pyramidal","source":"cadastre-dgi-fr source : Direction Générale des Impôts - Cadastre;mise à jour : 2009","sport":"climbing"}},"113076265":{"location":[48.4822231,7.9554333],"ts":"2025-06-16T12:32:33Z","tz":1,"tags":{"addr:city":"Offenburg","addr:housenumber":"9","addr:postcode":"77654","addr:street":"Rammersweierstraße","building":"yes","fee":"yes","leisure":"sports_centre","name":"DAV Kletterzentrum","operator":"DAV Offenburg","payment:account_cards":"no","payment:cards":"yes","payment:cash":"yes","payment:coins":"yes","payment:contactless":"yes","payment:credit_cards":"no","payment:debit_cards":"yes","sport":"climbing","website":"https://www.alpenverein-offenburg.de/","wheelchair":"limited"}},"560036545":{"location":[48.6367231,8.081825],"ts":"2018-02-09T09:31:31Z","tz":1,"tags":{"leisure":"pitch","lit":"yes","sport":"climbing"}},"1132505679":{"location":[48.5718925,7.7359575],"ts":"2024-03-06T09:26:39Z","tz":1,"tags":{"building":"yes","source":"BDOrtho IGN - available 2023 at the latest","sport":"climbing"}},"1132505680":{"location":[48.5719703,7.7357229],"ts":"2025-05-27T13:02:38Z","tz":1,"tags":{"building":"roof","layer":"1","leisure":"pitch","source":"BDOrtho IGN - available 2023 at the latest","sport":"climbing"}},"1357184444":{"location":[48.5722607,7.7365637],"ts":"2025-05-27T13:02:38Z","tz":1,"tags":{"architect":"RHB","building":"yes","climbing":"route","leisure":"sports_centre","operator":"ASCPA","sport":"climbing","start_date":"2025-05"}},"2955939156":{"location":[48.5596724,7.7416625],"ts":"2023-11-02T00:09:18Z","tz":1,"tags":{"leisure":"sports_centre","name":"Roc En Stock","opening_hours":"Mo-Fr 12:00-23:00, Sa-Su 12:00-19:00","sport":"climbing","website":"https://www.roc-en-stock.fr/"}},"5302662561":{"location":[48.5912168,7.7401066],"ts":"2024-03-28T18:49:26Z","tz":1,"tags":{"addr:housenumber":"11","addr:street":"Rue Adèle Riton, 67000 Strasbourg","description":"salle d'escalade dans le centre de strasbourg","indoor":"yes","leisure":"sports_centre","name":"Hueco city","opening_hours":"Mo-Fr 12:00-22:00; Sa, Su 14:00-20:00","phone":"03 88 32 98 75","sport":"climbing","website":"hueco.fr"}},"8381797361":{"location":[48.521936,8.0777138],"ts":"2021-01-31T20:20:38Z","tz":1,"tags":{"name":"Bellenstein","natural":"rock","operator":"Ski Club Oberkirch","sport":"climbing"}},"10719207295":{"location":[48.6613129,7.8291889],"ts":"2023-03-07T14:46:35Z","tz":1,"tags":{"indoor":"yes","source":"Le ministère de la ville, de la jeunesse et des sports - 2021-04","sport":"climbing"}},"11252762455":{"location":[48.5607038,7.7454122],"ts":"2023-11-12T21:43:55Z","tz":1,"tags":{"addr:city":"Strasbourg","addr:housenumber":"1","addr:postcode":"67000","addr:street":"Rue La Fayette","email":"bienvenue@bloc-en-stock.fr","leisure":"sports_centre","name":"Bloc en Stock","opening_hours":"Mo-Fr 12:00-23:00; We 10:00-23:00; Sa 14:00-20:00; Su 10:00-20:00","sport":"climbing","website":"https://bloc-en-stock.fr/"}}}