{"55853687":{"location":[48.0652415,8.006739],"ts":"2022-03-29T16:05:08Z","tz":1,"tags":{"name":"Großer Kandelfelsen","natural":"bare_rock","note":"Oben flach + mit Bank","sport":"climbing"}},"55853689":{"location":[48.0653205,8.0070466],"ts":"2021-04-06T21:26:45Z","tz":1,"tags":{"name":"Kapuzenturm","natural":"bare_rock","sport":"climbing"}},"888594447":{"location":[48.0281429,7.8547809],"ts":"2023-11-04T02:20:05Z","tz":1,"tags":{"alt_name":"EigerNord","leisure":"sports_centre","name":"Eiger Nord","opening_hours":"Mo-Fr 08:00-23:00; Sa,Su,PH 10:00-21:00","sport":"climbing","website":"https://www.eigernord.de/"}},"2781007582":{"location":[47.9905856,7.795203],"ts":"2023-11-06T18:48:07Z","tz":1,"tags":{"addr:city":"Freiburg im Breisgau","addr:housenumber":"4","addr:postcode":"79111","addr:street":"Munzinger Straße","charge":"13 EUR","check_date":"2023-10-07","climbing:boulder":"yes","contact:email":"info@freiburg-boulderkitchen.de","email":"info@freiburg-boulderkitchen.de","fee":"yes","leisure":"sports_centre","name":"boulderkitchen GmbH","opening_hours":"Mo-Su,PH 09:00-23:00","phone":"+49 761 488 21 690","source":"local knowledge","sport":"climbing","website":"https://freiburg-boulderkitchen.de/","wheelchair":"no"}},"3171491477":{"location":[47.9941724,7.7911964],"ts":"2023-11-06T18:49:23Z","tz":1,"tags":{"addr:housenumber":"6","addr:street":"Merdinger Weg","charge":"13 EUR","check_date":"2023-10-07","climbing:boulder":"yes","fee":"yes","leisure":"sports_centre","name":"Blockhaus","opening_hours":"PH,Mo-Su 09:00-23:00","payment:cash":"yes","payment:mastercard":"yes","payment:visa":"yes","phone":"+49 761 61057227","source":"survey","sport":"climbing","website":"https://www.blockhaus-freiburg.de/","wheelchair":"no"}},"6635207529":{"location":[48.1507412,7.7533721],"ts":"2019-07-21T14:16:36Z","tz":1,"tags":{"building":"no","leisure":"sports_centre","sport":"climbing"}},"8594553936":{"location":[48.0652622,8.0064783],"ts":"2021-04-05T08:10:25Z","tz":1,"tags":{"climbing:length:max":"30","climbing:length:min":"10","climbing:rock":"gneiss","climbing:routes":"103","climbing:sport":"yes","ele":"1070","name":"Kandelfels","sport":"climbing"}}}