{"188537337":{"lat":45.4598453,"lon":7.8777099,"ts":"2019-03-24T07:25:07Z","tz":1,"tags":{"addr:city":"Ivrea","addr:country":"IT","addr:housenumber":"3","addr:postcode":"10015","addr:street":"Via Torino","email":"info@k3indoor.it","leisure":"sports_centre","name":"K3 Palestra Arrampicata","opening_hours":"Mo-Fr 17:00-23:15","phone":"+39 0125 627109","sport":"climbing","website":"https://www.k3indoor.it/"}},"797136964":{"lat":45.5619119,"lon":7.8267529,"ts":"2020-04-27T21:36:03Z","tz":1,"tags":{"climbing:grade:french:max":"7c+","climbing:grade:french:min":"5c","name":"Falesia di Cesnola","natural":"cliff","sport":"climbing"}},"807967178":{"lat":45.5526248,"lon":7.747432,"ts":"2020-05-25T07:29:38Z","tz":1,"tags":{"name":"Parete dei fiori","natural":"cliff","sport":"climbing","website":"https://www.gulliver.it/itinerario/56267/"}},"825161035":{"lat":45.546415,"lon":7.81508,"ts":"2024-01-21T15:02:23Z","tz":1,"tags":{"climbing:grade:french:max":"8a+","climbing:grade:french:min":"4b","name":"Falesia di Tavagnasco","natural":"cliff","sport":"climbing"}},"881083317":{"lat":45.5461756,"lon":8.0256173,"ts":"2020-12-04T18:04:50Z","tz":1,"tags":{"indoor":"yes","leisure":"sports_centre","name":"Run Out Climbing School","sport":"climbing"}},"938443917":{"lat":45.4639835,"lon":7.8236128,"ts":"2021-05-04T06:53:49Z","tz":1,"tags":{"climbing:grade:french:max":"6c","climbing:grade:french:min":"3","climbing:sport":"yes","name":"Palestra di roccia di Fiorano","natural":"cliff","sport":"climbing","website":"https://www.gulliver.it/itinerari/fiorano-falesia-di/"}},"938443918":{"lat":45.4641363,"lon":7.8238616,"ts":"2021-05-03T15:02:58Z","tz":1,"tags":{"sport":"climbing"}},"938443919":{"lat":45.4644126,"lon":7.8243178,"ts":"2021-05-03T15:02:58Z","tz":1,"tags":{"climbing:grade:french:max":"6c","climbing:grade:french:min":"3","climbing:sport":"yes","name":"palestra di roccia di Fiorano","natural":"cliff","sport":"climbing","website":"https://www.gulliver.it/itinerari/fiorano-falesia-di/"}},"963639708":{"lat":45.5546847,"lon":7.7928067,"ts":"2021-07-12T12:11:29Z","tz":1,"tags":{"climbing:grade:french:max":"6a","climbing:grade:french:min":"4a","natural":"cliff","sport":"climbing"}},"1117086655":{"lat":45.5135721,"lon":7.7428515,"ts":"2022-11-25T08:41:25Z","tz":1,"tags":{"natural":"cliff","sport":"climbing"}},"1117086656":{"lat":45.5136607,"lon":7.7421675,"ts":"2022-11-25T08:41:25Z","tz":1,"tags":{"natural":"cliff","sport":"climbing"}},"1117086657":{"lat":45.5139962,"lon":7.7425746,"ts":"2023-04-04T10:01:15Z","tz":1,"tags":{"climbing:toprope":"yes","name":"Palestra di roccia di Traversella: Settore Le Felci","natural":"cliff","sport":"climbing"}},"1117086658":{"lat":45.5143972,"lon":7.7394264,"ts":"2022-11-25T08:41:25Z","tz":1,"tags":{"climbing:grade:french:max":"7a+","climbing:grade:french:min":"2b","climbing:sport":"yes","climbing:toprope":"yes","name":"Palestra di roccia di Traversella: Settore Speranze","natural":"cliff","sport":"climbing"}},"1721802883":{"lat":45.4945906,"lon":7.8783807,"ts":"2012-09-06T13:57:29Z","tz":1,"tags":{"name":"Palestra di arrampicata Silvio Mantoan","sport":"climbing"}},"1721802885":{"lat":45.4873009,"lon":7.8814586,"ts":"2012-04-18T13:43:27Z","tz":1,"tags":{"name":"Roccione - Vie Altissima Levissima Purissima e 7 Luglio","sport":"climbing"}},"1791486279":{"lat":45.5384139,"lon":7.8411434,"ts":"2023-11-09T06:51:41Z","tz":1,"tags":{"leisure":"sports_centre","name":"Falesia La Turna","phone:mobile":"+39 348 7249782;+39 348 4073610","sport":"climbing","website":"https://www.laturna.it/"}},"1902310473":{"lat":45.4947484,"lon":7.8781999,"ts":"2012-09-06T13:57:28Z","tz":1,"tags":{"name":"Palestra di arrampicata Silvio Mantoan","sport":"climbing"}},"1978605336":{"lat":45.4793886,"lon":7.8730214,"ts":"2012-10-22T21:18:12Z","tz":1,"tags":{"sport":"climbing"}},"5624818418":{"lat":45.58119,"lon":8.0087913,"ts":"2018-05-17T15:50:45Z","tz":1,"tags":{"leisure":"sports_centre","name":"Run out climbing school","sport":"climbing","url":"https://www.runoutcs.it/"}},"5990480767":{"lat":45.4945906,"lon":7.8783807,"ts":"2021-05-17T00:01:13Z","tz":1,"tags":{"leisure":"sports_centre","sport":"climbing"}},"6828781914":{"lat":45.5423621,"lon":7.867206,"ts":"2019-09-26T21:18:55Z","tz":1,"tags":{"leisure":"sports_centre","sport":"climbing"}},"8090536385":{"lat":45.5165043,"lon":7.7360165,"ts":"2022-08-22T16:08:15Z","tz":1,"tags":{"access":"permissive","climbing:grade:french:max":"8a","climbing:grade:uiaa:min":"2","climbing:length:max":"110","climbing:length:min":"3","climbing:multipitch":"yes","climbing:orientation":"SW","climbing:quality":"solid","climbing:rock":"Gneiss","climbing:routes":"325","climbing:sport":"yes","ele":"1100","leisure":"climbing","name":"Palestra di roccia di Traversella","sport":"climbing","website":"https://www.itsportmontagna.org/ism/Tecnica/traversella/index.htm"}},"8090536386":{"lat":45.5154443,"lon":7.7365047,"ts":"2022-08-22T16:08:15Z","tz":1,"tags":{"access":"permissive","climbing:grade:french:max":"8a","climbing:grade:uiaa:min":"2","climbing:length":"3","climbing:length:max":"110","climbing:multipitch":"yes","climbing:orientation":"SW","climbing:routes":"325","climbing:sport":"yes","ele":"1100","leisure":"climbing","name":"Palestra di roccia di Traversella","sport":"climbing","website":"https://www.itsportmontagna.org/ism/Tecnica/traversella/index.htm"}},"10761249950":{"lat":45.5608305,"lon":7.8062136,"ts":"2023-03-26T13:12:35Z","tz":1,"tags":{"name":"Palestra d'arrampicata Roberto Giovannetto","sport":"climbing"}}}