{"3769697696":{"location":[37.5777653,25.166308],"ts":"2025-02-21T00:59:07Z","tz":2,"tags":{"alt_name":"Τομέας 1","alt_name:en":"Sector 1","climbing:bolted":"yes","climbing:grade:french:max":"6a+","climbing:grade:french:min":"5a","climbing:length:max":"27","climbing:length:min":"18","climbing:orientation":"N","climbing:quality":"solid","climbing:rock":"granite","climbing:sport":"7","fee":"no","indoor":"no","leisure":"pitch","name":"Ψυγείο","name:el":"Ψυγείο","name:en":"Psigio","source":"http://www.exomvourgo.com","sport":"climbing","url":"http://www.exomvourgo.com/index.php/exomvourgo/diadromes/tomeas-1"}},"4028983488":{"location":[37.5345982,25.1657481],"ts":"2025-02-21T00:59:07Z","tz":2,"tags":{"leisure":"sports_centre","name":"Αθλητικός Σύλλογος Αινείας Τήνου","name:el":"Αθλητικός Σύλλογος Αινείας Τήνου","name:en":"Athletic Club Aineias Tinou","note":"Outdoor activities (hiking, rock climbing)","phone":"+30 6946730291","sport":"climbing","website":"http://www.asaineias.com/"}},"4029150853":{"location":[37.5776769,25.1661869],"ts":"2025-02-21T00:59:07Z","tz":2,"tags":{"alt_name":"Τομέας 2","alt_name:en":"Sector 2","climbing:bolted":"yes","climbing:grade:french:max":"6a","climbing:grade:french:min":"5a","climbing:length:max":"19","climbing:length:min":"13","climbing:orientation":"NW","climbing:quality":"solid","climbing:rock":"granite","climbing:sport":"6","fee":"no","indoor":"no","leisure":"pitch","name":"Γλύπτης","name:el":"Γλύπτης","name:en":"Gliptis","source":"http://www.exomvourgo.com","sport":"climbing","url":"http://www.exomvourgo.com/index.php/exomvourgo/diadromes/tomeas-2"}},"4029150854":{"location":[37.5767866,25.1675842],"ts":"2025-02-21T00:59:07Z","tz":2,"tags":{"alt_name":"Τομέας 8","alt_name:en":"Sector 8","climbing:bolted":"yes","climbing:grade:french:max":"6a","climbing:grade:french:min":"5c","climbing:length:max":"30","climbing:length:min":"26","climbing:quality":"solid","climbing:rock":"granite","climbing:sport":"4","fee":"no","indoor":"no","leisure":"pitch","name":"Καταμέρη","name:el":"Καταμέρη","name:en":"Katamerh","source":"http://www.exomvourgo.com","sport":"climbing","url":"http://www.exomvourgo.com/index.php/exomvourgo/diadromes/tomeas-8"}},"4029150855":{"location":[37.5771367,25.1665763],"ts":"2025-02-21T00:59:07Z","tz":2,"tags":{"alt_name":"Τομέας 4","alt_name:en":"Sector 4","climbing:bolted":"yes","climbing:grade:french:max":"7a","climbing:grade:french:min":"5c","climbing:length:max":"23","climbing:length:min":"9","climbing:quality":"solid","climbing:rock":"granite","climbing:sport":"12","fee":"no","indoor":"no","leisure":"pitch","name":"Κέχρος","name:el":"Κέχρος","name:en":"Kehros","source":"http://www.exomvourgo.com","sport":"climbing","url":"http://www.exomvourgo.com/index.php/exomvourgo/diadromes/tomeas-4"}},"4029150856":{"location":[37.5769128,25.1672614],"ts":"2025-02-21T00:59:07Z","tz":2,"tags":{"alt_name":"Τομέας 5","alt_name:en":"Sector 5","climbing:bolted":"yes","climbing:grade:french:max":"6b","climbing:grade:french:min":"5b","climbing:length":"24","climbing:length:max":"55","climbing:length:min":"16","climbing:multipitch":"7","climbing:quality":"solid","climbing:rock":"granite","climbing:sport":"14","fee":"no","indoor":"no","leisure":"pitch","name":"Οχυρό","name:el":"Οχυρό","name:en":"Ohiro","source":"http://www.exomvourgo.com","sport":"climbing","url":"http://www.exomvourgo.com/index.php/exomvourgo/diadromes/tomeas-5"}},"4029150857":{"location":[37.5766972,25.1673859],"ts":"2025-02-21T00:59:07Z","tz":2,"tags":{"alt_name":"Τομέας 6","alt_name:en":"Sector 6","climbing:bolted":"yes","climbing:grade:french:max":"6c","climbing:grade:french:min":"5c","climbing:length:max":"29","climbing:length:min":"18","climbing:quality":"solid","climbing:rock":"granite","climbing:sport":"10","fee":"no","indoor":"no","leisure":"pitch","name":"Παξιμαδοκλέφτρα","name:el":"Παξιμαδοκλέφτρα","name:en":"Paximado kleftra","source":"http://www.exomvourgo.com","sport":"climbing","url":"http://www.exomvourgo.com/index.php/exomvourgo/diadromes/tomeas-6"}},"4029150858":{"location":[37.5773066,25.1661907],"ts":"2025-02-21T00:59:07Z","tz":2,"tags":{"alt_name":"Τομέας 3","alt_name:en":"Sector 3","climbing:bolted":"yes","climbing:grade:french:max":"7b+","climbing:grade:french:min":"5b","climbing:length":"23","climbing:length:max":"140","climbing:length:min":"16","climbing:multipitch":"1","climbing:orientation":"W","climbing:quality":"solid","climbing:rock":"granite","climbing:sport":"19","fee":"no","indoor":"no","leisure":"pitch","name":"Τάμα","name:el":"Τάμα","name:en":"Tama","source":"http://www.exomvourgo.com","sport":"climbing","url":"http://www.exomvourgo.com/index.php/exomvourgo/diadromes/tomeas-3"}},"4029150859":{"location":[37.5764773,25.1678001],"ts":"2025-02-21T00:59:07Z","tz":2,"tags":{"alt_name":"Τομέας 9","alt_name:en":"Sector 9","climbing:bolted":"yes","climbing:grade:french:max":"7a","climbing:grade:french:min":"5c","climbing:length:max":"25","climbing:length:min":"10","climbing:orientation":"SW","climbing:quality":"solid","climbing:rock":"granite","climbing:sport":"14","fee":"no","indoor":"no","leisure":"pitch","name":"Θαύμα","name:el":"Θαύμα","name:en":"Thavma","source":"http://www.exomvourgo.com","sport":"climbing","url":"http://www.exomvourgo.com/index.php/exomvourgo/diadromes/tomeas-9"}},"4029150860":{"location":[37.5766576,25.1674994],"ts":"2025-02-21T00:59:07Z","tz":2,"tags":{"alt_name":"Τομέας 7","alt_name:en":"Sector 7","climbing:bolted":"yes","climbing:grade:french:max":"6b","climbing:grade:french:min":"6a+","climbing:length":"15","climbing:orientation":"S","climbing:quality":"solid","climbing:rock":"granite","climbing:sport":"2","fee":"no","indoor":"no","leisure":"pitch","name":"Βενιαμίν","name:el":"Βενιαμίν","name:en":"Veniamin","source":"http://www.exomvourgo.com","sport":"climbing","url":"http://www.exomvourgo.com/index.php/exomvourgo/diadromes/tomeas-7"}}}